[
    { "model": "base.commune",     "pk": 1 ,"fields": {   "postcode": 1001 , "wilaya":  1, "name": "Adrar" }},
    { "model": "base.commune",     "pk": 2 ,"fields": {   "postcode": 1002 , "wilaya":   1, "name": "Tamest" }},
    { "model": "base.commune",     "pk": 3 ,"fields": {   "postcode": 1003 , "wilaya":   1, "name": "Charouine" }},
    { "model": "base.commune",     "pk": 4 ,"fields": {   "postcode": 1004 , "wilaya":   1, "name": "Reggane" }},
    { "model": "base.commune",     "pk": 5 ,"fields": {   "postcode": 1005 , "wilaya":   1, "name": "Inozghmir" }},
    { "model": "base.commune",     "pk": 6 ,"fields": {   "postcode": 1006 , "wilaya":   1, "name": "Tit" }},
    { "model": "base.commune",     "pk": 7 ,"fields": {   "postcode": 1007 , "wilaya":   1, "name": "Ksar Kaddour" }},
    { "model": "base.commune",     "pk": 8 ,"fields": {   "postcode": 1008 , "wilaya":   1, "name": "Tsabit" }},
    { "model": "base.commune",     "pk": 9 ,"fields": {   "postcode": 1009 , "wilaya":   1, "name": "Timimoun" }},
    { "model": "base.commune",     "pk": 10 ,"fields": {  "postcode": 1010 , "wilaya":   1, "name": "Ouled Said" }},
    { "model": "base.commune",     "pk": 11 ,"fields": {  "postcode": 1011 , "wilaya":   1, "name": "Zaouiet Kounta" }},
    { "model": "base.commune",     "pk": 12 ,"fields": {  "postcode": 1012 , "wilaya":   1, "name": "Aoulef" }},
    { "model": "base.commune",     "pk": 13 ,"fields": {  "postcode": 1013 , "wilaya":   1, "name": "Timokten" }},
    { "model": "base.commune",     "pk": 14 ,"fields": {  "postcode": 1014 , "wilaya":   1, "name": "Tamentit" }},
    { "model": "base.commune",     "pk": 15 ,"fields": {  "postcode": 1015 , "wilaya":   1, "name": "Fenoughil" }},
    { "model": "base.commune",     "pk": 16 ,"fields": {  "postcode": 1016 , "wilaya":   1, "name": "Tinerkouk" }},
    { "model": "base.commune",     "pk": 17 ,"fields": {  "postcode": 1017 , "wilaya":   1, "name": "Deldoul" }},
    { "model": "base.commune",     "pk": 18 ,"fields": {  "postcode": 1018 , "wilaya":   1, "name": "Sali" }},
    { "model": "base.commune",     "pk": 19 ,"fields": {  "postcode": 1019 , "wilaya":   1, "name": "Akabli" }},
    { "model": "base.commune",     "pk": 20 ,"fields": {  "postcode": 1020 , "wilaya":   1, "name": "Metarfa" }},
    { "model": "base.commune",     "pk": 21 ,"fields": {  "postcode": 1021 , "wilaya":   1, "name": "Ouled Ahmed Timmi" }},
    { "model": "base.commune",     "pk": 22 ,"fields": {  "postcode": 1022 , "wilaya":   1, "name": "Bouda" }},
    { "model": "base.commune",     "pk": 23 ,"fields": {  "postcode": 1023 , "wilaya":   1, "name": "Aougrout" }},
    { "model": "base.commune",     "pk": 24 ,"fields": {  "postcode": 1024 , "wilaya":   1, "name": "Talmine" }},
    { "model": "base.commune",     "pk": 25 ,"fields": {  "postcode": 1025 , "wilaya":   1, "name": "Bordj Badji Mokhtar" }},
    { "model": "base.commune",     "pk": 26 ,"fields": {  "postcode": 1026 , "wilaya":   1, "name": "Sbaa" }},
    { "model": "base.commune",     "pk": 27 ,"fields": {  "postcode": 1027 , "wilaya":   1, "name": "Ouled Aissa" }},
    { "model": "base.commune",     "pk": 28 ,"fields": {  "postcode": 1028 , "wilaya":   1, "name": "Timiaouine" }},
    { "model": "base.commune",     "pk": 29 ,"fields": {  "postcode": 2001 , "wilaya":   2, "name": "Chlef" }},
    { "model": "base.commune",     "pk": 30 ,"fields": {  "postcode": 2002 , "wilaya":   2, "name": "Tenes" }},
    { "model": "base.commune",     "pk": 31 ,"fields": {  "postcode": 2003 , "wilaya":   2, "name": "Benairia" }},
    { "model": "base.commune",     "pk": 32 ,"fields": {  "postcode": 2004 , "wilaya":   2, "name": "El Karimia" }},
    { "model": "base.commune",     "pk": 33 ,"fields": {  "postcode": 2005 , "wilaya":   2, "name": "Tadjna" }},
    { "model": "base.commune",     "pk": 34 ,"fields": {  "postcode": 2006 , "wilaya":   2, "name": "Taougrite" }},
    { "model": "base.commune",     "pk": 35 ,"fields": {  "postcode": 2007 , "wilaya":   2, "name": "Beni Haoua" }},
    { "model": "base.commune",     "pk": 36 ,"fields": {  "postcode": 2008 , "wilaya":   2, "name": "Sobha" }},
    { "model": "base.commune",     "pk": 37 ,"fields": {  "postcode": 2009 , "wilaya":   2, "name": "Harchoun" }},
    { "model": "base.commune",     "pk": 38 ,"fields": {  "postcode": 2010 , "wilaya":   2, "name": "Ouled Fares" }},
    { "model": "base.commune",     "pk": 39 ,"fields": {  "postcode": 2011 , "wilaya":   2, "name": "Sidi Akacha" }},
    { "model": "base.commune",     "pk": 40 ,"fields": {  "postcode": 2012 , "wilaya":   2, "name": "Boukadir" }},
    { "model": "base.commune",     "pk": 41 ,"fields": {  "postcode": 2013 , "wilaya":   2, "name": "Beni Rached" }},
    { "model": "base.commune",     "pk": 42 ,"fields": {  "postcode": 2014 , "wilaya":   2, "name": "Talassa" }},
    { "model": "base.commune",     "pk": 43 ,"fields": {  "postcode": 2015 , "wilaya":   2, "name": "Herenfa" }},
    { "model": "base.commune",     "pk": 44 ,"fields": {  "postcode": 2016 , "wilaya":   2, "name": "Oued Goussine" }},
    { "model": "base.commune",     "pk": 45 ,"fields": {  "postcode": 2017 , "wilaya":   2, "name": "Dahra" }},
    { "model": "base.commune",     "pk": 46 ,"fields": {  "postcode": 2018 , "wilaya":   2, "name": "Ouled Abbes" }},
    { "model": "base.commune",     "pk": 47 ,"fields": {  "postcode": 2019 , "wilaya":   2, "name": "Sendjas" }},
    { "model": "base.commune",     "pk": 48 ,"fields": {  "postcode": 2020 , "wilaya":   2, "name": "Zeboudja" }},
    { "model": "base.commune",     "pk": 49 ,"fields": {  "postcode": 2021 , "wilaya":   2, "name": "Oued Sly" }},
    { "model": "base.commune",     "pk": 50 ,"fields": {  "postcode": 2022 , "wilaya":   2, "name": "Abou El Hassen" }},
    { "model": "base.commune",     "pk": 51 ,"fields": {  "postcode": 2023 , "wilaya":   2, "name": "El Marsa" }},
    { "model": "base.commune",     "pk": 52 ,"fields": {  "postcode": 2024 , "wilaya":   2, "name": "Chettia" }},
    { "model": "base.commune",     "pk": 53 ,"fields": {  "postcode": 2025 , "wilaya":   2, "name": "Sidi Abderrahmane" }},
    { "model": "base.commune",     "pk": 54 ,"fields": {  "postcode": 2026 , "wilaya":   2, "name": "Moussadek" }},
    { "model": "base.commune",     "pk": 55 ,"fields": {  "postcode": 2027 , "wilaya":   2, "name": "El Hadjadj" }},
    { "model": "base.commune",     "pk": 56 ,"fields": {  "postcode": 2028 , "wilaya":   2, "name": "Labiod Medjadja" }},
    { "model": "base.commune",     "pk": 57 ,"fields": {  "postcode": 2029 , "wilaya":   2, "name": "Oued Fodda" }},
    { "model": "base.commune",     "pk": 58 ,"fields": {  "postcode": 2030 , "wilaya":   2, "name": "Ouled Ben Abdelkader" }},
    { "model": "base.commune",     "pk": 59 ,"fields": {  "postcode": 2031 , "wilaya":   2, "name": "Bouzghaia" }},
    { "model": "base.commune",     "pk": 60 ,"fields": {  "postcode": 2032 , "wilaya":   2, "name": "Ain Merane" }},
    { "model": "base.commune",     "pk": 61 ,"fields": {  "postcode": 2033 , "wilaya":   2, "name": "Oum Drou" }},
    { "model": "base.commune",     "pk": 62 ,"fields": {  "postcode": 2034 , "wilaya":   2, "name": "Breira" }},
    { "model": "base.commune",     "pk": 63 ,"fields": {  "postcode": 2035 , "wilaya":   2, "name": "Ben Boutaleb" }},
    { "model": "base.commune",     "pk": 64 ,"fields": {  "postcode": 3001 , "wilaya":   3, "name": "Laghouat" }},
    { "model": "base.commune",     "pk": 65 ,"fields": {  "postcode": 3002 , "wilaya":   3, "name": "Ksar El Hirane" }},
    { "model": "base.commune",     "pk": 66 ,"fields": {  "postcode": 3003 , "wilaya":   3, "name": "Benacer Ben Chohra" }},
    { "model": "base.commune",     "pk": 67 ,"fields": {  "postcode": 3004 , "wilaya":   3, "name": "Sidi Makhlouf" }},
    { "model": "base.commune",     "pk": 68 ,"fields": {  "postcode": 3005 , "wilaya":   3, "name": "Hassi Delaa" }},
    { "model": "base.commune",     "pk": 69 ,"fields": {  "postcode": 3006 , "wilaya":   3, "name": "Hassi R Mel" }},
    { "model": "base.commune",     "pk": 70 ,"fields": {  "postcode": 3007 , "wilaya":   3, "name": "Ain Mahdi" }},
    { "model": "base.commune",     "pk": 71 ,"fields": {  "postcode": 3008 , "wilaya":   3, "name": "Tadjmout" }},
    { "model": "base.commune",     "pk": 72 ,"fields": {  "postcode": 3009 , "wilaya":   3, "name": "Kheneg" }},
    { "model": "base.commune",     "pk": 73 ,"fields": {  "postcode": 3010 , "wilaya":   3, "name": "Gueltat Sidi Saad" }},
    { "model": "base.commune",     "pk": 74 ,"fields": {  "postcode": 3011 , "wilaya":   3, "name": "Ain Sidi Ali" }},
    { "model": "base.commune",     "pk": 75 ,"fields": {  "postcode": 3012 , "wilaya":   3, "name": "Beidha" }},
    { "model": "base.commune",     "pk": 76 ,"fields": {  "postcode": 3013 , "wilaya":   3, "name": "Brida" }},
    { "model": "base.commune",     "pk": 77 ,"fields": {  "postcode": 3014 , "wilaya":   3, "name": "El Ghicha" }},
    { "model": "base.commune",     "pk": 78 ,"fields": {  "postcode": 3015 , "wilaya":   3, "name": "Hadj Mechri" }},
    { "model": "base.commune",     "pk": 79 ,"fields": {  "postcode": 3016 , "wilaya":   3, "name": "Sebgag" }},
    { "model": "base.commune",     "pk": 80 ,"fields": {  "postcode": 3017 , "wilaya":   3, "name": "Taouiala" }},
    { "model": "base.commune",     "pk": 81 ,"fields": {  "postcode": 3018 , "wilaya":   3, "name": "Tadjrouna" }},
    { "model": "base.commune",     "pk": 82 ,"fields": {  "postcode": 3019 , "wilaya":   3, "name": "Aflou" }},
    { "model": "base.commune",     "pk": 83 ,"fields": {  "postcode": 3020 , "wilaya":   3, "name": "El Assafia" }},
    { "model": "base.commune",     "pk": 84 ,"fields": {  "postcode": 3021 , "wilaya":   3, "name": "Oued Morra" }},
    { "model": "base.commune",     "pk": 85 ,"fields": {  "postcode": 3022 , "wilaya":   3, "name": "Oued M Zi" }},
    { "model": "base.commune",     "pk": 86 ,"fields": {  "postcode": 3023 , "wilaya":   3, "name": "El Haouaita" }},
    { "model": "base.commune",     "pk": 87 ,"fields": {  "postcode": 3024 , "wilaya":   3, "name": "Sidi Bouzid" }},
    { "model": "base.commune",     "pk": 88 ,"fields": {  "postcode": 4001 , "wilaya":   4, "name": "Oum El Bouaghi" }},
    { "model": "base.commune",     "pk": 89 ,"fields": {  "postcode": 4002 , "wilaya":   4, "name": "Ain Beida" }},
    { "model": "base.commune",     "pk": 90 ,"fields": {  "postcode": 4003 , "wilaya":   4, "name": "Ainmlila" }},
    { "model": "base.commune",     "pk": 91 ,"fields": {  "postcode": 4004 , "wilaya":   4, "name": "Behir Chergui" }},
    { "model": "base.commune",     "pk": 92 ,"fields": {  "postcode": 4005 , "wilaya":   4, "name": "El Amiria" }},
    { "model": "base.commune",     "pk": 93 ,"fields": {  "postcode": 4006 , "wilaya":   4, "name": "Sigus" }},
    { "model": "base.commune",     "pk": 94 ,"fields": {  "postcode": 4007 , "wilaya":   4, "name": "El Belala" }},
    { "model": "base.commune",     "pk": 95 ,"fields": {  "postcode": 4008 , "wilaya":   4, "name": "Ain Babouche" }},
    { "model": "base.commune",     "pk": 96 ,"fields": {  "postcode": 4009 , "wilaya":   4, "name": "Berriche" }},
    { "model": "base.commune",     "pk": 97 ,"fields": {  "postcode": 4010 , "wilaya":   4, "name": "Ouled Hamla" }},
    { "model": "base.commune",     "pk": 98 ,"fields": {  "postcode": 4011 , "wilaya":   4, "name": "Dhala" }},
    { "model": "base.commune",     "pk": 99 ,"fields": {  "postcode": 4012 , "wilaya":   4, "name": "Ain Kercha" }},
    { "model": "base.commune",     "pk": 100 ,"fields": {  "postcode": 4013 , "wilaya":   4, "name": "Hanchir Toumghani" }},
    { "model": "base.commune",     "pk": 101 ,"fields": {  "postcode": 4014 , "wilaya":   4, "name": "El Djazia" }},
    { "model": "base.commune",     "pk": 102 ,"fields": {  "postcode": 4015 , "wilaya":   4, "name": "Ain Diss" }},
    { "model": "base.commune",     "pk": 103 ,"fields": {  "postcode": 4016 , "wilaya":   4, "name": "Fkirina" }},
    { "model": "base.commune",     "pk": 104 ,"fields": {  "postcode": 4017 , "wilaya":   4, "name": "Souk Naamane" }},
    { "model": "base.commune",     "pk": 105 ,"fields": {  "postcode": 4018 , "wilaya":   4, "name": "Zorg" }},
    { "model": "base.commune",     "pk": 106 ,"fields": {  "postcode": 4019 , "wilaya":   4, "name": "El Fedjoudj Boughrar" }},
    { "model": "base.commune",     "pk": 107 ,"fields": {  "postcode": 4020 , "wilaya":   4, "name": "Ouled Zouai" }},
    { "model": "base.commune",     "pk": 108 ,"fields": {  "postcode": 4021 , "wilaya":   4, "name": "Bir Chouhada" }},
    { "model": "base.commune",     "pk": 109 ,"fields": {  "postcode": 4022 , "wilaya":   4, "name": "Ksar Sbahi" }},
    { "model": "base.commune",     "pk": 110 ,"fields": {  "postcode": 4023 , "wilaya":   4, "name": "Oued Nini" }},
    { "model": "base.commune",     "pk": 111 ,"fields": {  "postcode": 4024 , "wilaya":   4, "name": "Meskiana" }},
    { "model": "base.commune",     "pk": 112 ,"fields": {  "postcode": 4025 , "wilaya":   4, "name": "Ain Fekroune" }},
    { "model": "base.commune",     "pk": 113 ,"fields": {  "postcode": 4026 , "wilaya":   4, "name": "Rahia" }},
    { "model": "base.commune",     "pk": 114 ,"fields": {  "postcode": 4027 , "wilaya":   4, "name": "Ain Zitoun" }},
    { "model": "base.commune",     "pk": 115 ,"fields": {  "postcode": 4028 , "wilaya":   4, "name": "Ouled Gacem" }},
    { "model": "base.commune",     "pk": 116 ,"fields": {  "postcode": 4029 , "wilaya":   4, "name": "El Harmilia" }},
    { "model": "base.commune",     "pk": 117 ,"fields": {  "postcode": 5001 , "wilaya":   5, "name": "Batna" }},
    { "model": "base.commune",     "pk": 118 ,"fields": {  "postcode": 5002 , "wilaya":   5, "name": "Ghassira" }},
    { "model": "base.commune",     "pk": 119 ,"fields": {  "postcode": 5003 , "wilaya":   5, "name": "Maafa" }},
    { "model": "base.commune",     "pk": 120 ,"fields": {  "postcode": 5004 , "wilaya":   5, "name": "Merouana" }},
    { "model": "base.commune",     "pk": 121 ,"fields": {  "postcode": 5005 , "wilaya":   5, "name": "Seriana" }},
    { "model": "base.commune",     "pk": 122 ,"fields": {  "postcode": 5006 , "wilaya":   5, "name": "Menaa" }},
    { "model": "base.commune",     "pk": 123 ,"fields": {  "postcode": 5007 , "wilaya":   5, "name": "El Madher" }},
    { "model": "base.commune",     "pk": 124 ,"fields": {  "postcode": 5008 , "wilaya":   5, "name": "Tazoult" }},
    { "model": "base.commune",     "pk": 125 ,"fields": {  "postcode": 5009 , "wilaya":   5, "name": "Ngaous" }},
    { "model": "base.commune",     "pk": 126 ,"fields": {  "postcode": 5010 , "wilaya":   5, "name": "Guigba" }},
    { "model": "base.commune",     "pk": 127 ,"fields": {  "postcode": 5011 , "wilaya":   5, "name": "Inoughissen" }},
    { "model": "base.commune",     "pk": 128 ,"fields": {  "postcode": 5012 , "wilaya":   5, "name": "Ouyoun El Assafir" }},
    { "model": "base.commune",     "pk": 129 ,"fields": {  "postcode": 5013 , "wilaya":   5, "name": "Djerma" }},
    { "model": "base.commune",     "pk": 130 ,"fields": {  "postcode": 5014 , "wilaya":   5, "name": "Bitam" }},
    { "model": "base.commune",     "pk": 131 ,"fields": {  "postcode": 5015 , "wilaya":   5, "name": "Metkaouak" }},
    { "model": "base.commune",     "pk": 132 ,"fields": {  "postcode": 5016 , "wilaya":   5, "name": "Arris" }},
    { "model": "base.commune",     "pk": 133 ,"fields": {  "postcode": 5017 , "wilaya":   5, "name": "Kimmel" }},
    { "model": "base.commune",     "pk": 134 ,"fields": {  "postcode": 5018 , "wilaya":   5, "name": "Tilatou" }},
    { "model": "base.commune",     "pk": 135 ,"fields": {  "postcode": 5019 , "wilaya":   5, "name": "Ain Djasser" }},
    { "model": "base.commune",     "pk": 136 ,"fields": {  "postcode": 5020 , "wilaya":   5, "name": "Ouled Selam" }},
    { "model": "base.commune",     "pk": 137 ,"fields": {  "postcode": 5021 , "wilaya":   5, "name": "Tigherghar" }},
    { "model": "base.commune",     "pk": 138 ,"fields": {  "postcode": 5022 , "wilaya":   5, "name": "Ain Yagout" }},
    { "model": "base.commune",     "pk": 139 ,"fields": {  "postcode": 5023 , "wilaya":   5, "name": "Fesdis" }},
    { "model": "base.commune",     "pk": 140 ,"fields": {  "postcode": 5024 , "wilaya":   5, "name": "Sefiane" }},
    { "model": "base.commune",     "pk": 141 ,"fields": {  "postcode": 5025 , "wilaya":   5, "name": "Rahbat" }},
    { "model": "base.commune",     "pk": 142 ,"fields": {  "postcode": 5026 , "wilaya":   5, "name": "Tighanimine" }},
    { "model": "base.commune",     "pk": 143 ,"fields": {  "postcode": 5027 , "wilaya":   5, "name": "Lemsane" }},
    { "model": "base.commune",     "pk": 144 ,"fields": {  "postcode": 5028 , "wilaya":   5, "name": "Ksar Belezma" }},
    { "model": "base.commune",     "pk": 145 ,"fields": {  "postcode": 5029 , "wilaya":   5, "name": "Seggana" }},
    { "model": "base.commune",     "pk": 146 ,"fields": {  "postcode": 5030 , "wilaya":   5, "name": "Ichmoul" }},
    { "model": "base.commune",     "pk": 147 ,"fields": {  "postcode": 5031 , "wilaya":   5, "name": "Foum Toub" }},
    { "model": "base.commune",     "pk": 148 ,"fields": {  "postcode": 5032 , "wilaya":   5, "name": "Beni Foudhala El Hakania" }},
    { "model": "base.commune",     "pk": 149 ,"fields": {  "postcode": 5033 , "wilaya":   5, "name": "Oued El Ma" }},
    { "model": "base.commune",     "pk": 150 ,"fields": {  "postcode": 5034 , "wilaya":   5, "name": "Talkhamt" }},
    { "model": "base.commune",     "pk": 151 ,"fields": {  "postcode": 5035 , "wilaya":   5, "name": "Bouzina" }},
    { "model": "base.commune",     "pk": 152 ,"fields": {  "postcode": 5036 , "wilaya":   5, "name": "Chemora" }},
    { "model": "base.commune",     "pk": 153 ,"fields": {  "postcode": 5037 , "wilaya":   5, "name": "Oued Chaaba" }},
    { "model": "base.commune",     "pk": 154 ,"fields": {  "postcode": 5038 , "wilaya":   5, "name": "Taxlent" }},
    { "model": "base.commune",     "pk": 155 ,"fields": {  "postcode": 5039 , "wilaya":   5, "name": "Gosbat" }},
    { "model": "base.commune",     "pk": 156 ,"fields": {  "postcode": 5040 , "wilaya":   5, "name": "Ouled Aouf" }},
    { "model": "base.commune",     "pk": 157 ,"fields": {  "postcode": 5041 , "wilaya":   5, "name": "Boumagueur" }},
    { "model": "base.commune",     "pk": 158 ,"fields": {  "postcode": 5042 , "wilaya":   5, "name": "Barika" }},
    { "model": "base.commune",     "pk": 159 ,"fields": {  "postcode": 5043 , "wilaya":   5, "name": "Djezzar" }},
    { "model": "base.commune",     "pk": 160 ,"fields": {  "postcode": 5044 , "wilaya":   5, "name": "Tkout" }},
    { "model": "base.commune",     "pk": 161 ,"fields": {  "postcode": 5045 , "wilaya":   5, "name": "Ain Touta" }},
    { "model": "base.commune",     "pk": 162 ,"fields": {  "postcode": 5046 , "wilaya":   5, "name": "Hidoussa" }},
    { "model": "base.commune",     "pk": 163 ,"fields": {  "postcode": 5047 , "wilaya":   5, "name": "Teniet El Abed" }},
    { "model": "base.commune",     "pk": 164 ,"fields": {  "postcode": 5048 , "wilaya":   5, "name": "Oued Taga" }},
    { "model": "base.commune",     "pk": 165 ,"fields": {  "postcode": 5049 , "wilaya":   5, "name": "Ouled Fadel" }},
    { "model": "base.commune",     "pk": 166 ,"fields": {  "postcode": 5050 , "wilaya":   5, "name": "Timgad" }},
    { "model": "base.commune",     "pk": 167 ,"fields": {  "postcode": 5051 , "wilaya":   5, "name": "Ras El Aioun" }},
    { "model": "base.commune",     "pk": 168 ,"fields": {  "postcode": 5052 , "wilaya":   5, "name": "Chir" }},
    { "model": "base.commune",     "pk": 169 ,"fields": {  "postcode": 5053 , "wilaya":   5, "name": "Ouled Si Slimane" }},
    { "model": "base.commune",     "pk": 170 ,"fields": {  "postcode": 5054 , "wilaya":   5, "name": "Zanat El Beida" }},
    { "model": "base.commune",     "pk": 171 ,"fields": {  "postcode": 5055 , "wilaya":   5, "name": "Amdoukal" }},
    { "model": "base.commune",     "pk": 172 ,"fields": {  "postcode": 5056 , "wilaya":   5, "name": "Ouled Ammar" }},
    { "model": "base.commune",     "pk": 173 ,"fields": {  "postcode": 5057 , "wilaya":   5, "name": "El Hassi" }},
    { "model": "base.commune",     "pk": 174 ,"fields": {  "postcode": 5058 , "wilaya":   5, "name": "Lazrou" }},
    { "model": "base.commune",     "pk": 175 ,"fields": {  "postcode": 5059 , "wilaya":   5, "name": "Boumia" }},
    { "model": "base.commune",     "pk": 176 ,"fields": {  "postcode": 5060 , "wilaya":   5, "name": "Boulhilat" }},
    { "model": "base.commune",     "pk": 177 ,"fields": {  "postcode": 5061 , "wilaya":   5, "name": "Larbaa" }},
    { "model": "base.commune",     "pk": 178 ,"fields": {  "postcode": 6001 , "wilaya":   6, "name": "Bejaia" }},
    { "model": "base.commune",     "pk": 179 ,"fields": {  "postcode": 6002 , "wilaya":   6, "name": "Amizour" }},
    { "model": "base.commune",     "pk": 180 ,"fields": {  "postcode": 6003 , "wilaya":   6, "name": "Ferraoun" }},
    { "model": "base.commune",     "pk": 181 ,"fields": {  "postcode": 6004 , "wilaya":   6, "name": "Taourirt Ighil" }},
    { "model": "base.commune",     "pk": 182 ,"fields": {  "postcode": 6005 , "wilaya":   6, "name": "Chelata" }},
    { "model": "base.commune",     "pk": 183 ,"fields": {  "postcode": 6006 , "wilaya":   6, "name": "Tamokra" }},
    { "model": "base.commune",     "pk": 184 ,"fields": {  "postcode": 6007 , "wilaya":   6, "name": "Timzrit" }},
    { "model": "base.commune",     "pk": 185 ,"fields": {  "postcode": 6008 , "wilaya":   6, "name": "Souk El Thenine" }},
    { "model": "base.commune",     "pk": 186 ,"fields": {  "postcode": 6009 , "wilaya":   6, "name": "Mcisna" }},
    { "model": "base.commune",     "pk": 187 ,"fields": {  "postcode": 6010 , "wilaya":   6, "name": "Thinabdher" }},
    { "model": "base.commune",     "pk": 188 ,"fields": {  "postcode": 6011 , "wilaya":   6, "name": "Tichi" }},
    { "model": "base.commune",     "pk": 189 ,"fields": {  "postcode": 6012 , "wilaya":   6, "name": "Semaoun" }},
    { "model": "base.commune",     "pk": 190 ,"fields": {  "postcode": 6013 , "wilaya":   6, "name": "Kendira" }},
    { "model": "base.commune",     "pk": 191 ,"fields": {  "postcode": 6014 , "wilaya":   6, "name": "Tifra" }},
    { "model": "base.commune",     "pk": 192 ,"fields": {  "postcode": 6015 , "wilaya":   6, "name": "Ighram" }},
    { "model": "base.commune",     "pk": 193 ,"fields": {  "postcode": 6016 , "wilaya":   6, "name": "Amalou" }},
    { "model": "base.commune",     "pk": 194 ,"fields": {  "postcode": 6017 , "wilaya":   6, "name": "Ighil Ali" }},
    { "model": "base.commune",     "pk": 195 ,"fields": {  "postcode": 6018 , "wilaya":   6, "name": "Ifelain Ilmathen" }},
    { "model": "base.commune",     "pk": 196 ,"fields": {  "postcode": 6019 , "wilaya":   6, "name": "Toudja" }},
    { "model": "base.commune",     "pk": 197 ,"fields": {  "postcode": 6020 , "wilaya":   6, "name": "Darguina" }},
    { "model": "base.commune",     "pk": 198 ,"fields": {  "postcode": 6021 , "wilaya":   6, "name": "Sidi Ayad" }},
    { "model": "base.commune",     "pk": 199 ,"fields": {  "postcode": 6022 , "wilaya":   6, "name": "Aokas" }},
    { "model": "base.commune",     "pk": 200 ,"fields": {  "postcode": 6023 , "wilaya":   6, "name": "Beni Djellil" }},
    { "model": "base.commune",     "pk": 201 ,"fields": {  "postcode": 6024 , "wilaya":   6, "name": "Adekar" }},
    { "model": "base.commune",     "pk": 202 ,"fields": {  "postcode": 6025 , "wilaya":   6, "name": "Akbou" }},
    { "model": "base.commune",     "pk": 203 ,"fields": {  "postcode": 6026 , "wilaya":   6, "name": "Seddouk" }},
    { "model": "base.commune",     "pk": 204 ,"fields": {  "postcode": 6027 , "wilaya":   6, "name": "Tazmalt" }},
    { "model": "base.commune",     "pk": 205 ,"fields": {  "postcode": 6028 , "wilaya":   6, "name": "Ait Rizine" }},
    { "model": "base.commune",     "pk": 206 ,"fields": {  "postcode": 6029 , "wilaya":   6, "name": "Chemini" }},
    { "model": "base.commune",     "pk": 207 ,"fields": {  "postcode": 6030 , "wilaya":   6, "name": "Souk Oufella" }},
    { "model": "base.commune",     "pk": 208 ,"fields": {  "postcode": 6031 , "wilaya":   6, "name": "Taskriout" }},
    { "model": "base.commune",     "pk": 209 ,"fields": {  "postcode": 6032 , "wilaya":   6, "name": "Tibane" }},
    { "model": "base.commune",     "pk": 210 ,"fields": {  "postcode": 6033 , "wilaya":   6, "name": "Tala Hamza" }},
    { "model": "base.commune",     "pk": 211 ,"fields": {  "postcode": 6034 , "wilaya":   6, "name": "Barbacha" }},
    { "model": "base.commune",     "pk": 212 ,"fields": {  "postcode": 6035 , "wilaya":   6, "name": "Beni Ksila" }},
    { "model": "base.commune",     "pk": 213 ,"fields": {  "postcode": 6036 , "wilaya":   6, "name": "Ouzallaguen" }},
    { "model": "base.commune",     "pk": 214 ,"fields": {  "postcode": 6037 , "wilaya":   6, "name": "Bouhamza" }},
    { "model": "base.commune",     "pk": 215 ,"fields": {  "postcode": 6038 , "wilaya":   6, "name": "Beni Melikeche" }},
    { "model": "base.commune",     "pk": 216 ,"fields": {  "postcode": 6039 , "wilaya":   6, "name": "Sidi Aich" }},
    { "model": "base.commune",     "pk": 217 ,"fields": {  "postcode": 6040 , "wilaya":   6, "name": "El Kseur" }},
    { "model": "base.commune",     "pk": 218 ,"fields": {  "postcode": 6041 , "wilaya":   6, "name": "Melbou" }},
    { "model": "base.commune",     "pk": 219 ,"fields": {  "postcode": 6042 , "wilaya":   6, "name": "Akfadou" }},
    { "model": "base.commune",     "pk": 220 ,"fields": {  "postcode": 6043 , "wilaya":   6, "name": "Leflaye" }},
    { "model": "base.commune",     "pk": 221 ,"fields": {  "postcode": 6044 , "wilaya":   6, "name": "Kherrata" }},
    { "model": "base.commune",     "pk": 222 ,"fields": {  "postcode": 6045 , "wilaya":   6, "name": "Draa Kaid" }},
    { "model": "base.commune",     "pk": 223 ,"fields": {  "postcode": 6046 , "wilaya":   6, "name": "Tamridjet" }},
    { "model": "base.commune",     "pk": 224 ,"fields": {  "postcode": 6047 , "wilaya":   6, "name": "Ait Smail" }},
    { "model": "base.commune",     "pk": 225 ,"fields": {  "postcode": 6048 , "wilaya":   6, "name": "Boukhelifa" }},
    { "model": "base.commune",     "pk": 226 ,"fields": {  "postcode": 6049 , "wilaya":   6, "name": "Tizi Nberber" }},
    { "model": "base.commune",     "pk": 227 ,"fields": {  "postcode": 6050 , "wilaya":   6, "name": "Beni Maouch" }},
    { "model": "base.commune",     "pk": 228 ,"fields": {  "postcode": 6051 , "wilaya":   6, "name": "Oued Ghir" }},
    { "model": "base.commune",     "pk": 229 ,"fields": {  "postcode": 6052 , "wilaya":   6, "name": "Boudjellil" }},
    { "model": "base.commune",     "pk": 230 ,"fields": {  "postcode": 7001 , "wilaya":   7, "name": "Biskra" }},
    { "model": "base.commune",     "pk": 231 ,"fields": {  "postcode": 7002 , "wilaya":   7, "name": "Oumache" }},
    { "model": "base.commune",     "pk": 232 ,"fields": {  "postcode": 7003 , "wilaya":   7, "name": "Branis" }},
    { "model": "base.commune",     "pk": 233 ,"fields": {  "postcode": 7004 , "wilaya":   7, "name": "Chetma" }},
    { "model": "base.commune",     "pk": 234 ,"fields": {  "postcode": 7005 , "wilaya":   7, "name": "Ouled Djellal" }},
    { "model": "base.commune",     "pk": 235 ,"fields": {  "postcode": 7006 , "wilaya":   7, "name": "Ras El Miaad" }},
    { "model": "base.commune",     "pk": 236 ,"fields": {  "postcode": 7007 , "wilaya":   7, "name": "Besbes" }},
    { "model": "base.commune",     "pk": 237 ,"fields": {  "postcode": 7008 , "wilaya":   7, "name": "Sidi Khaled" }},
    { "model": "base.commune",     "pk": 238 ,"fields": {  "postcode": 7009 , "wilaya":   7, "name": "Doucen" }},
    { "model": "base.commune",     "pk": 239 ,"fields": {  "postcode": 7010 , "wilaya":   7, "name": "Ech Chaiba" }},
    { "model": "base.commune",     "pk": 240 ,"fields": {  "postcode": 7011 , "wilaya":   7, "name": "Sidi Okba" }},
    { "model": "base.commune",     "pk": 241 ,"fields": {  "postcode": 7012 , "wilaya":   7, "name": "Mchouneche" }},
    { "model": "base.commune",     "pk": 242 ,"fields": {  "postcode": 7013 , "wilaya":   7, "name": "El Haouch" }},
    { "model": "base.commune",     "pk": 243 ,"fields": {  "postcode": 7014 , "wilaya":   7, "name": "Ain Naga" }},
    { "model": "base.commune",     "pk": 244 ,"fields": {  "postcode": 7015 , "wilaya":   7, "name": "Zeribet El Oued" }},
    { "model": "base.commune",     "pk": 245 ,"fields": {  "postcode": 7016 , "wilaya":   7, "name": "El Feidh" }},
    { "model": "base.commune",     "pk": 246 ,"fields": {  "postcode": 7017 , "wilaya":   7, "name": "El Kantara" }},
    { "model": "base.commune",     "pk": 247 ,"fields": {  "postcode": 7018 , "wilaya":   7, "name": "Ain Zaatout" }},
    { "model": "base.commune",     "pk": 248 ,"fields": {  "postcode": 7019 , "wilaya":   7, "name": "El Outaya" }},
    { "model": "base.commune",     "pk": 249 ,"fields": {  "postcode": 7020 , "wilaya":   7, "name": "Djemorah" }},
    { "model": "base.commune",     "pk": 250 ,"fields": {  "postcode": 7021 , "wilaya":   7, "name": "Tolga" }},
    { "model": "base.commune",     "pk": 251 ,"fields": {  "postcode": 7022 , "wilaya":   7, "name": "Lioua" }},
    { "model": "base.commune",     "pk": 252 ,"fields": {  "postcode": 7023 , "wilaya":   7, "name": "Lichana" }},
    { "model": "base.commune",     "pk": 253 ,"fields": {  "postcode": 7024 , "wilaya":   7, "name": "Ourlal" }},
    { "model": "base.commune",     "pk": 254 ,"fields": {  "postcode": 7025 , "wilaya":   7, "name": "Mlili" }},
    { "model": "base.commune",     "pk": 255 ,"fields": {  "postcode": 7026 , "wilaya":   7, "name": "Foughala" }},
    { "model": "base.commune",     "pk": 256 ,"fields": {  "postcode": 7027 , "wilaya":   7, "name": "Bordj Ben Azzouz" }},
    { "model": "base.commune",     "pk": 257 ,"fields": {  "postcode": 7028 , "wilaya":   7, "name": "Meziraa" }},
    { "model": "base.commune",     "pk": 258 ,"fields": {  "postcode": 7029 , "wilaya":   7, "name": "Bouchagroun" }},
    { "model": "base.commune",     "pk": 259 ,"fields": {  "postcode": 7030 , "wilaya":   7, "name": "Mekhadma" }},
    { "model": "base.commune",     "pk": 260 ,"fields": {  "postcode": 7031 , "wilaya":   7, "name": "El Ghrous" }},
    { "model": "base.commune",     "pk": 261 ,"fields": {  "postcode": 7032 , "wilaya":   7, "name": "El Hadjab" }},
    { "model": "base.commune",     "pk": 262 ,"fields": {  "postcode": 7033 , "wilaya":   7, "name": "Khanguet Sidinadji" }},
    { "model": "base.commune",     "pk": 263 ,"fields": {  "postcode": 8001 , "wilaya":   8, "name": "Bechar" }},
    { "model": "base.commune",     "pk": 264 ,"fields": {  "postcode": 8002 , "wilaya":   8, "name": "Erg Ferradj" }},
    { "model": "base.commune",     "pk": 265 ,"fields": {  "postcode": 8003 , "wilaya":   8, "name": "Ouled Khoudir" }},
    { "model": "base.commune",     "pk": 266 ,"fields": {  "postcode": 8004 , "wilaya":   8, "name": "Meridja" }},
    { "model": "base.commune",     "pk": 267 ,"fields": {  "postcode": 8005 , "wilaya":   8, "name": "Timoudi" }},
    { "model": "base.commune",     "pk": 268 ,"fields": {  "postcode": 8006 , "wilaya":   8, "name": "Lahmar" }},
    { "model": "base.commune",     "pk": 269 ,"fields": {  "postcode": 8007 , "wilaya":   8, "name": "Beni Abbes" }},
    { "model": "base.commune",     "pk": 270 ,"fields": {  "postcode": 8008 , "wilaya":   8, "name": "Beni Ikhlef" }},
    { "model": "base.commune",     "pk": 271 ,"fields": {  "postcode": 8009 , "wilaya":   8, "name": "Mechraa Houari B" }},
    { "model": "base.commune",     "pk": 272 ,"fields": {  "postcode": 8010 , "wilaya":   8, "name": "Kenedsa" }},
    { "model": "base.commune",     "pk": 273 ,"fields": {  "postcode": 8011 , "wilaya":   8, "name": "Igli" }},
    { "model": "base.commune",     "pk": 274 ,"fields": {  "postcode": 8012 , "wilaya":   8, "name": "Tabalbala" }},
    { "model": "base.commune",     "pk": 275 ,"fields": {  "postcode": 8013 , "wilaya":   8, "name": "Taghit" }},
    { "model": "base.commune",     "pk": 276 ,"fields": {  "postcode": 8014 , "wilaya":   8, "name": "El Ouata" }},
    { "model": "base.commune",     "pk": 277 ,"fields": {  "postcode": 8015 , "wilaya":   8, "name": "Boukais" }},
    { "model": "base.commune",     "pk": 278 ,"fields": {  "postcode": 8016 , "wilaya":   8, "name": "Mogheul" }},
    { "model": "base.commune",     "pk": 279 ,"fields": {  "postcode": 8017 , "wilaya":   8, "name": "Abadla" }},
    { "model": "base.commune",     "pk": 280 ,"fields": {  "postcode": 8018 , "wilaya":   8, "name": "Kerzaz" }},
    { "model": "base.commune",     "pk": 281 ,"fields": {  "postcode": 8019 , "wilaya":   8, "name": "Ksabi" }},
    { "model": "base.commune",     "pk": 282 ,"fields": {  "postcode": 8020 , "wilaya":   8, "name": "Tamtert" }},
    { "model": "base.commune",     "pk": 283 ,"fields": {  "postcode": 8021 , "wilaya":   8, "name": "Beni Ounif" }},
    { "model": "base.commune",     "pk": 284 ,"fields": {  "postcode": 9001 , "wilaya":   9, "name": "Blida" }},
    { "model": "base.commune",     "pk": 285 ,"fields": {  "postcode": 9002 , "wilaya":   9, "name": "Chebli" }},
    { "model": "base.commune",     "pk": 286 ,"fields": {  "postcode": 9003 , "wilaya":   9, "name": "Bouinan" }},
    { "model": "base.commune",     "pk": 287 ,"fields": {  "postcode": 9004 , "wilaya":   9, "name": "Oued El Alleug" }},
    { "model": "base.commune",     "pk": 288 ,"fields": {  "postcode": 9007 , "wilaya":   9, "name": "Ouled Yaich" }},
    { "model": "base.commune",     "pk": 289 ,"fields": {  "postcode": 9008 , "wilaya":   9, "name": "Chrea" }},
    { "model": "base.commune",     "pk": 290 ,"fields": {  "postcode": 9010 , "wilaya":   9, "name": "El Affroun" }},
    { "model": "base.commune",     "pk": 291 ,"fields": {  "postcode": 9011 , "wilaya":   9, "name": "Chiffa" }},
    { "model": "base.commune",     "pk": 292 ,"fields": {  "postcode": 9012 , "wilaya":   9, "name": "Hammam Melouane" }},
    { "model": "base.commune",     "pk": 293 ,"fields": {  "postcode": 9013 , "wilaya":   9, "name": "Ben Khlil" }},
    { "model": "base.commune",     "pk": 294 ,"fields": {  "postcode": 9014 , "wilaya":   9, "name": "Soumaa" }},
    { "model": "base.commune",     "pk": 295 ,"fields": {  "postcode": 9016 , "wilaya":   9, "name": "Mouzaia" }},
    { "model": "base.commune",     "pk": 296 ,"fields": {  "postcode": 9017 , "wilaya":   9, "name": "Souhane" }},
    { "model": "base.commune",     "pk": 297 ,"fields": {  "postcode": 9018 , "wilaya":   9, "name": "Meftah" }},
    { "model": "base.commune",     "pk": 298 ,"fields": {  "postcode": 9019 , "wilaya":   9, "name": "Ouled Selama" }},
    { "model": "base.commune",     "pk": 299 ,"fields": {  "postcode": 9020 , "wilaya":   9, "name": "Boufarik" }},
    { "model": "base.commune",     "pk": 300 ,"fields": {  "postcode": 9021 , "wilaya":   9, "name": "Larbaa" }},
    { "model": "base.commune",     "pk": 301 ,"fields": {  "postcode": 9022 , "wilaya":   9, "name": "Oued Djer" }},
    { "model": "base.commune",     "pk": 302 ,"fields": {  "postcode": 9023 , "wilaya":   9, "name": "Beni Tamou" }},
    { "model": "base.commune",     "pk": 303 ,"fields": {  "postcode": 9024 , "wilaya":   9, "name": "Bouarfa" }},
    { "model": "base.commune",     "pk": 304 ,"fields": {  "postcode": 9025 , "wilaya":   9, "name": "Beni Mered" }},
    { "model": "base.commune",     "pk": 305 ,"fields": {  "postcode": 9026 , "wilaya":   9, "name": "Bougara" }},
    { "model": "base.commune",     "pk": 306 ,"fields": {  "postcode": 9027 , "wilaya":   9, "name": "Guerrouaou" }},
    { "model": "base.commune",     "pk": 307 ,"fields": {  "postcode": 9028 , "wilaya":   9, "name": "Ain Romana" }},
    { "model": "base.commune",     "pk": 308 ,"fields": {  "postcode": 9029 , "wilaya":   9, "name": "Djebabra" }},
    { "model": "base.commune",     "pk": 309  ,"fields": { "postcode": 10001,  "wilaya":   10, "name": "Bouira" }},
    { "model": "base.commune",     "pk": 310  ,"fields": { "postcode": 10002,  "wilaya":   10, "name": "El Asnam" }},
    { "model": "base.commune",     "pk": 311  ,"fields": { "postcode": 10003,  "wilaya":   10, "name": "Guerrouma" }},
    { "model": "base.commune",     "pk": 312  ,"fields": { "postcode": 10004,  "wilaya":   10, "name": "Souk El Khemis" }},
    { "model": "base.commune",     "pk": 313  ,"fields": { "postcode": 10005,  "wilaya":   10, "name": "Kadiria" }},
    { "model": "base.commune",     "pk": 314  ,"fields": { "postcode": 10006,  "wilaya":   10, "name": "Hanif" }},
    { "model": "base.commune",     "pk": 315  ,"fields": { "postcode": 10007,  "wilaya":   10, "name": "Dirah" }},
    { "model": "base.commune",     "pk": 316  ,"fields": { "postcode": 10008,  "wilaya":   10, "name": "Ait Laaziz" }},
    { "model": "base.commune",     "pk": 317  ,"fields": { "postcode": 10009,  "wilaya":   10, "name": "Taghzout" }},
    { "model": "base.commune",     "pk": 318  ,"fields": { "postcode": 10010,  "wilaya":   10, "name": "Raouraoua" }},
    { "model": "base.commune",     "pk": 319  ,"fields": { "postcode": 10011,  "wilaya":   10, "name": "Mezdour" }},
    { "model": "base.commune",     "pk": 320  ,"fields": { "postcode": 10012,  "wilaya":   10, "name": "Haizer" }},
    { "model": "base.commune",     "pk": 321  ,"fields": { "postcode": 10013,  "wilaya":   10, "name": "Lakhdaria" }},
    { "model": "base.commune",     "pk": 322  ,"fields": { "postcode": 10014,  "wilaya":   10, "name": "Maala" }},
    { "model": "base.commune",     "pk": 323  ,"fields": { "postcode": 10015,  "wilaya":   10, "name": "El Hachimia" }},
    { "model": "base.commune",     "pk": 324  ,"fields": { "postcode": 10016,  "wilaya":   10, "name": "Aomar" }},
    { "model": "base.commune",     "pk": 325  ,"fields": { "postcode": 10017,  "wilaya":   10, "name": "Chorfa" }},
    { "model": "base.commune",     "pk": 326  ,"fields": { "postcode": 10018,  "wilaya":   10, "name": "Bordj Oukhriss" }},
    { "model": "base.commune",     "pk": 327  ,"fields": { "postcode": 10019,  "wilaya":   10, "name": "El Adjiba" }},
    { "model": "base.commune",     "pk": 328  ,"fields": { "postcode": 10020,  "wilaya":   10, "name": "El Hakimia" }},
    { "model": "base.commune",     "pk": 329  ,"fields": { "postcode": 10021,  "wilaya":   10, "name": "El Khebouzia" }},
    { "model": "base.commune",     "pk": 330  ,"fields": { "postcode": 10022,  "wilaya":   10, "name": "Ahl El Ksar" }},
    { "model": "base.commune",     "pk": 331  ,"fields": { "postcode": 10023,  "wilaya":   10, "name": "Bouderbala" }},
    { "model": "base.commune",     "pk": 332  ,"fields": { "postcode": 10024,  "wilaya":   10, "name": "Zbarbar" }},
    { "model": "base.commune",     "pk": 333  ,"fields": { "postcode": 10025,  "wilaya":   10, "name": "Ain El Hadjar" }},
    { "model": "base.commune",     "pk": 334  ,"fields": { "postcode": 10026,  "wilaya":   10, "name": "Djebahia" }},
    { "model": "base.commune",     "pk": 335  ,"fields": { "postcode": 10027,  "wilaya":   10, "name": "Aghbalou" }},
    { "model": "base.commune",     "pk": 336  ,"fields": { "postcode": 10028,  "wilaya":   10, "name": "Taguedit" }},
    { "model": "base.commune",     "pk": 337  ,"fields": { "postcode": 10029,  "wilaya":   10, "name": "Ain Turk" }},
    { "model": "base.commune",     "pk": 338  ,"fields": { "postcode": 10030,  "wilaya":   10, "name": "Saharidj" }},
    { "model": "base.commune",     "pk": 339  ,"fields": { "postcode": 10031,  "wilaya":   10, "name": "Dechmia" }},
    { "model": "base.commune",     "pk": 340  ,"fields": { "postcode": 10032,  "wilaya":   10, "name": "Ridane" }},
    { "model": "base.commune",     "pk": 341  ,"fields": { "postcode": 10033,  "wilaya":   10, "name": "Bechloul" }},
    { "model": "base.commune",     "pk": 342  ,"fields": { "postcode": 10034,  "wilaya":   10, "name": "Boukram" }},
    { "model": "base.commune",     "pk": 343  ,"fields": { "postcode": 10035,  "wilaya":   10, "name": "Ain Bessam" }},
    { "model": "base.commune",     "pk": 344  ,"fields": { "postcode": 10036,  "wilaya":   10, "name": "Bir Ghbalou" }},
    { "model": "base.commune",     "pk": 345  ,"fields": { "postcode": 10037,  "wilaya":   10, "name": "Mchedallah" }},
    { "model": "base.commune",     "pk": 346  ,"fields": { "postcode": 10038,  "wilaya":   10, "name": "Sour El Ghozlane" }},
    { "model": "base.commune",     "pk": 347  ,"fields": { "postcode": 10039,  "wilaya":   10, "name": "Maamora" }},
    { "model": "base.commune",     "pk": 348  ,"fields": { "postcode": 10040,  "wilaya":   10, "name": "Ouled Rached" }},
    { "model": "base.commune",     "pk": 349  ,"fields": { "postcode": 10041,  "wilaya":   10, "name": "Ain Laloui" }},
    { "model": "base.commune",     "pk": 350  ,"fields": { "postcode": 10042,  "wilaya":   10, "name": "Hadjera Zerga" }},
    { "model": "base.commune",     "pk": 351  ,"fields": { "postcode": 10043,  "wilaya":   10, "name": "Ath Mansour" }},
    { "model": "base.commune",     "pk": 352  ,"fields": { "postcode": 10044,  "wilaya":   10, "name": "El Mokrani" }},
    { "model": "base.commune",     "pk": 353  ,"fields": { "postcode": 10045,  "wilaya":   10, "name": "Oued El Berdi" }},
    { "model": "base.commune",     "pk": 354  ,"fields": { "postcode": 11001,  "wilaya":   11, "name": "Tamanghasset" }},
    { "model": "base.commune",     "pk": 355  ,"fields": { "postcode": 11002,  "wilaya":   11, "name": "Abalessa" }},
    { "model": "base.commune",     "pk": 356  ,"fields": { "postcode": 11003,  "wilaya":   11, "name": "In Ghar" }},
    { "model": "base.commune",     "pk": 357  ,"fields": { "postcode": 11004,  "wilaya":   11, "name": "In Guezzam" }},
    { "model": "base.commune",     "pk": 358  ,"fields": { "postcode": 11005,  "wilaya":   11, "name": "Idles" }},
    { "model": "base.commune",     "pk": 359  ,"fields": { "postcode": 11006,  "wilaya":   11, "name": "Tazouk" }},
    { "model": "base.commune",     "pk": 360  ,"fields": { "postcode": 11007,  "wilaya":   11, "name": "Tinzaouatine" }},
    { "model": "base.commune",     "pk": 361  ,"fields": { "postcode": 11008,  "wilaya":   11, "name": "In Salah" }},
    { "model": "base.commune",     "pk": 362  ,"fields": { "postcode": 11009,  "wilaya":   11, "name": "In Amguel" }},
    { "model": "base.commune",     "pk": 363  ,"fields": { "postcode": 11010,  "wilaya":   11, "name": "Foggaret Ezzaouia" }},
    { "model": "base.commune",     "pk": 364  ,"fields": { "postcode": 12001,  "wilaya":   12, "name": "Tebessa" }},
    { "model": "base.commune",     "pk": 365  ,"fields": { "postcode": 12002,  "wilaya":   12, "name": "Bir El Ater" }},
    { "model": "base.commune",     "pk": 366  ,"fields": { "postcode": 12003,  "wilaya":   12, "name": "Cheria" }},
    { "model": "base.commune",     "pk": 367  ,"fields": { "postcode": 12004,  "wilaya":   12, "name": "Stah Guentis" }},
    { "model": "base.commune",     "pk": 368  ,"fields": { "postcode": 12005,  "wilaya":   12, "name": "El Aouinet" }},
    { "model": "base.commune",     "pk": 369  ,"fields": { "postcode": 12006,  "wilaya":   12, "name": "Lahouidjbet" }},
    { "model": "base.commune",     "pk": 370  ,"fields": { "postcode": 12007,  "wilaya":   12, "name": "Safsaf El Ouesra" }},
    { "model": "base.commune",     "pk": 371  ,"fields": { "postcode": 12008,  "wilaya":   12, "name": "Hammamet" }},
    { "model": "base.commune",     "pk": 372  ,"fields": { "postcode": 12009,  "wilaya":   12, "name": "Negrine" }},
    { "model": "base.commune",     "pk": 373  ,"fields": { "postcode": 12010,  "wilaya":   12, "name": "Bir El Mokadem" }},
    { "model": "base.commune",     "pk": 374  ,"fields": { "postcode": 12011,  "wilaya":   12, "name": "El Kouif" }},
    { "model": "base.commune",     "pk": 375  ,"fields": { "postcode": 12012,  "wilaya":   12, "name": "Morsott" }},
    { "model": "base.commune",     "pk": 376  ,"fields": { "postcode": 12013,  "wilaya":   12, "name": "El Ogla" }},
    { "model": "base.commune",     "pk": 377  ,"fields": { "postcode": 12014,  "wilaya":   12, "name": "Bir Dheheb" }},
    { "model": "base.commune",     "pk": 378  ,"fields": { "postcode": 12015,  "wilaya":   12, "name": "El Ogla El Malha" }},
    { "model": "base.commune",     "pk": 379  ,"fields": { "postcode": 12016,  "wilaya":   12, "name": "Gorriguer" }},
    { "model": "base.commune",     "pk": 380  ,"fields": { "postcode": 12017,  "wilaya":   12, "name": "Bekkaria" }},
    { "model": "base.commune",     "pk": 381  ,"fields": { "postcode": 12018,  "wilaya":   12, "name": "Boukhadra" }},
    { "model": "base.commune",     "pk": 382  ,"fields": { "postcode": 12019,  "wilaya":   12, "name": "Ouenza" }},
    { "model": "base.commune",     "pk": 383  ,"fields": { "postcode": 12020,  "wilaya":   12, "name": "El Ma El Biodh" }},
    { "model": "base.commune",     "pk": 384  ,"fields": { "postcode": 12021,  "wilaya":   12, "name": "Oum Ali" }},
    { "model": "base.commune",     "pk": 385  ,"fields": { "postcode": 12022,  "wilaya":   12, "name": "Thlidjene" }},
    { "model": "base.commune",     "pk": 386  ,"fields": { "postcode": 12023,  "wilaya":   12, "name": "Ain Zerga" }},
    { "model": "base.commune",     "pk": 387  ,"fields": { "postcode": 12024,  "wilaya":   12, "name": "El Meridj" }},
    { "model": "base.commune",     "pk": 388  ,"fields": { "postcode": 12025,  "wilaya":   12, "name": "Boulhaf Dyr" }},
    { "model": "base.commune",     "pk": 389  ,"fields": { "postcode": 12026,  "wilaya":   12, "name": "Bedjene" }},
    { "model": "base.commune",     "pk": 390  ,"fields": { "postcode": 12027,  "wilaya":   12, "name": "El Mazeraa" }},
    { "model": "base.commune",     "pk": 391  ,"fields": { "postcode": 12028,  "wilaya":   12, "name": "Ferkane" }},
    { "model": "base.commune",     "pk": 392  ,"fields": { "postcode": 13001,  "wilaya":   13, "name": "Tlemcen" }},
    { "model": "base.commune",     "pk": 393  ,"fields": { "postcode": 13002,  "wilaya":   13, "name": "Beni Mester" }},
    { "model": "base.commune",     "pk": 394  ,"fields": { "postcode": 13003,  "wilaya":   13, "name": "Ain Tallout" }},
    { "model": "base.commune",     "pk": 395  ,"fields": { "postcode": 13004,  "wilaya":   13, "name": "Remchi" }},
    { "model": "base.commune",     "pk": 396  ,"fields": { "postcode": 13005,  "wilaya":   13, "name": "El Fehoul" }},
    { "model": "base.commune",     "pk": 397  ,"fields": { "postcode": 13006,  "wilaya":   13, "name": "Sabra" }},
    { "model": "base.commune",     "pk": 398  ,"fields": { "postcode": 13007,  "wilaya":   13, "name": "Ghazaouet" }},
    { "model": "base.commune",     "pk": 399  ,"fields": { "postcode": 13008,  "wilaya":   13, "name": "Souani" }},
    { "model": "base.commune",     "pk": 400  ,"fields": { "postcode": 13009,  "wilaya":   13, "name": "Djebala" }},
    { "model": "base.commune",     "pk": 401  ,"fields": { "postcode": 13010,  "wilaya":   13, "name": "El Gor" }},
    { "model": "base.commune",     "pk": 402  ,"fields": { "postcode": 13011,  "wilaya":   13, "name": "Oued Chouly" }},
    { "model": "base.commune",     "pk": 403  ,"fields": { "postcode": 13012,  "wilaya":   13, "name": "Ain Fezza" }},
    { "model": "base.commune",     "pk": 404  ,"fields": { "postcode": 13013,  "wilaya":   13, "name": "Ouled Mimoun" }},
    { "model": "base.commune",     "pk": 405  ,"fields": { "postcode": 13014,  "wilaya":   13, "name": "Amieur" }},
    { "model": "base.commune",     "pk": 406  ,"fields": { "postcode": 13015,  "wilaya":   13, "name": "Ain Youcef" }},
    { "model": "base.commune",     "pk": 407  ,"fields": { "postcode": 13016,  "wilaya":   13, "name": "Zenata" }},
    { "model": "base.commune",     "pk": 408  ,"fields": { "postcode": 13017,  "wilaya":   13, "name": "Beni Snous" }},
    { "model": "base.commune",     "pk": 409  ,"fields": { "postcode": 13018,  "wilaya":   13, "name": "Bab El Assa" }},
    { "model": "base.commune",     "pk": 410  ,"fields": { "postcode": 13019,  "wilaya":   13, "name": "Dar Yaghmouracene" }},
    { "model": "base.commune",     "pk": 411  ,"fields": { "postcode": 13020,  "wilaya":   13, "name": "Fellaoucene" }},
    { "model": "base.commune",     "pk": 412  ,"fields": { "postcode": 13021,  "wilaya":   13, "name": "Azails" }},
    { "model": "base.commune",     "pk": 413  ,"fields": { "postcode": 13022,  "wilaya":   13, "name": "Sebbaa Chioukh" }},
    { "model": "base.commune",     "pk": 414  ,"fields": { "postcode": 13023,  "wilaya":   13, "name": "Terni Beni Hediel" }},
    { "model": "base.commune",     "pk": 415  ,"fields": { "postcode": 13024,  "wilaya":   13, "name": "Bensekrane" }},
    { "model": "base.commune",     "pk": 416  ,"fields": { "postcode": 13025,  "wilaya":   13, "name": "Ain Nehala" }},
    { "model": "base.commune",     "pk": 417  ,"fields": { "postcode": 13026,  "wilaya":   13, "name": "Hennaya" }},
    { "model": "base.commune",     "pk": 418  ,"fields": { "postcode": 13027,  "wilaya":   13, "name": "Maghnia" }},
    { "model": "base.commune",     "pk": 419  ,"fields": { "postcode": 13028,  "wilaya":   13, "name": "Hammam Boughrara" }},
    { "model": "base.commune",     "pk": 420  ,"fields": { "postcode": 13029,  "wilaya":   13, "name": "Souahlia" }},
    { "model": "base.commune",     "pk": 421  ,"fields": { "postcode": 13030,  "wilaya":   13, "name": "Msirda Fouaga" }},
    { "model": "base.commune",     "pk": 422  ,"fields": { "postcode": 13031,  "wilaya":   13, "name": "Ain Fetah" }},
    { "model": "base.commune",     "pk": 423  ,"fields": { "postcode": 13032,  "wilaya":   13, "name": "El Aricha" }},
    { "model": "base.commune",     "pk": 424  ,"fields": { "postcode": 13033,  "wilaya":   13, "name": "Souk Thlata" }},
    { "model": "base.commune",     "pk": 425  ,"fields": { "postcode": 13034,  "wilaya":   13, "name": "Sidi Abdelli" }},
    { "model": "base.commune",     "pk": 426  ,"fields": { "postcode": 13035,  "wilaya":   13, "name": "Sebdou" }},
    { "model": "base.commune",     "pk": 427  ,"fields": { "postcode": 13036,  "wilaya":   13, "name": "Beni Ouarsous" }},
    { "model": "base.commune",     "pk": 428  ,"fields": { "postcode": 13037,  "wilaya":   13, "name": "Sidi Medjahed" }},
    { "model": "base.commune",     "pk": 429  ,"fields": { "postcode": 13038,  "wilaya":   13, "name": "Beni Boussaid" }},
    { "model": "base.commune",     "pk": 430  ,"fields": { "postcode": 13039,  "wilaya":   13, "name": "Marsa Ben Mhidi" }},
    { "model": "base.commune",     "pk": 431  ,"fields": { "postcode": 13040,  "wilaya":   13, "name": "Nedroma" }},
    { "model": "base.commune",     "pk": 432  ,"fields": { "postcode": 13041,  "wilaya":   13, "name": "Sidi Djillali" }},
    { "model": "base.commune",     "pk": 433  ,"fields": { "postcode": 13042,  "wilaya":   13, "name": "Beni Bahdel" }},
    { "model": "base.commune",     "pk": 434  ,"fields": { "postcode": 13043,  "wilaya":   13, "name": "El Bouihi" }},
    { "model": "base.commune",     "pk": 435  ,"fields": { "postcode": 13044,  "wilaya":   13, "name": "Honaine" }},
    { "model": "base.commune",     "pk": 436  ,"fields": { "postcode": 13045,  "wilaya":   13, "name": "Tianet" }},
    { "model": "base.commune",     "pk": 437  ,"fields": { "postcode": 13046,  "wilaya":   13, "name": "Ouled Riyah" }},
    { "model": "base.commune",     "pk": 438  ,"fields": { "postcode": 13047,  "wilaya":   13, "name": "Bouhlou" }},
    { "model": "base.commune",     "pk": 439  ,"fields": { "postcode": 13048,  "wilaya":   13, "name": "Souk El Khemis" }},
    { "model": "base.commune",     "pk": 440  ,"fields": { "postcode": 13049,  "wilaya":   13, "name": "Ain Ghoraba" }},
    { "model": "base.commune",     "pk": 441  ,"fields": { "postcode": 13050,  "wilaya":   13, "name": "Chetouane" }},
    { "model": "base.commune",     "pk": 442  ,"fields": { "postcode": 13051,  "wilaya":   13, "name": "Mansourah" }},
    { "model": "base.commune",     "pk": 443  ,"fields": { "postcode": 13052,  "wilaya":   13, "name": "Beni Semiel" }},
    { "model": "base.commune",     "pk": 444  ,"fields": { "postcode": 13053,  "wilaya":   13, "name": "Ain Kebira" }},
    { "model": "base.commune",     "pk": 445  ,"fields": { "postcode": 14001,  "wilaya":   14, "name": "Tiaret" }},
    { "model": "base.commune",     "pk": 446  ,"fields": { "postcode": 14002,  "wilaya":   14, "name": "Medroussa" }},
    { "model": "base.commune",     "pk": 447  ,"fields": { "postcode": 14003,  "wilaya":   14, "name": "Ain Bouchekif" }},
    { "model": "base.commune",     "pk": 448  ,"fields": { "postcode": 14004,  "wilaya":   14, "name": "Sidi Ali Mellal" }},
    { "model": "base.commune",     "pk": 449  ,"fields": { "postcode": 14005,  "wilaya":   14, "name": "Ain Zarit" }},
    { "model": "base.commune",     "pk": 450  ,"fields": { "postcode": 14006,  "wilaya":   14, "name": "Ain Deheb" }},
    { "model": "base.commune",     "pk": 451  ,"fields": { "postcode": 14007,  "wilaya":   14, "name": "Sidi Bakhti" }},
    { "model": "base.commune",     "pk": 452  ,"fields": { "postcode": 14008,  "wilaya":   14, "name": "Medrissa" }},
    { "model": "base.commune",     "pk": 453  ,"fields": { "postcode": 14009,  "wilaya":   14, "name": "Zmalet El Emir Aek" }},
    { "model": "base.commune",     "pk": 454  ,"fields": { "postcode": 14010,  "wilaya":   14, "name": "Madna" }},
    { "model": "base.commune",     "pk": 455  ,"fields": { "postcode": 14011,  "wilaya":   14, "name": "Sebt" }},
    { "model": "base.commune",     "pk": 456  ,"fields": { "postcode": 14012,  "wilaya":   14, "name": "Mellakou" }},
    { "model": "base.commune",     "pk": 457  ,"fields": { "postcode": 14013,  "wilaya":   14, "name": "Dahmouni" }},
    { "model": "base.commune",     "pk": 458  ,"fields": { "postcode": 14014,  "wilaya":   14, "name": "Rahouia" }},
    { "model": "base.commune",     "pk": 459  ,"fields": { "postcode": 14015,  "wilaya":   14, "name": "Mahdia" }},
    { "model": "base.commune",     "pk": 460  ,"fields": { "postcode": 14016,  "wilaya":   14, "name": "Sougueur" }},
    { "model": "base.commune",     "pk": 461  ,"fields": { "postcode": 14017,  "wilaya":   14, "name": "Sidi Abdelghani" }},
    { "model": "base.commune",     "pk": 462  ,"fields": { "postcode": 14018,  "wilaya":   14, "name": "Ain El Hadid" }},
    { "model": "base.commune",     "pk": 463  ,"fields": { "postcode": 14019,  "wilaya":   14, "name": "Ouled Djerad" }},
    { "model": "base.commune",     "pk": 464  ,"fields": { "postcode": 14020,  "wilaya":   14, "name": "Naima" }},
    { "model": "base.commune",     "pk": 465  ,"fields": { "postcode": 14021,  "wilaya":   14, "name": "Meghila" }},
    { "model": "base.commune",     "pk": 466  ,"fields": { "postcode": 14022,  "wilaya":   14, "name": "Guertoufa" }},
    { "model": "base.commune",     "pk": 467  ,"fields": { "postcode": 14023,  "wilaya":   14, "name": "Sidi Hosni" }},
    { "model": "base.commune",     "pk": 468  ,"fields": { "postcode": 14024,  "wilaya":   14, "name": "Djillali Ben Amar" }},
    { "model": "base.commune",     "pk": 469  ,"fields": { "postcode": 14025,  "wilaya":   14, "name": "Sebaine" }},
    { "model": "base.commune",     "pk": 470  ,"fields": { "postcode": 14026,  "wilaya":   14, "name": "Tousnina" }},
    { "model": "base.commune",     "pk": 471  ,"fields": { "postcode": 14027,  "wilaya":   14, "name": "Frenda" }},
    { "model": "base.commune",     "pk": 472  ,"fields": { "postcode": 14028,  "wilaya":   14, "name": "Ain Kermes" }},
    { "model": "base.commune",     "pk": 473  ,"fields": { "postcode": 14029,  "wilaya":   14, "name": "Ksar Chellala" }},
    { "model": "base.commune",     "pk": 474  ,"fields": { "postcode": 14030,  "wilaya":   14, "name": "Rechaiga" }},
    { "model": "base.commune",     "pk": 475  ,"fields": { "postcode": 14031,  "wilaya":   14, "name": "Nadorah" }},
    { "model": "base.commune",     "pk": 476  ,"fields": { "postcode": 14032,  "wilaya":   14, "name": "Tagdemt" }},
    { "model": "base.commune",     "pk": 477  ,"fields": { "postcode": 14033,  "wilaya":   14, "name": "Oued Lilli" }},
    { "model": "base.commune",     "pk": 478  ,"fields": { "postcode": 14034,  "wilaya":   14, "name": "Mechraa Safa" }},
    { "model": "base.commune",     "pk": 479  ,"fields": { "postcode": 14035,  "wilaya":   14, "name": "Hamadia" }},
    { "model": "base.commune",     "pk": 480  ,"fields": { "postcode": 14036,  "wilaya":   14, "name": "Chehaima" }},
    { "model": "base.commune",     "pk": 481  ,"fields": { "postcode": 14037,  "wilaya":   14, "name": "Takhemaret" }},
    { "model": "base.commune",     "pk": 482  ,"fields": { "postcode": 14038,  "wilaya":   14, "name": "Sidi Abderrahmane" }},
    { "model": "base.commune",     "pk": 483  ,"fields": { "postcode": 14039,  "wilaya":   14, "name": "Serghine" }},
    { "model": "base.commune",     "pk": 484  ,"fields": { "postcode": 14040,  "wilaya":   14, "name": "Bougara" }},
    { "model": "base.commune",     "pk": 485  ,"fields": { "postcode": 14041,  "wilaya":   14, "name": "Faidja" }},
    { "model": "base.commune",     "pk": 486  ,"fields": { "postcode": 14042,  "wilaya":   14, "name": "Tidda" }},
    { "model": "base.commune",     "pk": 487  ,"fields": { "postcode": 15001,  "wilaya":   15, "name": "Tizi Ouzou" }},
    { "model": "base.commune",     "pk": 488  ,"fields": { "postcode": 15002,  "wilaya":   15, "name": "Ain El Hammam" }},
    { "model": "base.commune",     "pk": 489  ,"fields": { "postcode": 15003,  "wilaya":   15, "name": "Akbil" }},
    { "model": "base.commune",     "pk": 490  ,"fields": { "postcode": 15004,  "wilaya":   15, "name": "Freha" }},
    { "model": "base.commune",     "pk": 491  ,"fields": { "postcode": 15005,  "wilaya":   15, "name": "Souamaa" }},
    { "model": "base.commune",     "pk": 492  ,"fields": { "postcode": 15006,  "wilaya":   15, "name": "Mechtrass" }},
    { "model": "base.commune",     "pk": 493  ,"fields": { "postcode": 15007,  "wilaya":   15, "name": "Irdjen" }},
    { "model": "base.commune",     "pk": 494  ,"fields": { "postcode": 15008,  "wilaya":   15, "name": "Timizart" }},
    { "model": "base.commune",     "pk": 495  ,"fields": { "postcode": 15009,  "wilaya":   15, "name": "Makouda" }},
    { "model": "base.commune",     "pk": 496  ,"fields": { "postcode": 15010,  "wilaya":   15, "name": "Draa El Mizan" }},
    { "model": "base.commune",     "pk": 497  ,"fields": { "postcode": 15011,  "wilaya":   15, "name": "Tizi Ghenif" }},
    { "model": "base.commune",     "pk": 498  ,"fields": { "postcode": 15012,  "wilaya":   15, "name": "Bounouh" }},
    { "model": "base.commune",     "pk": 499  ,"fields": { "postcode": 15013,  "wilaya":   15, "name": "Ait Chaffaa" }},
    { "model": "base.commune",     "pk": 500  ,"fields": { "postcode": 15014,  "wilaya":   15, "name": "Frikat" }},
    { "model": "base.commune",     "pk": 501  ,"fields": { "postcode": 15015,  "wilaya":   15, "name": "Beni Aissi" }},
    { "model": "base.commune",     "pk": 502  ,"fields": { "postcode": 15016,  "wilaya":   15, "name": "Beni Zmenzer" }},
    { "model": "base.commune",     "pk": 503  ,"fields": { "postcode": 15017,  "wilaya":   15, "name": "Iferhounene" }},
    { "model": "base.commune",     "pk": 504  ,"fields": { "postcode": 15018,  "wilaya":   15, "name": "Azazga" }},
    { "model": "base.commune",     "pk": 505  ,"fields": { "postcode": 15019,  "wilaya":   15, "name": "Iloula Oumalou" }},
    { "model": "base.commune",     "pk": 506  ,"fields": { "postcode": 15020,  "wilaya":   15, "name": "Yakouren" }},
    { "model": "base.commune",     "pk": 507  ,"fields": { "postcode": 15021,  "wilaya":   15, "name": "Larba Nait Irathen" }},
    { "model": "base.commune",     "pk": 508  ,"fields": { "postcode": 15022,  "wilaya":   15, "name": "Tizi Rached" }},
    { "model": "base.commune",     "pk": 509  ,"fields": { "postcode": 15023,  "wilaya":   15, "name": "Zekri" }},
    { "model": "base.commune",     "pk": 510  ,"fields": { "postcode": 15024,  "wilaya":   15, "name": "Ouaguenoun" }},
    { "model": "base.commune",     "pk": 511  ,"fields": { "postcode": 15025,  "wilaya":   15, "name": "Ain Zaouia" }},
    { "model": "base.commune",     "pk": 512  ,"fields": { "postcode": 15026,  "wilaya":   15, "name": "Mkira" }},
    { "model": "base.commune",     "pk": 513  ,"fields": { "postcode": 15027,  "wilaya":   15, "name": "Ait Yahia" }},
    { "model": "base.commune",     "pk": 514  ,"fields": { "postcode": 15028,  "wilaya":   15, "name": "Ait Mahmoud" }},
    { "model": "base.commune",     "pk": 515  ,"fields": { "postcode": 15029,  "wilaya":   15, "name": "Maatkas" }},
    { "model": "base.commune",     "pk": 516  ,"fields": { "postcode": 15030,  "wilaya":   15, "name": "Ait Boumehdi" }},
    { "model": "base.commune",     "pk": 517  ,"fields": { "postcode": 15031,  "wilaya":   15, "name": "Abi Youcef" }},
    { "model": "base.commune",     "pk": 518  ,"fields": { "postcode": 15032,  "wilaya":   15, "name": "Beni Douala" }},
    { "model": "base.commune",     "pk": 519  ,"fields": { "postcode": 15033,  "wilaya":   15, "name": "Illilten" }},
    { "model": "base.commune",     "pk": 520  ,"fields": { "postcode": 15034,  "wilaya":   15, "name": "Bouzguen" }},
    { "model": "base.commune",     "pk": 521  ,"fields": { "postcode": 15035,  "wilaya":   15, "name": "Ait Aggouacha" }},
    { "model": "base.commune",     "pk": 522  ,"fields": { "postcode": 15036,  "wilaya":   15, "name": "Ouadhia" }},
    { "model": "base.commune",     "pk": 523  ,"fields": { "postcode": 15037,  "wilaya":   15, "name": "Azzefoun" }},
    { "model": "base.commune",     "pk": 524  ,"fields": { "postcode": 15038,  "wilaya":   15, "name": "Tigzirt" }},
    { "model": "base.commune",     "pk": 525  ,"fields": { "postcode": 15039,  "wilaya":   15, "name": "Ait Aissa Mimoun" }},
    { "model": "base.commune",     "pk": 526  ,"fields": { "postcode": 15040,  "wilaya":   15, "name": "Boghni" }},
    { "model": "base.commune",     "pk": 527  ,"fields": { "postcode": 15041,  "wilaya":   15, "name": "Ifigha" }},
    { "model": "base.commune",     "pk": 528  ,"fields": { "postcode": 15042,  "wilaya":   15, "name": "Ait Oumalou" }},
    { "model": "base.commune",     "pk": 529  ,"fields": { "postcode": 15043,  "wilaya":   15, "name": "Tirmitine" }},
    { "model": "base.commune",     "pk": 530  ,"fields": { "postcode": 15044,  "wilaya":   15, "name": "Akerrou" }},
    { "model": "base.commune",     "pk": 531  ,"fields": { "postcode": 15045,  "wilaya":   15, "name": "Yatafen" }},
    { "model": "base.commune",     "pk": 532  ,"fields": { "postcode": 15046,  "wilaya":   15, "name": "Beni Ziki" }},
    { "model": "base.commune",     "pk": 533  ,"fields": { "postcode": 15047,  "wilaya":   15, "name": "Draa Ben Khedda" }},
    { "model": "base.commune",     "pk": 534  ,"fields": { "postcode": 15048,  "wilaya":   15, "name": "Ouacif" }},
    { "model": "base.commune",     "pk": 535  ,"fields": { "postcode": 15049,  "wilaya":   15, "name": "Idjeur" }},
    { "model": "base.commune",     "pk": 536  ,"fields": { "postcode": 15050,  "wilaya":   15, "name": "Mekla" }},
    { "model": "base.commune",     "pk": 537  ,"fields": { "postcode": 15051,  "wilaya":   15, "name": "Tizi Nthlata" }},
    { "model": "base.commune",     "pk": 538  ,"fields": { "postcode": 15052,  "wilaya":   15, "name": "Beni Yenni" }},
    { "model": "base.commune",     "pk": 539  ,"fields": { "postcode": 15053,  "wilaya":   15, "name": "Aghrib" }},
    { "model": "base.commune",     "pk": 540  ,"fields": { "postcode": 15054,  "wilaya":   15, "name": "Iflissen" }},
    { "model": "base.commune",     "pk": 541  ,"fields": { "postcode": 15055,  "wilaya":   15, "name": "Boudjima" }},
    { "model": "base.commune",     "pk": 542  ,"fields": { "postcode": 15056,  "wilaya":   15, "name": "Ait Yahia Moussa" }},
    { "model": "base.commune",     "pk": 543  ,"fields": { "postcode": 15057,  "wilaya":   15, "name": "Souk El Thenine" }},
    { "model": "base.commune",     "pk": 544  ,"fields": { "postcode": 15058,  "wilaya":   15, "name": "Ait Khelil" }},
    { "model": "base.commune",     "pk": 545  ,"fields": { "postcode": 15059,  "wilaya":   15, "name": "Sidi Naamane" }},
    { "model": "base.commune",     "pk": 546  ,"fields": { "postcode": 15060,  "wilaya":   15, "name": "Iboudraren" }},
    { "model": "base.commune",     "pk": 547  ,"fields": { "postcode": 15061,  "wilaya":   15, "name": "Aghni Goughran" }},
    { "model": "base.commune",     "pk": 548  ,"fields": { "postcode": 15062,  "wilaya":   15, "name": "Mizrana" }},
    { "model": "base.commune",     "pk": 549  ,"fields": { "postcode": 15063,  "wilaya":   15, "name": "Imsouhal" }},
    { "model": "base.commune",     "pk": 550  ,"fields": { "postcode": 15064,  "wilaya":   15, "name": "Tadmait" }},
    { "model": "base.commune",     "pk": 551  ,"fields": { "postcode": 15065,  "wilaya":   15, "name": "Ait Bouadou" }},
    { "model": "base.commune",     "pk": 552  ,"fields": { "postcode": 15066,  "wilaya":   15, "name": "Assi Youcef" }},
    { "model": "base.commune",     "pk": 553  ,"fields": { "postcode": 15067,  "wilaya":   15, "name": "Ait Toudert" }},
    { "model": "base.commune",     "pk": 554  ,"fields": { "postcode": 16001,  "wilaya":   16, "name": "Alger Centre" }},
    { "model": "base.commune",     "pk": 555  ,"fields": { "postcode": 16002,  "wilaya":   16, "name": "Sidi Mhamed" }},
    { "model": "base.commune",     "pk": 556  ,"fields": { "postcode": 16003,  "wilaya":   16, "name": "El Madania" }},
    { "model": "base.commune",     "pk": 557  ,"fields": { "postcode": 16004,  "wilaya":   16, "name": "Hamma Anassers" }},
    { "model": "base.commune",     "pk": 558  ,"fields": { "postcode": 16005,  "wilaya":   16, "name": "Bab El Oued" }},
    { "model": "base.commune",     "pk": 559  ,"fields": { "postcode": 16006,  "wilaya":   16, "name": "Bologhine Ibn Ziri" }},
    { "model": "base.commune",     "pk": 560  ,"fields": { "postcode": 16007,  "wilaya":   16, "name": "Casbah" }},
    { "model": "base.commune",     "pk": 561  ,"fields": { "postcode": 16008,  "wilaya":   16, "name": "Oued Koriche" }},
    { "model": "base.commune",     "pk": 562  ,"fields": { "postcode": 16009,  "wilaya":   16, "name": "Bir Mourad Rais" }},
    { "model": "base.commune",     "pk": 563  ,"fields": { "postcode": 16010,  "wilaya":   16, "name": "El Biar" }},
    { "model": "base.commune",     "pk": 564  ,"fields": { "postcode": 16011,  "wilaya":   16, "name": "Bouzareah" }},
    { "model": "base.commune",     "pk": 565  ,"fields": { "postcode": 16012,  "wilaya":   16, "name": "Birkhadem" }},
    { "model": "base.commune",     "pk": 566  ,"fields": { "postcode": 16013,  "wilaya":   16, "name": "El Harrach" }},
    { "model": "base.commune",     "pk": 567  ,"fields": { "postcode": 16014,  "wilaya":   16, "name": "Baraki" }},
    { "model": "base.commune",     "pk": 568  ,"fields": { "postcode": 16015,  "wilaya":   16, "name": "Oued Smar" }},
    { "model": "base.commune",     "pk": 569  ,"fields": { "postcode": 16016,  "wilaya":   16, "name": "Bourouba" }},
    { "model": "base.commune",     "pk": 570  ,"fields": { "postcode": 16017,  "wilaya":   16, "name": "Hussein Dey" }},
    { "model": "base.commune",     "pk": 571  ,"fields": { "postcode": 16018,  "wilaya":   16, "name": "Kouba" }},
    { "model": "base.commune",     "pk": 572  ,"fields": { "postcode": 16019,  "wilaya":   16, "name": "Bachedjerah" }},
    { "model": "base.commune",     "pk": 573  ,"fields": { "postcode": 16020,  "wilaya":   16, "name": "Dar El Beida" }},
    { "model": "base.commune",     "pk": 574  ,"fields": { "postcode": 16021,  "wilaya":   16, "name": "Bab Azzouar" }},
    { "model": "base.commune",     "pk": 575  ,"fields": { "postcode": 16022,  "wilaya":   16, "name": "Ben Aknoun" }},
    { "model": "base.commune",     "pk": 576  ,"fields": { "postcode": 16023,  "wilaya":   16, "name": "Dely Ibrahim" }},
    { "model": "base.commune",     "pk": 577  ,"fields": { "postcode": 16024,  "wilaya":   16, "name": "Bains Romains" }},
    { "model": "base.commune",     "pk": 578  ,"fields": { "postcode": 16025,  "wilaya":   16, "name": "Rais Hamidou" }},
    { "model": "base.commune",     "pk": 579  ,"fields": { "postcode": 16026,  "wilaya":   16, "name": "Djasr Kasentina" }},
    { "model": "base.commune",     "pk": 580  ,"fields": { "postcode": 16027,  "wilaya":   16, "name": "El Mouradia" }},
    { "model": "base.commune",     "pk": 581  ,"fields": { "postcode": 16028,  "wilaya":   16, "name": "Hydra" }},
    { "model": "base.commune",     "pk": 582  ,"fields": { "postcode": 16029,  "wilaya":   16, "name": "Mohammadia" }},
    { "model": "base.commune",     "pk": 583  ,"fields": { "postcode": 16030,  "wilaya":   16, "name": "Bordj El Kiffan" }},
    { "model": "base.commune",     "pk": 584  ,"fields": { "postcode": 16031,  "wilaya":   16, "name": "El Magharia" }},
    { "model": "base.commune",     "pk": 585  ,"fields": { "postcode": 16032,  "wilaya":   16, "name": "Beni Messous" }},
    { "model": "base.commune",     "pk": 586  ,"fields": { "postcode": 16033,  "wilaya":   16, "name": "Les Eucalyptus" }},
    { "model": "base.commune",     "pk": 587  ,"fields": { "postcode": 16034,  "wilaya":   16, "name": "Birtouta" }},
    { "model": "base.commune",     "pk": 588  ,"fields": { "postcode": 16035,  "wilaya":   16, "name": "Tassala El Merdja" }},
    { "model": "base.commune",     "pk": 589  ,"fields": { "postcode": 16036,  "wilaya":   16, "name": "Ouled Chebel" }},
    { "model": "base.commune",     "pk": 590  ,"fields": { "postcode": 16037,  "wilaya":   16, "name": "Sidi Moussa" }},
    { "model": "base.commune",     "pk": 591  ,"fields": { "postcode": 16038,  "wilaya":   16, "name": "Ain Taya" }},
    { "model": "base.commune",     "pk": 592  ,"fields": { "postcode": 16039,  "wilaya":   16, "name": "Bordj El Bahri" }},
    { "model": "base.commune",     "pk": 593  ,"fields": { "postcode": 16040,  "wilaya":   16, "name": "Marsa" }},
    { "model": "base.commune",     "pk": 594  ,"fields": { "postcode": 16041,  "wilaya":   16, "name": "Haraoua" }},
    { "model": "base.commune",     "pk": 595  ,"fields": { "postcode": 16042,  "wilaya":   16, "name": "Rouiba" }},
    { "model": "base.commune",     "pk": 596  ,"fields": { "postcode": 16043,  "wilaya":   16, "name": "Reghaia" }},
    { "model": "base.commune",     "pk": 597  ,"fields": { "postcode": 16044,  "wilaya":   16, "name": "Ain Benian" }},
    { "model": "base.commune",     "pk": 598  ,"fields": { "postcode": 16045,  "wilaya":   16, "name": "Staoueli" }},
    { "model": "base.commune",     "pk": 599  ,"fields": { "postcode": 16046,  "wilaya":   16, "name": "Zeralda" }},
    { "model": "base.commune",     "pk": 600  ,"fields": { "postcode": 16047,  "wilaya":   16, "name": "Mahelma" }},
    { "model": "base.commune",     "pk": 601  ,"fields": { "postcode": 16048,  "wilaya":   16, "name": "Rahmania" }},
    { "model": "base.commune",     "pk": 602  ,"fields": { "postcode": 16049,  "wilaya":   16, "name": "Souidania" }},
    { "model": "base.commune",     "pk": 603  ,"fields": { "postcode": 16050,  "wilaya":   16, "name": "Cheraga" }},
    { "model": "base.commune",     "pk": 604  ,"fields": { "postcode": 16051,  "wilaya":   16, "name": "Ouled Fayet" }},
    { "model": "base.commune",     "pk": 605  ,"fields": { "postcode": 16052,  "wilaya":   16, "name": "El Achour" }},
    { "model": "base.commune",     "pk": 606  ,"fields": { "postcode": 16053,  "wilaya":   16, "name": "Draria" }},
    { "model": "base.commune",     "pk": 607  ,"fields": { "postcode": 16054,  "wilaya":   16, "name": "Douera" }},
    { "model": "base.commune",     "pk": 608  ,"fields": { "postcode": 16055,  "wilaya":   16, "name": "Baba Hassen" }},
    { "model": "base.commune",     "pk": 609  ,"fields": { "postcode": 16056,  "wilaya":   16, "name": "Kheraicia" }},
    { "model": "base.commune",     "pk": 610  ,"fields": { "postcode": 16057,  "wilaya":   16, "name": "Saoula" }},
    { "model": "base.commune",     "pk": 611  ,"fields": { "postcode": 17001,  "wilaya":   17, "name": "Djelfa" }},
    { "model": "base.commune",     "pk": 612  ,"fields": { "postcode": 17002,  "wilaya":   17, "name": "Moudjebara" }},
    { "model": "base.commune",     "pk": 613  ,"fields": { "postcode": 17003,  "wilaya":   17, "name": "El Guedid" }},
    { "model": "base.commune",     "pk": 614  ,"fields": { "postcode": 17004,  "wilaya":   17, "name": "Hassi Bahbah" }},
    { "model": "base.commune",     "pk": 615  ,"fields": { "postcode": 17005,  "wilaya":   17, "name": "Ain Maabed" }},
    { "model": "base.commune",     "pk": 616  ,"fields": { "postcode": 17006,  "wilaya":   17, "name": "Sed Rahal" }},
    { "model": "base.commune",     "pk": 617  ,"fields": { "postcode": 17007,  "wilaya":   17, "name": "Feidh El Botma" }},
    { "model": "base.commune",     "pk": 618  ,"fields": { "postcode": 17008,  "wilaya":   17, "name": "Birine" }},
    { "model": "base.commune",     "pk": 619  ,"fields": { "postcode": 17009,  "wilaya":   17, "name": "Bouira Lahdeb" }},
    { "model": "base.commune",     "pk": 620  ,"fields": { "postcode": 17010,  "wilaya":   17, "name": "Zaccar" }},
    { "model": "base.commune",     "pk": 621  ,"fields": { "postcode": 17011,  "wilaya":   17, "name": "El Khemis" }},
    { "model": "base.commune",     "pk": 622  ,"fields": { "postcode": 17012,  "wilaya":   17, "name": "Sidi Baizid" }},
    { "model": "base.commune",     "pk": 623  ,"fields": { "postcode": 17013,  "wilaya":   17, "name": "Mliliha" }},
    { "model": "base.commune",     "pk": 624  ,"fields": { "postcode": 17014,  "wilaya":   17, "name": "El Idrissia" }},
    { "model": "base.commune",     "pk": 625  ,"fields": { "postcode": 17015,  "wilaya":   17, "name": "Douis" }},
    { "model": "base.commune",     "pk": 626  ,"fields": { "postcode": 17016,  "wilaya":   17, "name": "Hassi El Euch" }},
    { "model": "base.commune",     "pk": 627  ,"fields": { "postcode": 17017,  "wilaya":   17, "name": "Messaad" }},
    { "model": "base.commune",     "pk": 628  ,"fields": { "postcode": 17018,  "wilaya":   17, "name": "Guettara" }},
    { "model": "base.commune",     "pk": 629  ,"fields": { "postcode": 17019,  "wilaya":   17, "name": "Sidi Ladjel" }},
    { "model": "base.commune",     "pk": 630  ,"fields": { "postcode": 17020,  "wilaya":   17, "name": "Had Sahary" }},
    { "model": "base.commune",     "pk": 631  ,"fields": { "postcode": 17021,  "wilaya":   17, "name": "Guernini" }},
    { "model": "base.commune",     "pk": 632  ,"fields": { "postcode": 17022,  "wilaya":   17, "name": "Selmana" }},
    { "model": "base.commune",     "pk": 633  ,"fields": { "postcode": 17023,  "wilaya":   17, "name": "Ain Chouhada" }},
    { "model": "base.commune",     "pk": 634  ,"fields": { "postcode": 17024,  "wilaya":   17, "name": "Oum Laadham" }},
    { "model": "base.commune",     "pk": 635  ,"fields": { "postcode": 17025,  "wilaya":   17, "name": "Dar Chouikh" }},
    { "model": "base.commune",     "pk": 636  ,"fields": { "postcode": 17026,  "wilaya":   17, "name": "Charef" }},
    { "model": "base.commune",     "pk": 637  ,"fields": { "postcode": 17027,  "wilaya":   17, "name": "Beni Yacoub" }},
    { "model": "base.commune",     "pk": 638  ,"fields": { "postcode": 17028,  "wilaya":   17, "name": "Zaafrane" }},
    { "model": "base.commune",     "pk": 639  ,"fields": { "postcode": 17029,  "wilaya":   17, "name": "Deldoul" }},
    { "model": "base.commune",     "pk": 640  ,"fields": { "postcode": 17030,  "wilaya":   17, "name": "Ain El Ibel" }},
    { "model": "base.commune",     "pk": 641  ,"fields": { "postcode": 17031,  "wilaya":   17, "name": "Ain Oussera" }},
    { "model": "base.commune",     "pk": 642  ,"fields": { "postcode": 17032,  "wilaya":   17, "name": "Benhar" }},
    { "model": "base.commune",     "pk": 643  ,"fields": { "postcode": 17033,  "wilaya":   17, "name": "Hassi Fedoul" }},
    { "model": "base.commune",     "pk": 644  ,"fields": { "postcode": 17034,  "wilaya":   17, "name": "Amourah" }},
    { "model": "base.commune",     "pk": 645  ,"fields": { "postcode": 17035,  "wilaya":   17, "name": "Ain Fekka" }},
    { "model": "base.commune",     "pk": 646  ,"fields": { "postcode": 17036,  "wilaya":   17, "name": "Tadmit" }},
    { "model": "base.commune",     "pk": 647  ,"fields": { "postcode": 18001,  "wilaya":   18, "name": "Jijel" }},
    { "model": "base.commune",     "pk": 648  ,"fields": { "postcode": 18002,  "wilaya":   18, "name": "Erraguene" }},
    { "model": "base.commune",     "pk": 649  ,"fields": { "postcode": 18003,  "wilaya":   18, "name": "El Aouana" }},
    { "model": "base.commune",     "pk": 650  ,"fields": { "postcode": 18004,  "wilaya":   18, "name": "Ziamma Mansouriah" }},
    { "model": "base.commune",     "pk": 651  ,"fields": { "postcode": 18005,  "wilaya":   18, "name": "Taher" }},
    { "model": "base.commune",     "pk": 652  ,"fields": { "postcode": 18006,  "wilaya":   18, "name": "Emir Abdelkader" }},
    { "model": "base.commune",     "pk": 653  ,"fields": { "postcode": 18007,  "wilaya":   18, "name": "Chekfa" }},
    { "model": "base.commune",     "pk": 654  ,"fields": { "postcode": 18008,  "wilaya":   18, "name": "Chahna" }},
    { "model": "base.commune",     "pk": 655  ,"fields": { "postcode": 18009,  "wilaya":   18, "name": "El Milia" }},
    { "model": "base.commune",     "pk": 656  ,"fields": { "postcode": 18010,  "wilaya":   18, "name": "Sidi Maarouf" }},
    { "model": "base.commune",     "pk": 657  ,"fields": { "postcode": 18011,  "wilaya":   18, "name": "Settara" }},
    { "model": "base.commune",     "pk": 658  ,"fields": { "postcode": 18012,  "wilaya":   18, "name": "El Ancer" }},
    { "model": "base.commune",     "pk": 659  ,"fields": { "postcode": 18013,  "wilaya":   18, "name": "Sidi Abdelaziz" }},
    { "model": "base.commune",     "pk": 660  ,"fields": { "postcode": 18014,  "wilaya":   18, "name": "Kaous" }},
    { "model": "base.commune",     "pk": 661  ,"fields": { "postcode": 18015,  "wilaya":   18, "name": "Ghebala" }},
    { "model": "base.commune",     "pk": 662  ,"fields": { "postcode": 18016,  "wilaya":   18, "name": "Bouraoui Belhadef" }},
    { "model": "base.commune",     "pk": 663  ,"fields": { "postcode": 18017,  "wilaya":   18, "name": "Djmila" }},
    { "model": "base.commune",     "pk": 664  ,"fields": { "postcode": 18018,  "wilaya":   18, "name": "Selma Benziada" }},
    { "model": "base.commune",     "pk": 665  ,"fields": { "postcode": 18019,  "wilaya":   18, "name": "Boussif Ouled Askeur" }},
    { "model": "base.commune",     "pk": 666  ,"fields": { "postcode": 18020,  "wilaya":   18, "name": "El Kennar Nouchfi" }},
    { "model": "base.commune",     "pk": 667  ,"fields": { "postcode": 18021,  "wilaya":   18, "name": "Ouled Yahia Khadrouch" }},
    { "model": "base.commune",     "pk": 668  ,"fields": { "postcode": 18022,  "wilaya":   18, "name": "Boudria Beni Yadjis" }},
    { "model": "base.commune",     "pk": 669  ,"fields": { "postcode": 18023,  "wilaya":   18, "name": "Kemir Oued Adjoul" }},
    { "model": "base.commune",     "pk": 670  ,"fields": { "postcode": 18024,  "wilaya":   18, "name": "Texena" }},
    { "model": "base.commune",     "pk": 671  ,"fields": { "postcode": 18025,  "wilaya":   18, "name": "Djemaa Beni Habibi" }},
    { "model": "base.commune",     "pk": 672  ,"fields": { "postcode": 18026,  "wilaya":   18, "name": "Bordj Taher" }},
    { "model": "base.commune",     "pk": 673  ,"fields": { "postcode": 18027,  "wilaya":   18, "name": "Ouled Rabah" }},
    { "model": "base.commune",     "pk": 674  ,"fields": { "postcode": 18028,  "wilaya":   18, "name": "Ouadjana" }},
    { "model": "base.commune",     "pk": 675  ,"fields": { "postcode": 19001,  "wilaya":   19, "name": "Setif" }},
    { "model": "base.commune",     "pk": 676  ,"fields": { "postcode": 19002,  "wilaya":   19, "name": "Ain El Kebira" }},
    { "model": "base.commune",     "pk": 677  ,"fields": { "postcode": 19003,  "wilaya":   19, "name": "Beni Aziz" }},
    { "model": "base.commune",     "pk": 678  ,"fields": { "postcode": 19004,  "wilaya":   19, "name": "Ouled Sidi Ahmed" }},
    { "model": "base.commune",     "pk": 679  ,"fields": { "postcode": 19005,  "wilaya":   19, "name": "Boutaleb" }},
    { "model": "base.commune",     "pk": 680  ,"fields": { "postcode": 19006,  "wilaya":   19, "name": "Ain Roua" }},
    { "model": "base.commune",     "pk": 681  ,"fields": { "postcode": 19007,  "wilaya":   19, "name": "Draa Kebila" }},
    { "model": "base.commune",     "pk": 682  ,"fields": { "postcode": 19008,  "wilaya":   19, "name": "Bir El Arch" }},
    { "model": "base.commune",     "pk": 683  ,"fields": { "postcode": 19009,  "wilaya":   19, "name": "Beni Chebana" }},
    { "model": "base.commune",     "pk": 684  ,"fields": { "postcode": 19010,  "wilaya":   19, "name": "Ouled Tebben" }},
    { "model": "base.commune",     "pk": 685  ,"fields": { "postcode": 19011,  "wilaya":   19, "name": "Hamma" }},
    { "model": "base.commune",     "pk": 686  ,"fields": { "postcode": 19012,  "wilaya":   19, "name": "Maaouia" }},
    { "model": "base.commune",     "pk": 687  ,"fields": { "postcode": 19013,  "wilaya":   19, "name": "Ain Legraj" }},
    { "model": "base.commune",     "pk": 688  ,"fields": { "postcode": 19014,  "wilaya":   19, "name": "Ain Abessa" }},
    { "model": "base.commune",     "pk": 689  ,"fields": { "postcode": 19015,  "wilaya":   19, "name": "Dehamcha" }},
    { "model": "base.commune",     "pk": 690  ,"fields": { "postcode": 19016,  "wilaya":   19, "name": "Babor" }},
    { "model": "base.commune",     "pk": 691  ,"fields": { "postcode": 19017,  "wilaya":   19, "name": "Guidjel" }},
    { "model": "base.commune",     "pk": 692  ,"fields": { "postcode": 19018,  "wilaya":   19, "name": "Ain Lahdjar" }},
    { "model": "base.commune",     "pk": 693  ,"fields": { "postcode": 19019,  "wilaya":   19, "name": "Bousselam" }},
    { "model": "base.commune",     "pk": 694  ,"fields": { "postcode": 19020,  "wilaya":   19, "name": "El Eulma" }},
    { "model": "base.commune",     "pk": 695  ,"fields": { "postcode": 19021,  "wilaya":   19, "name": "Djemila" }},
    { "model": "base.commune",     "pk": 696  ,"fields": { "postcode": 19022,  "wilaya":   19, "name": "Beni Ouartilane" }},
    { "model": "base.commune",     "pk": 697  ,"fields": { "postcode": 19023,  "wilaya":   19, "name": "Rosfa" }},
    { "model": "base.commune",     "pk": 698  ,"fields": { "postcode": 19024,  "wilaya":   19, "name": "Ouled Addouane" }},
    { "model": "base.commune",     "pk": 699  ,"fields": { "postcode": 19025,  "wilaya":   19, "name": "Belaa" }},
    { "model": "base.commune",     "pk": 700  ,"fields": { "postcode": 19026,  "wilaya":   19, "name": "Ain Arnat" }},
    { "model": "base.commune",     "pk": 701  ,"fields": { "postcode": 19027,  "wilaya":   19, "name": "Amoucha" }},
    { "model": "base.commune",     "pk": 702  ,"fields": { "postcode": 19028,  "wilaya":   19, "name": "Ain Oulmane" }},
    { "model": "base.commune",     "pk": 703  ,"fields": { "postcode": 19029,  "wilaya":   19, "name": "Beidha Bordj" }},
    { "model": "base.commune",     "pk": 704  ,"fields": { "postcode": 19030,  "wilaya":   19, "name": "Bouandas" }},
    { "model": "base.commune",     "pk": 705  ,"fields": { "postcode": 19031,  "wilaya":   19, "name": "Bazer Sakhra" }},
    { "model": "base.commune",     "pk": 706  ,"fields": { "postcode": 19032,  "wilaya":   19, "name": "Hammam Essokhna" }},
    { "model": "base.commune",     "pk": 707  ,"fields": { "postcode": 19033,  "wilaya":   19, "name": "Mezloug" }},
    { "model": "base.commune",     "pk": 708  ,"fields": { "postcode": 19034,  "wilaya":   19, "name": "Bir Haddada" }},
    { "model": "base.commune",     "pk": 709  ,"fields": { "postcode": 19035,  "wilaya":   19, "name": "Serdj El Ghoul" }},
    { "model": "base.commune",     "pk": 710  ,"fields": { "postcode": 19036,  "wilaya":   19, "name": "Harbil" }},
    { "model": "base.commune",     "pk": 711  ,"fields": { "postcode": 19037,  "wilaya":   19, "name": "El Ouricia" }},
    { "model": "base.commune",     "pk": 712  ,"fields": { "postcode": 19038,  "wilaya":   19, "name": "Tizi Nbechar" }},
    { "model": "base.commune",     "pk": 713  ,"fields": { "postcode": 19039,  "wilaya":   19, "name": "Salah Bey" }},
    { "model": "base.commune",     "pk": 714  ,"fields": { "postcode": 19040,  "wilaya":   19, "name": "Ain Azal" }},
    { "model": "base.commune",     "pk": 715  ,"fields": { "postcode": 19041,  "wilaya":   19, "name": "Guenzet" }},
    { "model": "base.commune",     "pk": 716  ,"fields": { "postcode": 19042,  "wilaya":   19, "name": "Talaifacene" }},
    { "model": "base.commune",     "pk": 717  ,"fields": { "postcode": 19043,  "wilaya":   19, "name": "Bougaa" }},
    { "model": "base.commune",     "pk": 718  ,"fields": { "postcode": 19044,  "wilaya":   19, "name": "Beni Fouda" }},
    { "model": "base.commune",     "pk": 719  ,"fields": { "postcode": 19045,  "wilaya":   19, "name": "Tachouda" }},
    { "model": "base.commune",     "pk": 720  ,"fields": { "postcode": 19046,  "wilaya":   19, "name": "Beni Mouhli" }},
    { "model": "base.commune",     "pk": 721  ,"fields": { "postcode": 19047,  "wilaya":   19, "name": "Ouled Sabor" }},
    { "model": "base.commune",     "pk": 722  ,"fields": { "postcode": 19048,  "wilaya":   19, "name": "Guellal" }},
    { "model": "base.commune",     "pk": 723  ,"fields": { "postcode": 19049,  "wilaya":   19, "name": "Ain Sebt" }},
    { "model": "base.commune",     "pk": 724  ,"fields": { "postcode": 19050,  "wilaya":   19, "name": "Hammam Guergour" }},
    { "model": "base.commune",     "pk": 725  ,"fields": { "postcode": 19051,  "wilaya":   19, "name": "Ait Naoual Mezada" }},
    { "model": "base.commune",     "pk": 726  ,"fields": { "postcode": 19052,  "wilaya":   19, "name": "Ksar El Abtal" }},
    { "model": "base.commune",     "pk": 727  ,"fields": { "postcode": 19053,  "wilaya":   19, "name": "Beni Hocine" }},
    { "model": "base.commune",     "pk": 728  ,"fields": { "postcode": 19054,  "wilaya":   19, "name": "Ait Tizi" }},
    { "model": "base.commune",     "pk": 729  ,"fields": { "postcode": 19055,  "wilaya":   19, "name": "Maouklane" }},
    { "model": "base.commune",     "pk": 730  ,"fields": { "postcode": 19056,  "wilaya":   19, "name": "Guelta Zerka" }},
    { "model": "base.commune",     "pk": 731  ,"fields": { "postcode": 19057,  "wilaya":   19, "name": "Oued El Barad" }},
    { "model": "base.commune",     "pk": 732  ,"fields": { "postcode": 19058,  "wilaya":   19, "name": "Taya" }},
    { "model": "base.commune",     "pk": 733  ,"fields": { "postcode": 19059,  "wilaya":   19, "name": "El Ouldja" }},
    { "model": "base.commune",     "pk": 734  ,"fields": { "postcode": 19060,  "wilaya":   19, "name": "Tella" }},
    { "model": "base.commune",     "pk": 735  ,"fields": { "postcode": 20001,  "wilaya":   20, "name": "Saida" }},
    { "model": "base.commune",     "pk": 736  ,"fields": { "postcode": 20002,  "wilaya":   20, "name": "Doui Thabet" }},
    { "model": "base.commune",     "pk": 737  ,"fields": { "postcode": 20003,  "wilaya":   20, "name": "Ain El Hadjar" }},
    { "model": "base.commune",     "pk": 738  ,"fields": { "postcode": 20004,  "wilaya":   20, "name": "Ouled Khaled" }},
    { "model": "base.commune",     "pk": 739  ,"fields": { "postcode": 20005,  "wilaya":   20, "name": "Moulay Larbi" }},
    { "model": "base.commune",     "pk": 740  ,"fields": { "postcode": 20006,  "wilaya":   20, "name": "Youb" }},
    { "model": "base.commune",     "pk": 741  ,"fields": { "postcode": 20007,  "wilaya":   20, "name": "Hounet" }},
    { "model": "base.commune",     "pk": 742  ,"fields": { "postcode": 20008,  "wilaya":   20, "name": "Sidi Amar" }},
    { "model": "base.commune",     "pk": 743  ,"fields": { "postcode": 20009,  "wilaya":   20, "name": "Sidi Boubekeur" }},
    { "model": "base.commune",     "pk": 744  ,"fields": { "postcode": 20010,  "wilaya":   20, "name": "El Hassasna" }},
    { "model": "base.commune",     "pk": 745  ,"fields": { "postcode": 20011,  "wilaya":   20, "name": "Maamora" }},
    { "model": "base.commune",     "pk": 746  ,"fields": { "postcode": 20012,  "wilaya":   20, "name": "Sidi Ahmed" }},
    { "model": "base.commune",     "pk": 747  ,"fields": { "postcode": 20013,  "wilaya":   20, "name": "Ain Sekhouna" }},
    { "model": "base.commune",     "pk": 748  ,"fields": { "postcode": 20014,  "wilaya":   20, "name": "Ouled Brahim" }},
    { "model": "base.commune",     "pk": 749  ,"fields": { "postcode": 20015,  "wilaya":   20, "name": "Tircine" }},
    { "model": "base.commune",     "pk": 750  ,"fields": { "postcode": 20016,  "wilaya":   20, "name": "Ain Soltane" }},
    { "model": "base.commune",     "pk": 751  ,"fields": { "postcode": 21001,  "wilaya":   21, "name": "Skikda" }},
    { "model": "base.commune",     "pk": 752  ,"fields": { "postcode": 21002,  "wilaya":   21, "name": "Ain Zouit" }},
    { "model": "base.commune",     "pk": 753  ,"fields": { "postcode": 21003,  "wilaya":   21, "name": "El Hadaik" }},
    { "model": "base.commune",     "pk": 754  ,"fields": { "postcode": 21004,  "wilaya":   21, "name": "Azzaba" }},
    { "model": "base.commune",     "pk": 755  ,"fields": { "postcode": 21005,  "wilaya":   21, "name": "Djendel Saadi Mohamed" }},
    { "model": "base.commune",     "pk": 756  ,"fields": { "postcode": 21006,  "wilaya":   21, "name": "Ain Cherchar" }},
    { "model": "base.commune",     "pk": 757  ,"fields": { "postcode": 21007,  "wilaya":   21, "name": "Bekkouche Lakhdar" }},
    { "model": "base.commune",     "pk": 758  ,"fields": { "postcode": 21008,  "wilaya":   21, "name": "Benazouz" }},
    { "model": "base.commune",     "pk": 759  ,"fields": { "postcode": 21009,  "wilaya":   21, "name": "Es Sebt" }},
    { "model": "base.commune",     "pk": 760  ,"fields": { "postcode": 21010,  "wilaya":   21, "name": "Collo" }},
    { "model": "base.commune",     "pk": 761  ,"fields": { "postcode": 21011,  "wilaya":   21, "name": "Beni Zid" }},
    { "model": "base.commune",     "pk": 762  ,"fields": { "postcode": 21012,  "wilaya":   21, "name": "Kerkera" }},
    { "model": "base.commune",     "pk": 763  ,"fields": { "postcode": 21013,  "wilaya":   21, "name": "Ouled Attia" }},
    { "model": "base.commune",     "pk": 764  ,"fields": { "postcode": 21014,  "wilaya":   21, "name": "Oued Zehour" }},
    { "model": "base.commune",     "pk": 765  ,"fields": { "postcode": 21015,  "wilaya":   21, "name": "Zitouna" }},
    { "model": "base.commune",     "pk": 766  ,"fields": { "postcode": 21016,  "wilaya":   21, "name": "El Harrouch" }},
    { "model": "base.commune",     "pk": 767  ,"fields": { "postcode": 21017,  "wilaya":   21, "name": "Zerdazas" }},
    { "model": "base.commune",     "pk": 768  ,"fields": { "postcode": 21018,  "wilaya":   21, "name": "Ouled Hebaba" }},
    { "model": "base.commune",     "pk": 769  ,"fields": { "postcode": 21019,  "wilaya":   21, "name": "Sidi Mezghiche" }},
    { "model": "base.commune",     "pk": 770  ,"fields": { "postcode": 21020,  "wilaya":   21, "name": "Emdjez Edchich" }},
    { "model": "base.commune",     "pk": 771  ,"fields": { "postcode": 21021,  "wilaya":   21, "name": "Beni Oulbane" }},
    { "model": "base.commune",     "pk": 772  ,"fields": { "postcode": 21022,  "wilaya":   21, "name": "Ain Bouziane" }},
    { "model": "base.commune",     "pk": 773  ,"fields": { "postcode": 21023,  "wilaya":   21, "name": "Ramdane Djamel" }},
    { "model": "base.commune",     "pk": 774  ,"fields": { "postcode": 21024,  "wilaya":   21, "name": "Beni Bachir" }},
    { "model": "base.commune",     "pk": 775  ,"fields": { "postcode": 21025,  "wilaya":   21, "name": "Salah Bouchaour" }},
    { "model": "base.commune",     "pk": 776  ,"fields": { "postcode": 21026,  "wilaya":   21, "name": "Tamalous" }},
    { "model": "base.commune",     "pk": 777  ,"fields": { "postcode": 21027,  "wilaya":   21, "name": "Ain Kechra" }},
    { "model": "base.commune",     "pk": 778  ,"fields": { "postcode": 21028,  "wilaya":   21, "name": "Oum Toub" }},
    { "model": "base.commune",     "pk": 779  ,"fields": { "postcode": 21029,  "wilaya":   21, "name": "Bein El Ouiden" }},
    { "model": "base.commune",     "pk": 780  ,"fields": { "postcode": 21030,  "wilaya":   21, "name": "Fil Fila" }},
    { "model": "base.commune",     "pk": 781  ,"fields": { "postcode": 21031,  "wilaya":   21, "name": "Cheraia" }},
    { "model": "base.commune",     "pk": 782  ,"fields": { "postcode": 21032,  "wilaya":   21, "name": "Kanoua" }},
    { "model": "base.commune",     "pk": 783  ,"fields": { "postcode": 21033,  "wilaya":   21, "name": "El Ghedir" }},
    { "model": "base.commune",     "pk": 784  ,"fields": { "postcode": 21034,  "wilaya":   21, "name": "Bouchtata" }},
    { "model": "base.commune",     "pk": 785  ,"fields": { "postcode": 21035,  "wilaya":   21, "name": "Ouldja Boulbalout" }},
    { "model": "base.commune",     "pk": 786  ,"fields": { "postcode": 21036,  "wilaya":   21, "name": "Kheneg Mayoum" }},
    { "model": "base.commune",     "pk": 787  ,"fields": { "postcode": 21037,  "wilaya":   21, "name": "Hamadi Krouma" }},
    { "model": "base.commune",     "pk": 788  ,"fields": { "postcode": 21038,  "wilaya":   21, "name": "El Marsa" }},
    { "model": "base.commune",     "pk": 789  ,"fields": { "postcode": 22001,  "wilaya":   22, "name": "Sidi Bel Abbes" }},
    { "model": "base.commune",     "pk": 790  ,"fields": { "postcode": 22002,  "wilaya":   22, "name": "Tessala" }},
    { "model": "base.commune",     "pk": 791  ,"fields": { "postcode": 22003,  "wilaya":   22, "name": "Sidi Brahim" }},
    { "model": "base.commune",     "pk": 792  ,"fields": { "postcode": 22004,  "wilaya":   22, "name": "Mostefa Ben Brahim" }},
    { "model": "base.commune",     "pk": 793  ,"fields": { "postcode": 22005,  "wilaya":   22, "name": "Telagh" }},
    { "model": "base.commune",     "pk": 794  ,"fields": { "postcode": 22006,  "wilaya":   22, "name": "Mezaourou" }},
    { "model": "base.commune",     "pk": 795  ,"fields": { "postcode": 22007,  "wilaya":   22, "name": "Boukhanafis" }},
    { "model": "base.commune",     "pk": 796  ,"fields": { "postcode": 22008,  "wilaya":   22, "name": "Sidi Ali Boussidi" }},
    { "model": "base.commune",     "pk": 797  ,"fields": { "postcode": 22009,  "wilaya":   22, "name": "Badredine El Mokrani" }},
    { "model": "base.commune",     "pk": 798  ,"fields": { "postcode": 22010,  "wilaya":   22, "name": "Marhoum" }},
    { "model": "base.commune",     "pk": 799  ,"fields": { "postcode": 22011,  "wilaya":   22, "name": "Tafissour" }},
    { "model": "base.commune",     "pk": 800  ,"fields": { "postcode": 22012,  "wilaya":   22, "name": "Amarnas" }},
    { "model": "base.commune",     "pk": 801  ,"fields": { "postcode": 22013,  "wilaya":   22, "name": "Tilmouni" }},
    { "model": "base.commune",     "pk": 802  ,"fields": { "postcode": 22014,  "wilaya":   22, "name": "Sidi Lahcene" }},
    { "model": "base.commune",     "pk": 803  ,"fields": { "postcode": 22015,  "wilaya":   22, "name": "Ain Thrid" }},
    { "model": "base.commune",     "pk": 804  ,"fields": { "postcode": 22016,  "wilaya":   22, "name": "Makedra" }},
    { "model": "base.commune",     "pk": 805  ,"fields": { "postcode": 22017,  "wilaya":   22, "name": "Tenira" }},
    { "model": "base.commune",     "pk": 806  ,"fields": { "postcode": 22018,  "wilaya":   22, "name": "Moulay Slissen" }},
    { "model": "base.commune",     "pk": 807  ,"fields": { "postcode": 22019,  "wilaya":   22, "name": "El Hacaiba" }},
    { "model": "base.commune",     "pk": 808  ,"fields": { "postcode": 22020,  "wilaya":   22, "name": "Hassi Zehana" }},
    { "model": "base.commune",     "pk": 809  ,"fields": { "postcode": 22021,  "wilaya":   22, "name": "Tabia" }},
    { "model": "base.commune",     "pk": 810  ,"fields": { "postcode": 22022,  "wilaya":   22, "name": "Merine" }},
    { "model": "base.commune",     "pk": 811  ,"fields": { "postcode": 22023,  "wilaya":   22, "name": "Ras El Ma" }},
    { "model": "base.commune",     "pk": 812  ,"fields": { "postcode": 22024,  "wilaya":   22, "name": "Ain Tindamine" }},
    { "model": "base.commune",     "pk": 813  ,"fields": { "postcode": 22025,  "wilaya":   22, "name": "Ain Kada" }},
    { "model": "base.commune",     "pk": 814  ,"fields": { "postcode": 22026,  "wilaya":   22, "name": "Mcid" }},
    { "model": "base.commune",     "pk": 815  ,"fields": { "postcode": 22027,  "wilaya":   22, "name": "Sidi Khaled" }},
    { "model": "base.commune",     "pk": 816  ,"fields": { "postcode": 22028,  "wilaya":   22, "name": "Ain El Berd" }},
    { "model": "base.commune",     "pk": 817  ,"fields": { "postcode": 22029,  "wilaya":   22, "name": "Sfissef" }},
    { "model": "base.commune",     "pk": 818  ,"fields": { "postcode": 22030,  "wilaya":   22, "name": "Ain Adden" }},
    { "model": "base.commune",     "pk": 819  ,"fields": { "postcode": 22031,  "wilaya":   22, "name": "Oued Taourira" }},
    { "model": "base.commune",     "pk": 820  ,"fields": { "postcode": 22032,  "wilaya":   22, "name": "Dhaya" }},
    { "model": "base.commune",     "pk": 821  ,"fields": { "postcode": 22033,  "wilaya":   22, "name": "Zerouala" }},
    { "model": "base.commune",     "pk": 822  ,"fields": { "postcode": 22034,  "wilaya":   22, "name": "Lamtar" }},
    { "model": "base.commune",     "pk": 823  ,"fields": { "postcode": 22035,  "wilaya":   22, "name": "Sidi Chaib" }},
    { "model": "base.commune",     "pk": 824  ,"fields": { "postcode": 22036,  "wilaya":   22, "name": "Sidi Dahou Dezairs" }},
    { "model": "base.commune",     "pk": 825  ,"fields": { "postcode": 22037,  "wilaya":   22, "name": "Oued Sbaa" }},
    { "model": "base.commune",     "pk": 826  ,"fields": { "postcode": 22038,  "wilaya":   22, "name": "Boudjebaa El Bordj" }},
    { "model": "base.commune",     "pk": 827  ,"fields": { "postcode": 22039,  "wilaya":   22, "name": "Sehala Thaoura" }},
    { "model": "base.commune",     "pk": 828  ,"fields": { "postcode": 22040,  "wilaya":   22, "name": "Sidi Yacoub" }},
    { "model": "base.commune",     "pk": 829  ,"fields": { "postcode": 22041,  "wilaya":   22, "name": "Sidi Hamadouche" }},
    { "model": "base.commune",     "pk": 830  ,"fields": { "postcode": 22042,  "wilaya":   22, "name": "Belarbi" }},
    { "model": "base.commune",     "pk": 831  ,"fields": { "postcode": 22043,  "wilaya":   22, "name": "Oued Sefioun" }},
    { "model": "base.commune",     "pk": 832  ,"fields": { "postcode": 22044,  "wilaya":   22, "name": "Teghalimet" }},
    { "model": "base.commune",     "pk": 833  ,"fields": { "postcode": 22045,  "wilaya":   22, "name": "Ben Badis" }},
    { "model": "base.commune",     "pk": 834  ,"fields": { "postcode": 22046,  "wilaya":   22, "name": "Sidi Ali Benyoub" }},
    { "model": "base.commune",     "pk": 835  ,"fields": { "postcode": 22047,  "wilaya":   22, "name": "Chetouane Belaila" }},
    { "model": "base.commune",     "pk": 836  ,"fields": { "postcode": 22048,  "wilaya":   22, "name": "Bir El Hammam" }},
    { "model": "base.commune",     "pk": 837  ,"fields": { "postcode": 22049,  "wilaya":   22, "name": "Taoudmout" }},
    { "model": "base.commune",     "pk": 838  ,"fields": { "postcode": 22050,  "wilaya":   22, "name": "Redjem Demouche" }},
    { "model": "base.commune",     "pk": 839  ,"fields": { "postcode": 22051,  "wilaya":   22, "name": "Benachiba Chelia" }},
    { "model": "base.commune",     "pk": 840  ,"fields": { "postcode": 22052,  "wilaya":   22, "name": "Hassi Dahou" }},
    { "model": "base.commune",     "pk": 841  ,"fields": { "postcode": 23001,  "wilaya":   23, "name": "Annaba" }},
    { "model": "base.commune",     "pk": 842  ,"fields": { "postcode": 23002,  "wilaya":   23, "name": "Berrahel" }},
    { "model": "base.commune",     "pk": 843  ,"fields": { "postcode": 23003,  "wilaya":   23, "name": "El Hadjar" }},
    { "model": "base.commune",     "pk": 844  ,"fields": { "postcode": 23004,  "wilaya":   23, "name": "Eulma" }},
    { "model": "base.commune",     "pk": 845  ,"fields": { "postcode": 23005,  "wilaya":   23, "name": "El Bouni" }},
    { "model": "base.commune",     "pk": 846  ,"fields": { "postcode": 23006,  "wilaya":   23, "name": "Oued El Aneb" }},
    { "model": "base.commune",     "pk": 847  ,"fields": { "postcode": 23007,  "wilaya":   23, "name": "Cheurfa" }},
    { "model": "base.commune",     "pk": 848  ,"fields": { "postcode": 23008,  "wilaya":   23, "name": "Seraidi" }},
    { "model": "base.commune",     "pk": 849  ,"fields": { "postcode": 23009,  "wilaya":   23, "name": "Ain Berda" }},
    { "model": "base.commune",     "pk": 850  ,"fields": { "postcode": 23010,  "wilaya":   23, "name": "Chetaibi" }},
    { "model": "base.commune",     "pk": 851  ,"fields": { "postcode": 23011,  "wilaya":   23, "name": "Sidi Amer" }},
    { "model": "base.commune",     "pk": 852  ,"fields": { "postcode": 23012,  "wilaya":   23, "name": "Treat" }},
    { "model": "base.commune",     "pk": 853  ,"fields": { "postcode": 24001,  "wilaya":   24, "name": "Guelma" }},
    { "model": "base.commune",     "pk": 854  ,"fields": { "postcode": 24002,  "wilaya":   24, "name": "Nechmaya" }},
    { "model": "base.commune",     "pk": 855  ,"fields": { "postcode": 24003,  "wilaya":   24, "name": "Bouati Mahmoud" }},
    { "model": "base.commune",     "pk": 856  ,"fields": { "postcode": 24004,  "wilaya":   24, "name": "Oued Zenati" }},
    { "model": "base.commune",     "pk": 857  ,"fields": { "postcode": 24005,  "wilaya":   24, "name": "Tamlouka" }},
    { "model": "base.commune",     "pk": 858  ,"fields": { "postcode": 24006,  "wilaya":   24, "name": "Oued Fragha" }},
    { "model": "base.commune",     "pk": 859  ,"fields": { "postcode": 24007,  "wilaya":   24, "name": "Ain Sandel" }},
    { "model": "base.commune",     "pk": 860  ,"fields": { "postcode": 24008,  "wilaya":   24, "name": "Ras El Agba" }},
    { "model": "base.commune",     "pk": 861  ,"fields": { "postcode": 24009,  "wilaya":   24, "name": "Dahouara" }},
    { "model": "base.commune",     "pk": 862  ,"fields": { "postcode": 24010,  "wilaya":   24, "name": "Belkhir" }},
    { "model": "base.commune",     "pk": 863  ,"fields": { "postcode": 24011,  "wilaya":   24, "name": "Ben Djarah" }},
    { "model": "base.commune",     "pk": 864  ,"fields": { "postcode": 24012,  "wilaya":   24, "name": "Bou Hamdane" }},
    { "model": "base.commune",     "pk": 865  ,"fields": { "postcode": 24013,  "wilaya":   24, "name": "Ain Makhlouf" }},
    { "model": "base.commune",     "pk": 866  ,"fields": { "postcode": 24014,  "wilaya":   24, "name": "Ain Ben Beida" }},
    { "model": "base.commune",     "pk": 867  ,"fields": { "postcode": 24015,  "wilaya":   24, "name": "Khezara" }},
    { "model": "base.commune",     "pk": 868  ,"fields": { "postcode": 24016,  "wilaya":   24, "name": "Beni Mezline" }},
    { "model": "base.commune",     "pk": 869  ,"fields": { "postcode": 24017,  "wilaya":   24, "name": "Bou Hachana" }},
    { "model": "base.commune",     "pk": 870  ,"fields": { "postcode": 24018,  "wilaya":   24, "name": "Guelaat Bou Sbaa" }},
    { "model": "base.commune",     "pk": 871  ,"fields": { "postcode": 24019,  "wilaya":   24, "name": "Hammam Maskhoutine" }},
    { "model": "base.commune",     "pk": 872  ,"fields": { "postcode": 24020,  "wilaya":   24, "name": "El Fedjoudj" }},
    { "model": "base.commune",     "pk": 873  ,"fields": { "postcode": 24021,  "wilaya":   24, "name": "Bordj Sabat" }},
    { "model": "base.commune",     "pk": 874  ,"fields": { "postcode": 24022,  "wilaya":   24, "name": "Hamman Nbail" }},
    { "model": "base.commune",     "pk": 875  ,"fields": { "postcode": 24023,  "wilaya":   24, "name": "Ain Larbi" }},
    { "model": "base.commune",     "pk": 876  ,"fields": { "postcode": 24024,  "wilaya":   24, "name": "Medjez Amar" }},
    { "model": "base.commune",     "pk": 877  ,"fields": { "postcode": 24025,  "wilaya":   24, "name": "Bouchegouf" }},
    { "model": "base.commune",     "pk": 878  ,"fields": { "postcode": 24026,  "wilaya":   24, "name": "Heliopolis" }},
    { "model": "base.commune",     "pk": 879  ,"fields": { "postcode": 24027,  "wilaya":   24, "name": "Ain Hessania" }},
    { "model": "base.commune",     "pk": 880  ,"fields": { "postcode": 24028,  "wilaya":   24, "name": "Roknia" }},
    { "model": "base.commune",     "pk": 881  ,"fields": { "postcode": 24029,  "wilaya":   24, "name": "Salaoua Announa" }},
    { "model": "base.commune",     "pk": 882  ,"fields": { "postcode": 24030,  "wilaya":   24, "name": "Medjez Sfa" }},
    { "model": "base.commune",     "pk": 883  ,"fields": { "postcode": 24031,  "wilaya":   24, "name": "Boumahra Ahmed" }},
    { "model": "base.commune",     "pk": 884  ,"fields": { "postcode": 24032,  "wilaya":   24, "name": "Ain Reggada" }},
    { "model": "base.commune",     "pk": 885  ,"fields": { "postcode": 24033,  "wilaya":   24, "name": "Oued Cheham" }},
    { "model": "base.commune",     "pk": 886  ,"fields": { "postcode": 24034,  "wilaya":   24, "name": "Djeballah Khemissi" }},
    { "model": "base.commune",     "pk": 887  ,"fields": { "postcode": 25001,  "wilaya":   25, "name": "Constantine" }},
    { "model": "base.commune",     "pk": 888  ,"fields": { "postcode": 25002,  "wilaya":   25, "name": "Hamma Bouziane" }},
    { "model": "base.commune",     "pk": 889  ,"fields": { "postcode": 25003,  "wilaya":   25, "name": "El Haria" }},
    { "model": "base.commune",     "pk": 890  ,"fields": { "postcode": 25004,  "wilaya":   25, "name": "Zighoud Youcef" }},
    { "model": "base.commune",     "pk": 891  ,"fields": { "postcode": 25005,  "wilaya":   25, "name": "Didouche Mourad" }},
    { "model": "base.commune",     "pk": 892  ,"fields": { "postcode": 25006,  "wilaya":   25, "name": "El Khroub" }},
    { "model": "base.commune",     "pk": 893  ,"fields": { "postcode": 25007,  "wilaya":   25, "name": "Ain Abid" }},
    { "model": "base.commune",     "pk": 894  ,"fields": { "postcode": 25008,  "wilaya":   25, "name": "Beni Hamiden" }},
    { "model": "base.commune",     "pk": 895  ,"fields": { "postcode": 25009,  "wilaya":   25, "name": "Ouled Rahmoune" }},
    { "model": "base.commune",     "pk": 896  ,"fields": { "postcode": 25010,  "wilaya":   25, "name": "Ain Smara" }},
    { "model": "base.commune",     "pk": 897  ,"fields": { "postcode": 25011,  "wilaya":   25, "name": "Mesaoud Boudjeriou" }},
    { "model": "base.commune",     "pk": 898  ,"fields": { "postcode": 25012,  "wilaya":   25, "name": "Ibn Ziad" }},
    { "model": "base.commune",     "pk": 899  ,"fields": { "postcode": 26001,  "wilaya":   26, "name": "Medea" }},
    { "model": "base.commune",     "pk": 900  ,"fields": { "postcode": 26002,  "wilaya":   26, "name": "Ouzera" }},
    { "model": "base.commune",     "pk": 901  ,"fields": { "postcode": 26003,  "wilaya":   26, "name": "Ouled Maaref" }},
    { "model": "base.commune",     "pk": 902  ,"fields": { "postcode": 26004,  "wilaya":   26, "name": "Ain Boucif" }},
    { "model": "base.commune",     "pk": 903  ,"fields": { "postcode": 26005,  "wilaya":   26, "name": "Aissaouia" }},
    { "model": "base.commune",     "pk": 904  ,"fields": { "postcode": 26006,  "wilaya":   26, "name": "Ouled Deide" }},
    { "model": "base.commune",     "pk": 905  ,"fields": { "postcode": 26007,  "wilaya":   26, "name": "El Omaria" }},
    { "model": "base.commune",     "pk": 906  ,"fields": { "postcode": 26008,  "wilaya":   26, "name": "Derrag" }},
    { "model": "base.commune",     "pk": 907  ,"fields": { "postcode": 26009,  "wilaya":   26, "name": "El Guelbelkebir" }},
    { "model": "base.commune",     "pk": 908  ,"fields": { "postcode": 26010,  "wilaya":   26, "name": "Bouaiche" }},
    { "model": "base.commune",     "pk": 909  ,"fields": { "postcode": 26011,  "wilaya":   26, "name": "Mezerena" }},
    { "model": "base.commune",     "pk": 910  ,"fields": { "postcode": 26012,  "wilaya":   26, "name": "Ouled Brahim" }},
    { "model": "base.commune",     "pk": 911  ,"fields": { "postcode": 26013,  "wilaya":   26, "name": "Damiat" }},
    { "model": "base.commune",     "pk": 912  ,"fields": { "postcode": 26014,  "wilaya":   26, "name": "Sidi Ziane" }},
    { "model": "base.commune",     "pk": 913  ,"fields": { "postcode": 26015,  "wilaya":   26, "name": "Tamesguida" }},
    { "model": "base.commune",     "pk": 914  ,"fields": { "postcode": 26016,  "wilaya":   26, "name": "El Hamdania" }},
    { "model": "base.commune",     "pk": 915  ,"fields": { "postcode": 26017,  "wilaya":   26, "name": "Kef Lakhdar" }},
    { "model": "base.commune",     "pk": 916  ,"fields": { "postcode": 26018,  "wilaya":   26, "name": "Chelalet El Adhaoura" }},
    { "model": "base.commune",     "pk": 917  ,"fields": { "postcode": 26019,  "wilaya":   26, "name": "Bouskene" }},
    { "model": "base.commune",     "pk": 918  ,"fields": { "postcode": 26020,  "wilaya":   26, "name": "Rebaia" }},
    { "model": "base.commune",     "pk": 919  ,"fields": { "postcode": 26021,  "wilaya":   26, "name": "Bouchrahil" }},
    { "model": "base.commune",     "pk": 920  ,"fields": { "postcode": 26022,  "wilaya":   26, "name": "Ouled Hellal" }},
    { "model": "base.commune",     "pk": 921  ,"fields": { "postcode": 26023,  "wilaya":   26, "name": "Tafraout" }},
    { "model": "base.commune",     "pk": 922  ,"fields": { "postcode": 26024,  "wilaya":   26, "name": "Baata" }},
    { "model": "base.commune",     "pk": 923  ,"fields": { "postcode": 26025,  "wilaya":   26, "name": "Boghar" }},
    { "model": "base.commune",     "pk": 924  ,"fields": { "postcode": 26026,  "wilaya":   26, "name": "Sidi Naamane" }},
    { "model": "base.commune",     "pk": 925  ,"fields": { "postcode": 26027,  "wilaya":   26, "name": "Ouled Bouachra" }},
    { "model": "base.commune",     "pk": 926  ,"fields": { "postcode": 26028,  "wilaya":   26, "name": "Sidi Zahar" }},
    { "model": "base.commune",     "pk": 927  ,"fields": { "postcode": 26029,  "wilaya":   26, "name": "Oued Harbil" }},
    { "model": "base.commune",     "pk": 928  ,"fields": { "postcode": 26030,  "wilaya":   26, "name": "Benchicao" }},
    { "model": "base.commune",     "pk": 929  ,"fields": { "postcode": 26031,  "wilaya":   26, "name": "Sidi Damed" }},
    { "model": "base.commune",     "pk": 930  ,"fields": { "postcode": 26032,  "wilaya":   26, "name": "Aziz" }},
    { "model": "base.commune",     "pk": 931  ,"fields": { "postcode": 26033,  "wilaya":   26, "name": "Souagui" }},
    { "model": "base.commune",     "pk": 932  ,"fields": { "postcode": 26034,  "wilaya":   26, "name": "Zoubiria" }},
    { "model": "base.commune",     "pk": 933  ,"fields": { "postcode": 26035,  "wilaya":   26, "name": "Ksar El Boukhari" }},
    { "model": "base.commune",     "pk": 934  ,"fields": { "postcode": 26036,  "wilaya":   26, "name": "El Azizia" }},
    { "model": "base.commune",     "pk": 935  ,"fields": { "postcode": 26037,  "wilaya":   26, "name": "Djouab" }},
    { "model": "base.commune",     "pk": 936  ,"fields": { "postcode": 26038,  "wilaya":   26, "name": "Chahbounia" }},
    { "model": "base.commune",     "pk": 937  ,"fields": { "postcode": 26039,  "wilaya":   26, "name": "Meghraoua" }},
    { "model": "base.commune",     "pk": 938  ,"fields": { "postcode": 26040,  "wilaya":   26, "name": "Cheniguel" }},
    { "model": "base.commune",     "pk": 939  ,"fields": { "postcode": 26041,  "wilaya":   26, "name": "Ain Ouksir" }},
    { "model": "base.commune",     "pk": 940  ,"fields": { "postcode": 26042,  "wilaya":   26, "name": "Oum El Djalil" }},
    { "model": "base.commune",     "pk": 941  ,"fields": { "postcode": 26043,  "wilaya":   26, "name": "Ouamri" }},
    { "model": "base.commune",     "pk": 942  ,"fields": { "postcode": 26044,  "wilaya":   26, "name": "Si Mahdjoub" }},
    { "model": "base.commune",     "pk": 943  ,"fields": { "postcode": 26045,  "wilaya":   26, "name": "Tlatet Eddoair" }},
    { "model": "base.commune",     "pk": 944  ,"fields": { "postcode": 26046,  "wilaya":   26, "name": "Beni Slimane" }},
    { "model": "base.commune",     "pk": 945  ,"fields": { "postcode": 26047,  "wilaya":   26, "name": "Berrouaghia" }},
    { "model": "base.commune",     "pk": 946  ,"fields": { "postcode": 26048,  "wilaya":   26, "name": "Seghouane" }},
    { "model": "base.commune",     "pk": 947  ,"fields": { "postcode": 26049,  "wilaya":   26, "name": "Meftaha" }},
    { "model": "base.commune",     "pk": 948  ,"fields": { "postcode": 26050,  "wilaya":   26, "name": "Mihoub" }},
    { "model": "base.commune",     "pk": 949  ,"fields": { "postcode": 26051,  "wilaya":   26, "name": "Boughezoul" }},
    { "model": "base.commune",     "pk": 950  ,"fields": { "postcode": 26052,  "wilaya":   26, "name": "Tablat" }},
    { "model": "base.commune",     "pk": 951  ,"fields": { "postcode": 26053,  "wilaya":   26, "name": "Deux Bassins" }},
    { "model": "base.commune",     "pk": 952  ,"fields": { "postcode": 26054,  "wilaya":   26, "name": "Draa Essamar" }},
    { "model": "base.commune",     "pk": 953  ,"fields": { "postcode": 26055,  "wilaya":   26, "name": "Sidi Errabia" }},
    { "model": "base.commune",     "pk": 954  ,"fields": { "postcode": 26056,  "wilaya":   26, "name": "Bir Ben Laabed" }},
    { "model": "base.commune",     "pk": 955  ,"fields": { "postcode": 26057,  "wilaya":   26, "name": "El Ouinet" }},
    { "model": "base.commune",     "pk": 956  ,"fields": { "postcode": 26058,  "wilaya":   26, "name": "Ouled Antar" }},
    { "model": "base.commune",     "pk": 957  ,"fields": { "postcode": 26059,  "wilaya":   26, "name": "Bouaichoune" }},
    { "model": "base.commune",     "pk": 958  ,"fields": { "postcode": 26060,  "wilaya":   26, "name": "Hannacha" }},
    { "model": "base.commune",     "pk": 959  ,"fields": { "postcode": 26061,  "wilaya":   26, "name": "Sedraia" }},
    { "model": "base.commune",     "pk": 960  ,"fields": { "postcode": 26062,  "wilaya":   26, "name": "Medjebar" }},
    { "model": "base.commune",     "pk": 961  ,"fields": { "postcode": 26063,  "wilaya":   26, "name": "Khams Djouamaa" }},
    { "model": "base.commune",     "pk": 962  ,"fields": { "postcode": 26064,  "wilaya":   26, "name": "Saneg" }},
    { "model": "base.commune",     "pk": 963  ,"fields": { "postcode": 27001,  "wilaya":   27, "name": "Mostaganem" }},
    { "model": "base.commune",     "pk": 964  ,"fields": { "postcode": 27002,  "wilaya":   27, "name": "Sayada" }},
    { "model": "base.commune",     "pk": 965  ,"fields": { "postcode": 27003,  "wilaya":   27, "name": "Fornaka" }},
    { "model": "base.commune",     "pk": 966  ,"fields": { "postcode": 27004,  "wilaya":   27, "name": "Stidia" }},
    { "model": "base.commune",     "pk": 967  ,"fields": { "postcode": 27005,  "wilaya":   27, "name": "Ain Nouissy" }},
    { "model": "base.commune",     "pk": 968  ,"fields": { "postcode": 27006,  "wilaya":   27, "name": "Hassi Maameche" }},
    { "model": "base.commune",     "pk": 969  ,"fields": { "postcode": 27007,  "wilaya":   27, "name": "Ain Tadles" }},
    { "model": "base.commune",     "pk": 970  ,"fields": { "postcode": 27008,  "wilaya":   27, "name": "Sour" }},
    { "model": "base.commune",     "pk": 971  ,"fields": { "postcode": 27009,  "wilaya":   27, "name": "Oued El Kheir" }},
    { "model": "base.commune",     "pk": 972  ,"fields": { "postcode": 27010,  "wilaya":   27, "name": "Sidi Bellater" }},
    { "model": "base.commune",     "pk": 973  ,"fields": { "postcode": 27011,  "wilaya":   27, "name": "Kheiredine " }},
    { "model": "base.commune",     "pk": 974  ,"fields": { "postcode": 27012,  "wilaya":   27, "name": "Sidi Ali" }},
    { "model": "base.commune",     "pk": 975  ,"fields": { "postcode": 27013,  "wilaya":   27, "name": "Abdelmalek Ramdane" }},
    { "model": "base.commune",     "pk": 976  ,"fields": { "postcode": 27014,  "wilaya":   27, "name": "Hadjadj" }},
    { "model": "base.commune",     "pk": 977  ,"fields": { "postcode": 27015,  "wilaya":   27, "name": "Nekmaria" }},
    { "model": "base.commune",     "pk": 978  ,"fields": { "postcode": 27016,  "wilaya":   27, "name": "Sidi Lakhdar" }},
    { "model": "base.commune",     "pk": 979  ,"fields": { "postcode": 27017,  "wilaya":   27, "name": "Achaacha" }},
    { "model": "base.commune",     "pk": 980  ,"fields": { "postcode": 27018,  "wilaya":   27, "name": "Khadra" }},
    { "model": "base.commune",     "pk": 981  ,"fields": { "postcode": 27019,  "wilaya":   27, "name": "Bouguirat" }},
    { "model": "base.commune",     "pk": 982  ,"fields": { "postcode": 27020,  "wilaya":   27, "name": "Sirat" }},
    { "model": "base.commune",     "pk": 983  ,"fields": { "postcode": 27021,  "wilaya":   27, "name": "Ain Sidi Cherif" }},
    { "model": "base.commune",     "pk": 984  ,"fields": { "postcode": 27022,  "wilaya":   27, "name": "Mesra" }},
    { "model": "base.commune",     "pk": 985  ,"fields": { "postcode": 27023,  "wilaya":   27, "name": "Mansourah" }},
    { "model": "base.commune",     "pk": 986  ,"fields": { "postcode": 27024,  "wilaya":   27, "name": "Souaflia" }},
    { "model": "base.commune",     "pk": 987  ,"fields": { "postcode": 27025,  "wilaya":   27, "name": "Ouled Boughalem" }},
    { "model": "base.commune",     "pk": 988  ,"fields": { "postcode": 27026,  "wilaya":   27, "name": "Ouled Maallah" }},
    { "model": "base.commune",     "pk": 989  ,"fields": { "postcode": 27027,  "wilaya":   27, "name": "Mezghrane" }},
    { "model": "base.commune",     "pk": 990  ,"fields": { "postcode": 27028,  "wilaya":   27, "name": "Ain Boudinar" }},
    { "model": "base.commune",     "pk": 991  ,"fields": { "postcode": 27029,  "wilaya":   27, "name": "Tazgait" }},
    { "model": "base.commune",     "pk": 992  ,"fields": { "postcode": 27030,  "wilaya":   27, "name": "Safsaf" }},
    { "model": "base.commune",     "pk": 993  ,"fields": { "postcode": 27031,  "wilaya":   27, "name": "Touahria" }},
    { "model": "base.commune",     "pk": 994  ,"fields": { "postcode": 27032,  "wilaya":   27, "name": "El Hassiane" }},
    { "model": "base.commune",     "pk": 995  ,"fields": { "postcode": 28001,  "wilaya":   28, "name": "Msila" }},
    { "model": "base.commune",     "pk": 996  ,"fields": { "postcode": 28002,  "wilaya":   28, "name": "Maadid" }},
    { "model": "base.commune",     "pk": 997  ,"fields": { "postcode": 28003,  "wilaya":   28, "name": "Hammam Dhalaa" }},
    { "model": "base.commune",     "pk": 998  ,"fields": { "postcode": 28004,  "wilaya":   28, "name": "Ouled Derradj" }},
    { "model": "base.commune",     "pk": 999  ,"fields": { "postcode": 28005,  "wilaya":   28, "name": "Tarmount" }},
    { "model": "base.commune",     "pk": 1000  ,"fields": { "postcode": 28006,  "wilaya":   28, "name": "Mtarfa" }},
    { "model": "base.commune",     "pk": 1001  ,"fields": { "postcode": 28007,  "wilaya":   28, "name": "Khoubana" }},
    { "model": "base.commune",     "pk": 1002  ,"fields": { "postcode": 28008,  "wilaya":   28, "name": "Mcif" }},
    { "model": "base.commune",     "pk": 1003  ,"fields": { "postcode": 28009,  "wilaya":   28, "name": "Chellal" }},
    { "model": "base.commune",     "pk": 1004  ,"fields": { "postcode": 28010,  "wilaya":   28, "name": "Ouled Madhi" }},
    { "model": "base.commune",     "pk": 1005  ,"fields": { "postcode": 28011,  "wilaya":   28, "name": "Magra" }},
    { "model": "base.commune",     "pk": 1006  ,"fields": { "postcode": 28012,  "wilaya":   28, "name": "Berhoum" }},
    { "model": "base.commune",     "pk": 1007  ,"fields": { "postcode": 28013,  "wilaya":   28, "name": "Ain Khadra" }},
    { "model": "base.commune",     "pk": 1008  ,"fields": { "postcode": 28014,  "wilaya":   28, "name": "Ouled Addi Guebala" }},
    { "model": "base.commune",     "pk": 1009  ,"fields": { "postcode": 28015,  "wilaya":   28, "name": "Belaiba" }},
    { "model": "base.commune",     "pk": 1010  ,"fields": { "postcode": 28016,  "wilaya":   28, "name": "Sidi Aissa" }},
    { "model": "base.commune",     "pk": 1011  ,"fields": { "postcode": 28017,  "wilaya":   28, "name": "Ain El Hadjel" }},
    { "model": "base.commune",     "pk": 1012  ,"fields": { "postcode": 28018,  "wilaya":   28, "name": "Sidi Hadjeres" }},
    { "model": "base.commune",     "pk": 1013  ,"fields": { "postcode": 28019,  "wilaya":   28, "name": "Ouanougha" }},
    { "model": "base.commune",     "pk": 1014  ,"fields": { "postcode": 28020,  "wilaya":   28, "name": "Bou Saada" }},
    { "model": "base.commune",     "pk": 1015  ,"fields": { "postcode": 28021,  "wilaya":   28, "name": "Ouled Sidi Brahim" }},
    { "model": "base.commune",     "pk": 1016  ,"fields": { "postcode": 28022,  "wilaya":   28, "name": "Sidi Ameur" }},
    { "model": "base.commune",     "pk": 1017  ,"fields": { "postcode": 28023,  "wilaya":   28, "name": "Tamsa" }},
    { "model": "base.commune",     "pk": 1018  ,"fields": { "postcode": 28024,  "wilaya":   28, "name": "Ben Srour" }},
    { "model": "base.commune",     "pk": 1019  ,"fields": { "postcode": 28025,  "wilaya":   28, "name": "Ouled Slimane" }},
    { "model": "base.commune",     "pk": 1020  ,"fields": { "postcode": 28026,  "wilaya":   28, "name": "El Houamed" }},
    { "model": "base.commune",     "pk": 1021  ,"fields": { "postcode": 28027,  "wilaya":   28, "name": "El Hamel" }},
    { "model": "base.commune",     "pk": 1022  ,"fields": { "postcode": 28028,  "wilaya":   28, "name": "Ouled Mansour" }},
    { "model": "base.commune",     "pk": 1023  ,"fields": { "postcode": 28029,  "wilaya":   28, "name": "Maarif" }},
    { "model": "base.commune",     "pk": 1024  ,"fields": { "postcode": 28030,  "wilaya":   28, "name": "Dehahna" }},
    { "model": "base.commune",     "pk": 1025  ,"fields": { "postcode": 28031,  "wilaya":   28, "name": "Bouti Sayah" }},
    { "model": "base.commune",     "pk": 1026  ,"fields": { "postcode": 28032,  "wilaya":   28, "name": "Khettouti Sed Djir" }},
    { "model": "base.commune",     "pk": 1027  ,"fields": { "postcode": 28033,  "wilaya":   28, "name": "Zarzour" }},
    { "model": "base.commune",     "pk": 1028  ,"fields": { "postcode": 28034,  "wilaya":   28, "name": "Oued Chair" }},
    { "model": "base.commune",     "pk": 1029  ,"fields": { "postcode": 28035,  "wilaya":   28, "name": "Benzouh" }},
    { "model": "base.commune",     "pk": 1030  ,"fields": { "postcode": 28036,  "wilaya":   28, "name": "Bir Foda" }},
    { "model": "base.commune",     "pk": 1031  ,"fields": { "postcode": 28037,  "wilaya":   28, "name": "Ain Fares" }},
    { "model": "base.commune",     "pk": 1032  ,"fields": { "postcode": 28038,  "wilaya":   28, "name": "Sidi Mhamed" }},
    { "model": "base.commune",     "pk": 1033  ,"fields": { "postcode": 28039,  "wilaya":   28, "name": "Ouled Atia" }},
    { "model": "base.commune",     "pk": 1034  ,"fields": { "postcode": 28040,  "wilaya":   28, "name": "Souamaa" }},
    { "model": "base.commune",     "pk": 1035  ,"fields": { "postcode": 28041,  "wilaya":   28, "name": "Ain El Melh" }},
    { "model": "base.commune",     "pk": 1036  ,"fields": { "postcode": 28042,  "wilaya":   28, "name": "Medjedel" }},
    { "model": "base.commune",     "pk": 1037  ,"fields": { "postcode": 28043,  "wilaya":   28, "name": "Slim" }},
    { "model": "base.commune",     "pk": 1038  ,"fields": { "postcode": 28044,  "wilaya":   28, "name": "Ain Errich" }},
    { "model": "base.commune",     "pk": 1039  ,"fields": { "postcode": 28045,  "wilaya":   28, "name": "Beni Ilmane" }},
    { "model": "base.commune",     "pk": 1040  ,"fields": { "postcode": 28046,  "wilaya":   28, "name": "Oultene" }},
    { "model": "base.commune",     "pk": 1041  ,"fields": { "postcode": 28047,  "wilaya":   28, "name": "Djebel Messaad" }},
    { "model": "base.commune",     "pk": 1042  ,"fields": { "postcode": 29001,  "wilaya":   29, "name": "Mascara" }},
    { "model": "base.commune",     "pk": 1043  ,"fields": { "postcode": 29002,  "wilaya":   29, "name": "Bou Hanifia" }},
    { "model": "base.commune",     "pk": 1044  ,"fields": { "postcode": 29003,  "wilaya":   29, "name": "Tizi" }},
    { "model": "base.commune",     "pk": 1045  ,"fields": { "postcode": 29004,  "wilaya":   29, "name": "Hacine" }},
    { "model": "base.commune",     "pk": 1046  ,"fields": { "postcode": 29005,  "wilaya":   29, "name": "Maoussa" }},
    { "model": "base.commune",     "pk": 1047  ,"fields": { "postcode": 29006,  "wilaya":   29, "name": "Teghennif" }},
    { "model": "base.commune",     "pk": 1048  ,"fields": { "postcode": 29007,  "wilaya":   29, "name": "El Hachem" }},
    { "model": "base.commune",     "pk": 1049  ,"fields": { "postcode": 29008,  "wilaya":   29, "name": "Sidi Kada" }},
    { "model": "base.commune",     "pk": 1050  ,"fields": { "postcode": 29009,  "wilaya":   29, "name": "Zelmata" }},
    { "model": "base.commune",     "pk": 1051  ,"fields": { "postcode": 29010,  "wilaya":   29, "name": "Oued El Abtal" }},
    { "model": "base.commune",     "pk": 1052  ,"fields": { "postcode": 29011,  "wilaya":   29, "name": "Ain Ferah" }},
    { "model": "base.commune",     "pk": 1053  ,"fields": { "postcode": 29012,  "wilaya":   29, "name": "Ghriss" }},
    { "model": "base.commune",     "pk": 1054  ,"fields": { "postcode": 29013,  "wilaya":   29, "name": "Froha" }},
    { "model": "base.commune",     "pk": 1055  ,"fields": { "postcode": 29014,  "wilaya":   29, "name": "Matemore" }},
    { "model": "base.commune",     "pk": 1056  ,"fields": { "postcode": 29015,  "wilaya":   29, "name": "Makdha" }},
    { "model": "base.commune",     "pk": 1057  ,"fields": { "postcode": 29016,  "wilaya":   29, "name": "Sidi Boussaid" }},
    { "model": "base.commune",     "pk": 1058  ,"fields": { "postcode": 29017,  "wilaya":   29, "name": "El Bordj" }},
    { "model": "base.commune",     "pk": 1059  ,"fields": { "postcode": 29018,  "wilaya":   29, "name": "Ain Fekan" }},
    { "model": "base.commune",     "pk": 1060  ,"fields": { "postcode": 29019,  "wilaya":   29, "name": "Benian" }},
    { "model": "base.commune",     "pk": 1061  ,"fields": { "postcode": 29020,  "wilaya":   29, "name": "Khalouia" }},
    { "model": "base.commune",     "pk": 1062  ,"fields": { "postcode": 29021,  "wilaya":   29, "name": "El Menaouer" }},
    { "model": "base.commune",     "pk": 1063  ,"fields": { "postcode": 29022,  "wilaya":   29, "name": "Oued Taria" }},
    { "model": "base.commune",     "pk": 1064  ,"fields": { "postcode": 29023,  "wilaya":   29, "name": "Aouf" }},
    { "model": "base.commune",     "pk": 1065  ,"fields": { "postcode": 29024,  "wilaya":   29, "name": "Ain Fares" }},
    { "model": "base.commune",     "pk": 1066  ,"fields": { "postcode": 29025,  "wilaya":   29, "name": "Ain Frass" }},
    { "model": "base.commune",     "pk": 1067  ,"fields": { "postcode": 29026,  "wilaya":   29, "name": "Sig" }},
    { "model": "base.commune",     "pk": 1068  ,"fields": { "postcode": 29027,  "wilaya":   29, "name": "Oggaz" }},
    { "model": "base.commune",     "pk": 1069  ,"fields": { "postcode": 29028,  "wilaya":   29, "name": "Alaimia" }},
    { "model": "base.commune",     "pk": 1070  ,"fields": { "postcode": 29029,  "wilaya":   29, "name": "El Gaada" }},
    { "model": "base.commune",     "pk": 1071  ,"fields": { "postcode": 29030,  "wilaya":   29, "name": "Zahana" }},
    { "model": "base.commune",     "pk": 1072  ,"fields": { "postcode": 29031,  "wilaya":   29, "name": "Mohammadia" }},
    { "model": "base.commune",     "pk": 1073  ,"fields": { "postcode": 29032,  "wilaya":   29, "name": "Sidi Abdelmoumene" }},
    { "model": "base.commune",     "pk": 1074  ,"fields": { "postcode": 29033,  "wilaya":   29, "name": "Ferraguig" }},
    { "model": "base.commune",     "pk": 1075  ,"fields": { "postcode": 29034,  "wilaya":   29, "name": "El Ghomri" }},
    { "model": "base.commune",     "pk": 1076  ,"fields": { "postcode": 29035,  "wilaya":   29, "name": "Sedjerara" }},
    { "model": "base.commune",     "pk": 1077  ,"fields": { "postcode": 29036,  "wilaya":   29, "name": "Moctadouz" }},
    { "model": "base.commune",     "pk": 1078  ,"fields": { "postcode": 29037,  "wilaya":   29, "name": "Bou Henni" }},
    { "model": "base.commune",     "pk": 1079  ,"fields": { "postcode": 29038,  "wilaya":   29, "name": "Guettena" }},
    { "model": "base.commune",     "pk": 1080  ,"fields": { "postcode": 29039,  "wilaya":   29, "name": "El Mamounia" }},
    { "model": "base.commune",     "pk": 1081  ,"fields": { "postcode": 29040,  "wilaya":   29, "name": "El Keurt" }},
    { "model": "base.commune",     "pk": 1082  ,"fields": { "postcode": 29041,  "wilaya":   29, "name": "Gharrous" }},
    { "model": "base.commune",     "pk": 1083  ,"fields": { "postcode": 29042,  "wilaya":   29, "name": "Gherdjoum" }},
    { "model": "base.commune",     "pk": 1084  ,"fields": { "postcode": 29043,  "wilaya":   29, "name": "Chorfa" }},
    { "model": "base.commune",     "pk": 1085  ,"fields": { "postcode": 29044,  "wilaya":   29, "name": "Ras Ain Amirouche" }},
    { "model": "base.commune",     "pk": 1086  ,"fields": { "postcode": 29045,  "wilaya":   29, "name": "Nesmot" }},
    { "model": "base.commune",     "pk": 1087  ,"fields": { "postcode": 29046,  "wilaya":   29, "name": "Sidi Abdeldjebar" }},
    { "model": "base.commune",     "pk": 1088  ,"fields": { "postcode": 29047,  "wilaya":   29, "name": "Sehailia" }},
    { "model": "base.commune",     "pk": 1089  ,"fields": { "postcode": 30001,  "wilaya":   30, "name": "Ouargla" }},
    { "model": "base.commune",     "pk": 1090  ,"fields": { "postcode": 30002,  "wilaya":   30, "name": "Ain Beida" }},
    { "model": "base.commune",     "pk": 1091  ,"fields": { "postcode": 30003,  "wilaya":   30, "name": "Ngoussa" }},
    { "model": "base.commune",     "pk": 1092  ,"fields": { "postcode": 30004,  "wilaya":   30, "name": "Hassi Messaoud" }},
    { "model": "base.commune",     "pk": 1093  ,"fields": { "postcode": 30005,  "wilaya":   30, "name": "Rouissat" }},
    { "model": "base.commune",     "pk": 1094  ,"fields": { "postcode": 30006,  "wilaya":   30, "name": "Balidat Ameur" }},
    { "model": "base.commune",     "pk": 1095  ,"fields": { "postcode": 30007,  "wilaya":   30, "name": "Tebesbest" }},
    { "model": "base.commune",     "pk": 1096  ,"fields": { "postcode": 30008,  "wilaya":   30, "name": "Nezla" }},
    { "model": "base.commune",     "pk": 1097  ,"fields": { "postcode": 30009,  "wilaya":   30, "name": "Zaouia El Abidia" }},
    { "model": "base.commune",     "pk": 1098  ,"fields": { "postcode": 30010,  "wilaya":   30, "name": "Sidi Slimane" }},
    { "model": "base.commune",     "pk": 1099  ,"fields": { "postcode": 30011,  "wilaya":   30, "name": "Sidi Khouiled" }},
    { "model": "base.commune",     "pk": 1100  ,"fields": { "postcode": 30012,  "wilaya":   30, "name": "Hassi Ben Abdellah" }},
    { "model": "base.commune",     "pk": 1101  ,"fields": { "postcode": 30013,  "wilaya":   30, "name": "Touggourt" }},
    { "model": "base.commune",     "pk": 1102  ,"fields": { "postcode": 30014,  "wilaya":   30, "name": "El Hadjira" }},
    { "model": "base.commune",     "pk": 1103  ,"fields": { "postcode": 30015,  "wilaya":   30, "name": "Taibet" }},
    { "model": "base.commune",     "pk": 1104  ,"fields": { "postcode": 30016,  "wilaya":   30, "name": "Tamacine" }},
    { "model": "base.commune",     "pk": 1105  ,"fields": { "postcode": 30017,  "wilaya":   30, "name": "Benaceur" }},
    { "model": "base.commune",     "pk": 1106  ,"fields": { "postcode": 30018,  "wilaya":   30, "name": "Mnaguer" }},
    { "model": "base.commune",     "pk": 1107  ,"fields": { "postcode": 30019,  "wilaya":   30, "name": "Megarine" }},
    { "model": "base.commune",     "pk": 1108  ,"fields": { "postcode": 30020,  "wilaya":   30, "name": "El Allia" }},
    { "model": "base.commune",     "pk": 1109  ,"fields": { "postcode": 30021,  "wilaya":   30, "name": "El Borma" }},
    { "model": "base.commune",     "pk": 1110  ,"fields": { "postcode": 31001,  "wilaya":   31, "name": "Oran" }},
    { "model": "base.commune",     "pk": 1111  ,"fields": { "postcode": 31002,  "wilaya":   31, "name": "Gdyel" }},
    { "model": "base.commune",     "pk": 1112  ,"fields": { "postcode": 31003,  "wilaya":   31, "name": "Bir El Djir" }},
    { "model": "base.commune",     "pk": 1113  ,"fields": { "postcode": 31004,  "wilaya":   31, "name": "Hassi Bounif" }},
    { "model": "base.commune",     "pk": 1114  ,"fields": { "postcode": 31005,  "wilaya":   31, "name": "Es Senia" }},
    { "model": "base.commune",     "pk": 1115  ,"fields": { "postcode": 31006,  "wilaya":   31, "name": "Arzew" }},
    { "model": "base.commune",     "pk": 1116  ,"fields": { "postcode": 31007,  "wilaya":   31, "name": "Bethioua" }},
    { "model": "base.commune",     "pk": 1117  ,"fields": { "postcode": 31008,  "wilaya":   31, "name": "Marsat El Hadjadj" }},
    { "model": "base.commune",     "pk": 1118  ,"fields": { "postcode": 31009,  "wilaya":   31, "name": "Ain Turk" }},
    { "model": "base.commune",     "pk": 1119  ,"fields": { "postcode": 31010,  "wilaya":   31, "name": "El Ancar" }},
    { "model": "base.commune",     "pk": 1120  ,"fields": { "postcode": 31011,  "wilaya":   31, "name": "Oued Tlelat" }},
    { "model": "base.commune",     "pk": 1121  ,"fields": { "postcode": 31012,  "wilaya":   31, "name": "Tafraoui" }},
    { "model": "base.commune",     "pk": 1122  ,"fields": { "postcode": 31013,  "wilaya":   31, "name": "Sidi Chami" }},
    { "model": "base.commune",     "pk": 1123  ,"fields": { "postcode": 31014,  "wilaya":   31, "name": "Boufatis" }},
    { "model": "base.commune",     "pk": 1124  ,"fields": { "postcode": 31015,  "wilaya":   31, "name": "Mers El Kebir" }},
    { "model": "base.commune",     "pk": 1125  ,"fields": { "postcode": 31016,  "wilaya":   31, "name": "Bousfer" }},
    { "model": "base.commune",     "pk": 1126  ,"fields": { "postcode": 31017,  "wilaya":   31, "name": "El Karma" }},
    { "model": "base.commune",     "pk": 1127  ,"fields": { "postcode": 31018,  "wilaya":   31, "name": "El Braya" }},
    { "model": "base.commune",     "pk": 1128  ,"fields": { "postcode": 31019,  "wilaya":   31, "name": "Hassi Ben Okba" }},
    { "model": "base.commune",     "pk": 1129  ,"fields": { "postcode": 31020,  "wilaya":   31, "name": "Ben Freha" }},
    { "model": "base.commune",     "pk": 1130  ,"fields": { "postcode": 31021,  "wilaya":   31, "name": "Hassi Mefsoukh" }},
    { "model": "base.commune",     "pk": 1131  ,"fields": { "postcode": 31022,  "wilaya":   31, "name": "Sidi Ben Yabka" }},
    { "model": "base.commune",     "pk": 1132  ,"fields": { "postcode": 31023,  "wilaya":   31, "name": "Messerghin" }},
    { "model": "base.commune",     "pk": 1133  ,"fields": { "postcode": 31024,  "wilaya":   31, "name": "Boutlelis" }},
    { "model": "base.commune",     "pk": 1134  ,"fields": { "postcode": 31025,  "wilaya":   31, "name": "Ain Kerma" }},
    { "model": "base.commune",     "pk": 1135  ,"fields": { "postcode": 31026,  "wilaya":   31, "name": "Ain Biya" }},
    { "model": "base.commune",     "pk": 1136  ,"fields": { "postcode": 32001,  "wilaya":   32, "name": "El Bayadh" }},
    { "model": "base.commune",     "pk": 1137  ,"fields": { "postcode": 32002,  "wilaya":   32, "name": "Rogassa" }},
    { "model": "base.commune",     "pk": 1138  ,"fields": { "postcode": 32003,  "wilaya":   32, "name": "Stitten" }},
    { "model": "base.commune",     "pk": 1139  ,"fields": { "postcode": 32004,  "wilaya":   32, "name": "Brezina" }},
    { "model": "base.commune",     "pk": 1140  ,"fields": { "postcode": 32005,  "wilaya":   32, "name": "Ghassoul" }},
    { "model": "base.commune",     "pk": 1141  ,"fields": { "postcode": 32006,  "wilaya":   32, "name": "Boualem" }},
    { "model": "base.commune",     "pk": 1142  ,"fields": { "postcode": 32007,  "wilaya":   32, "name": "El Abiodh Sidi Cheikh" }},
    { "model": "base.commune",     "pk": 1143  ,"fields": { "postcode": 32008,  "wilaya":   32, "name": "Ain El Orak" }},
    { "model": "base.commune",     "pk": 1144  ,"fields": { "postcode": 32009,  "wilaya":   32, "name": "Arbaouat" }},
    { "model": "base.commune",     "pk": 1145  ,"fields": { "postcode": 32010,  "wilaya":   32, "name": "Bougtoub" }},
    { "model": "base.commune",     "pk": 1146  ,"fields": { "postcode": 32011,  "wilaya":   32, "name": "El Kheither" }},
    { "model": "base.commune",     "pk": 1147  ,"fields": { "postcode": 32012,  "wilaya":   32, "name": "Kef El Ahmar" }},
    { "model": "base.commune",     "pk": 1148  ,"fields": { "postcode": 32013,  "wilaya":   32, "name": "Boussemghoun" }},
    { "model": "base.commune",     "pk": 1149  ,"fields": { "postcode": 32014,  "wilaya":   32, "name": "Chellala" }},
    { "model": "base.commune",     "pk": 1150  ,"fields": { "postcode": 32015,  "wilaya":   32, "name": "Krakda" }},
    { "model": "base.commune",     "pk": 1151  ,"fields": { "postcode": 32016,  "wilaya":   32, "name": "El Bnoud" }},
    { "model": "base.commune",     "pk": 1152  ,"fields": { "postcode": 32017,  "wilaya":   32, "name": "Cheguig" }},
    { "model": "base.commune",     "pk": 1153  ,"fields": { "postcode": 32018,  "wilaya":   32, "name": "Sidi Ameur" }},
    { "model": "base.commune",     "pk": 1154  ,"fields": { "postcode": 32019,  "wilaya":   32, "name": "El Mehara" }},
    { "model": "base.commune",     "pk": 1155  ,"fields": { "postcode": 32020,  "wilaya":   32, "name": "Tousmouline" }},
    { "model": "base.commune",     "pk": 1156  ,"fields": { "postcode": 32021,  "wilaya":   32, "name": "Sidi Slimane" }},
    { "model": "base.commune",     "pk": 1157  ,"fields": { "postcode": 32022,  "wilaya":   32, "name": "Sidi Tifour" }},
    { "model": "base.commune",     "pk": 1158  ,"fields": { "postcode": 33001,  "wilaya":   33, "name": "Illizi" }},
    { "model": "base.commune",     "pk": 1159  ,"fields": { "postcode": 33002,  "wilaya":   33, "name": "Djanet" }},
    { "model": "base.commune",     "pk": 1160  ,"fields": { "postcode": 33003,  "wilaya":   33, "name": "Debdeb" }},
    { "model": "base.commune",     "pk": 1161  ,"fields": { "postcode": 33004,  "wilaya":   33, "name": "Bordj Omar Driss" }},
    { "model": "base.commune",     "pk": 1162  ,"fields": { "postcode": 33005,  "wilaya":   33, "name": "Bordj El Haouasse" }},
    { "model": "base.commune",     "pk": 1163  ,"fields": { "postcode": 33006,  "wilaya":   33, "name": "In Amenas" }},
    { "model": "base.commune",     "pk": 1164  ,"fields": { "postcode": 34001,  "wilaya":   34, "name": "Bordj Bou Arreridj" }},
    { "model": "base.commune",     "pk": 1165  ,"fields": { "postcode": 34002,  "wilaya":   34, "name": "Ras El Oued" }},
    { "model": "base.commune",     "pk": 1166  ,"fields": { "postcode": 34003,  "wilaya":   34, "name": "Bordj Zemoura" }},
    { "model": "base.commune",     "pk": 1167  ,"fields": { "postcode": 34004,  "wilaya":   34, "name": "Mansoura" }},
    { "model": "base.commune",     "pk": 1168  ,"fields": { "postcode": 34005,  "wilaya":   34, "name": "El Mhir" }},
    { "model": "base.commune",     "pk": 1169  ,"fields": { "postcode": 34006,  "wilaya":   34, "name": "Ben Daoud" }},
    { "model": "base.commune",     "pk": 1170  ,"fields": { "postcode": 34007,  "wilaya":   34, "name": "El Achir" }},
    { "model": "base.commune",     "pk": 1171  ,"fields": { "postcode": 34008,  "wilaya":   34, "name": "Ain Taghrout" }},
    { "model": "base.commune",     "pk": 1172  ,"fields": { "postcode": 34009,  "wilaya":   34, "name": "Bordj Ghdir" }},
    { "model": "base.commune",     "pk": 1173  ,"fields": { "postcode": 34010,  "wilaya":   34, "name": "Sidi Embarek" }},
    { "model": "base.commune",     "pk": 1174  ,"fields": { "postcode": 34011,  "wilaya":   34, "name": "El Hamadia" }},
    { "model": "base.commune",     "pk": 1175  ,"fields": { "postcode": 34012,  "wilaya":   34, "name": "Belimour" }},
    { "model": "base.commune",     "pk": 1176  ,"fields": { "postcode": 34013,  "wilaya":   34, "name": "Medjana" }},
    { "model": "base.commune",     "pk": 1177  ,"fields": { "postcode": 34014,  "wilaya":   34, "name": "Teniet En Nasr" }},
    { "model": "base.commune",     "pk": 1178  ,"fields": { "postcode": 34015,  "wilaya":   34, "name": "Djaafra" }},
    { "model": "base.commune",     "pk": 1179  ,"fields": { "postcode": 34016,  "wilaya":   34, "name": "El Main" }},
    { "model": "base.commune",     "pk": 1180  ,"fields": { "postcode": 34017,  "wilaya":   34, "name": "Ouled Brahem" }},
    { "model": "base.commune",     "pk": 1181  ,"fields": { "postcode": 34018,  "wilaya":   34, "name": "Ouled Dahmane" }},
    { "model": "base.commune",     "pk": 1182  ,"fields": { "postcode": 34019,  "wilaya":   34, "name": "Hasnaoua" }},
    { "model": "base.commune",     "pk": 1183  ,"fields": { "postcode": 34020,  "wilaya":   34, "name": "Khelil" }},
    { "model": "base.commune",     "pk": 1184  ,"fields": { "postcode": 34021,  "wilaya":   34, "name": "Taglait" }},
    { "model": "base.commune",     "pk": 1185  ,"fields": { "postcode": 34022,  "wilaya":   34, "name": "Ksour" }},
    { "model": "base.commune",     "pk": 1186  ,"fields": { "postcode": 34023,  "wilaya":   34, "name": "Ouled Sidi Brahim" }},
    { "model": "base.commune",     "pk": 1187  ,"fields": { "postcode": 34024,  "wilaya":   34, "name": "Tafreg" }},
    { "model": "base.commune",     "pk": 1188  ,"fields": { "postcode": 34025,  "wilaya":   34, "name": "Colla" }},
    { "model": "base.commune",     "pk": 1189  ,"fields": { "postcode": 34026,  "wilaya":   34, "name": "Tixter" }},
    { "model": "base.commune",     "pk": 1190  ,"fields": { "postcode": 34027,  "wilaya":   34, "name": "El Ach" }},
    { "model": "base.commune",     "pk": 1191  ,"fields": { "postcode": 34028,  "wilaya":   34, "name": "El Anseur" }},
    { "model": "base.commune",     "pk": 1192  ,"fields": { "postcode": 34029,  "wilaya":   34, "name": "Tesmart" }},
    { "model": "base.commune",     "pk": 1193  ,"fields": { "postcode": 34030,  "wilaya":   34, "name": "Ain Tesra" }},
    { "model": "base.commune",     "pk": 1194  ,"fields": { "postcode": 34031,  "wilaya":   34, "name": "Bir Kasdali" }},
    { "model": "base.commune",     "pk": 1195  ,"fields": { "postcode": 34032,  "wilaya":   34, "name": "Ghilassa" }},
    { "model": "base.commune",     "pk": 1196  ,"fields": { "postcode": 34033,  "wilaya":   34, "name": "Rabta" }},
    { "model": "base.commune",     "pk": 1197  ,"fields": { "postcode": 34034,  "wilaya":   34, "name": "Haraza" }},
    { "model": "base.commune",     "pk": 1198  ,"fields": { "postcode": 35001,  "wilaya":   35, "name": "Boumerdes" }},
    { "model": "base.commune",     "pk": 1199  ,"fields": { "postcode": 35002,  "wilaya":   35, "name": "Boudouaou" }},
    { "model": "base.commune",     "pk": 1200  ,"fields": { "postcode": 35004,  "wilaya":   35, "name": "Afir" }},
    { "model": "base.commune",     "pk": 1201  ,"fields": { "postcode": 35005,  "wilaya":   35, "name": "Bordj Menaiel" }},
    { "model": "base.commune",     "pk": 1202  ,"fields": { "postcode": 35006,  "wilaya":   35, "name": "Baghlia" }},
    { "model": "base.commune",     "pk": 1203  ,"fields": { "postcode": 35007,  "wilaya":   35, "name": "Sidi Daoud" }},
    { "model": "base.commune",     "pk": 1204  ,"fields": { "postcode": 35008,  "wilaya":   35, "name": "Naciria" }},
    { "model": "base.commune",     "pk": 1205  ,"fields": { "postcode": 35009,  "wilaya":   35, "name": "Djinet" }},
    { "model": "base.commune",     "pk": 1206  ,"fields": { "postcode": 35010,  "wilaya":   35, "name": "Isser" }},
    { "model": "base.commune",     "pk": 1207  ,"fields": { "postcode": 35011,  "wilaya":   35, "name": "Zemmouri" }},
    { "model": "base.commune",     "pk": 1208  ,"fields": { "postcode": 35012,  "wilaya":   35, "name": "Si Mustapha" }},
    { "model": "base.commune",     "pk": 1209  ,"fields": { "postcode": 35013,  "wilaya":   35, "name": "Tidjelabine" }},
    { "model": "base.commune",     "pk": 1210  ,"fields": { "postcode": 35014,  "wilaya":   35, "name": "Chabet El Ameur" }},
    { "model": "base.commune",     "pk": 1211  ,"fields": { "postcode": 35015,  "wilaya":   35, "name": "Thenia" }},
    { "model": "base.commune",     "pk": 1212  ,"fields": { "postcode": 35018,  "wilaya":   35, "name": "Timezrit" }},
    { "model": "base.commune",     "pk": 1213  ,"fields": { "postcode": 35019,  "wilaya":   35, "name": "Corso" }},
    { "model": "base.commune",     "pk": 1214  ,"fields": { "postcode": 35020,  "wilaya":   35, "name": "Ouled Moussa" }},
    { "model": "base.commune",     "pk": 1215  ,"fields": { "postcode": 35021,  "wilaya":   35, "name": "Larbatache" }},
    { "model": "base.commune",     "pk": 1216  ,"fields": { "postcode": 35022,  "wilaya":   35, "name": "Bouzegza Keddara" }},
    { "model": "base.commune",     "pk": 1217  ,"fields": { "postcode": 35025,  "wilaya":   35, "name": "Taourga" }},
    { "model": "base.commune",     "pk": 1218  ,"fields": { "postcode": 35026,  "wilaya":   35, "name": "Ouled Aissa" }},
    { "model": "base.commune",     "pk": 1219  ,"fields": { "postcode": 35027,  "wilaya":   35, "name": "Ben Choud" }},
    { "model": "base.commune",     "pk": 1220  ,"fields": { "postcode": 35028,  "wilaya":   35, "name": "Dellys" }},
    { "model": "base.commune",     "pk": 1221  ,"fields": { "postcode": 35029,  "wilaya":   35, "name": "Ammal" }},
    { "model": "base.commune",     "pk": 1222  ,"fields": { "postcode": 35030,  "wilaya":   35, "name": "Beni Amrane" }},
    { "model": "base.commune",     "pk": 1223  ,"fields": { "postcode": 35031,  "wilaya":   35, "name": "Souk El Had" }},
    { "model": "base.commune",     "pk": 1224  ,"fields": { "postcode": 35032,  "wilaya":   35, "name": "Boudouaou El Bahri" }},
    { "model": "base.commune",     "pk": 1225  ,"fields": { "postcode": 35033,  "wilaya":   35, "name": "Ouled Hedadj" }},
    { "model": "base.commune",     "pk": 1226  ,"fields": { "postcode": 35035,  "wilaya":   35, "name": "Laghata" }},
    { "model": "base.commune",     "pk": 1227  ,"fields": { "postcode": 35036,  "wilaya":   35, "name": "Hemmadi" }},
    { "model": "base.commune",     "pk": 1228  ,"fields": { "postcode": 35037,  "wilaya":   35, "name": "Khemis El Khechna" }},
    { "model": "base.commune",     "pk": 1229  ,"fields": { "postcode": 35038,  "wilaya":   35, "name": "El Kharrouba" }},
    { "model": "base.commune",     "pk": 1230  ,"fields": { "postcode": 36001,  "wilaya":   36, "name": "El Tarf" }},
    { "model": "base.commune",     "pk": 1231  ,"fields": { "postcode": 36002,  "wilaya":   36, "name": "Bouhadjar" }},
    { "model": "base.commune",     "pk": 1232  ,"fields": { "postcode": 36003,  "wilaya":   36, "name": "Ben Mhidi" }},
    { "model": "base.commune",     "pk": 1233  ,"fields": { "postcode": 36004,  "wilaya":   36, "name": "Bougous" }},
    { "model": "base.commune",     "pk": 1234  ,"fields": { "postcode": 36005,  "wilaya":   36, "name": "El Kala" }},
    { "model": "base.commune",     "pk": 1235  ,"fields": { "postcode": 36006,  "wilaya":   36, "name": "Ain El Assel" }},
    { "model": "base.commune",     "pk": 1236  ,"fields": { "postcode": 36007,  "wilaya":   36, "name": "El Aioun" }},
    { "model": "base.commune",     "pk": 1237  ,"fields": { "postcode": 36008,  "wilaya":   36, "name": "Bouteldja" }},
    { "model": "base.commune",     "pk": 1238  ,"fields": { "postcode": 36009,  "wilaya":   36, "name": "Souarekh" }},
    { "model": "base.commune",     "pk": 1239  ,"fields": { "postcode": 36010,  "wilaya":   36, "name": "Berrihane" }},
    { "model": "base.commune",     "pk": 1240  ,"fields": { "postcode": 36011,  "wilaya":   36, "name": "Lac Des Oiseaux" }},
    { "model": "base.commune",     "pk": 1241  ,"fields": { "postcode": 36012,  "wilaya":   36, "name": "Chefia" }},
    { "model": "base.commune",     "pk": 1242  ,"fields": { "postcode": 36013,  "wilaya":   36, "name": "Drean" }},
    { "model": "base.commune",     "pk": 1243  ,"fields": { "postcode": 36014,  "wilaya":   36, "name": "Chihani" }},
    { "model": "base.commune",     "pk": 1244  ,"fields": { "postcode": 36015,  "wilaya":   36, "name": "Chebaita Mokhtar" }},
    { "model": "base.commune",     "pk": 1245  ,"fields": { "postcode": 36016,  "wilaya":   36, "name": "Besbes" }},
    { "model": "base.commune",     "pk": 1246  ,"fields": { "postcode": 36017,  "wilaya":   36, "name": "Asfour" }},
    { "model": "base.commune",     "pk": 1247  ,"fields": { "postcode": 36018,  "wilaya":   36, "name": "Echatt" }},
    { "model": "base.commune",     "pk": 1248  ,"fields": { "postcode": 36019,  "wilaya":   36, "name": "Zerizer" }},
    { "model": "base.commune",     "pk": 1249  ,"fields": { "postcode": 36020,  "wilaya":   36, "name": "Zitouna" }},
    { "model": "base.commune",     "pk": 1250  ,"fields": { "postcode": 36021,  "wilaya":   36, "name": "Ain Kerma" }},
    { "model": "base.commune",     "pk": 1251  ,"fields": { "postcode": 36022,  "wilaya":   36, "name": "Oued Zitoun" }},
    { "model": "base.commune",     "pk": 1252  ,"fields": { "postcode": 36023,  "wilaya":   36, "name": "Hammam Beni Salah" }},
    { "model": "base.commune",     "pk": 1253  ,"fields": { "postcode": 36024,  "wilaya":   36, "name": "Raml Souk" }},
    { "model": "base.commune",     "pk": 1254  ,"fields": { "postcode": 37001,  "wilaya":   37, "name": "Tindouf" }},
    { "model": "base.commune",     "pk": 1255  ,"fields": { "postcode": 37002,  "wilaya":   37, "name": "Oum El Assel" }},
    { "model": "base.commune",     "pk": 1256  ,"fields": { "postcode": 38001,  "wilaya":   38, "name": "Tissemsilt" }},
    { "model": "base.commune",     "pk": 1257  ,"fields": { "postcode": 38002,  "wilaya":   38, "name": "Bordj Bou Naama" }},
    { "model": "base.commune",     "pk": 1258  ,"fields": { "postcode": 38003,  "wilaya":   38, "name": "Theniet El Had" }},
    { "model": "base.commune",     "pk": 1259  ,"fields": { "postcode": 38004,  "wilaya":   38, "name": "Lazharia" }},
    { "model": "base.commune",     "pk": 1260  ,"fields": { "postcode": 38005,  "wilaya":   38, "name": "Beni Chaib" }},
    { "model": "base.commune",     "pk": 1261  ,"fields": { "postcode": 38006,  "wilaya":   38, "name": "Lardjem" }},
    { "model": "base.commune",     "pk": 1262  ,"fields": { "postcode": 38007,  "wilaya":   38, "name": "Melaab" }},
    { "model": "base.commune",     "pk": 1263  ,"fields": { "postcode": 38008,  "wilaya":   38, "name": "Sidi Lantri" }},
    { "model": "base.commune",     "pk": 1264  ,"fields": { "postcode": 38009,  "wilaya":   38, "name": "Bordj El Emir Abdelkader" }},
    { "model": "base.commune",     "pk": 1265  ,"fields": { "postcode": 38010,  "wilaya":   38, "name": "Layoune" }},
    { "model": "base.commune",     "pk": 1266  ,"fields": { "postcode": 38011,  "wilaya":   38, "name": "Khemisti" }},
    { "model": "base.commune",     "pk": 1267  ,"fields": { "postcode": 38012,  "wilaya":   38, "name": "Ouled Bessem" }},
    { "model": "base.commune",     "pk": 1268  ,"fields": { "postcode": 38013,  "wilaya":   38, "name": "Ammari" }},
    { "model": "base.commune",     "pk": 1269  ,"fields": { "postcode": 38014,  "wilaya":   38, "name": "Youssoufia" }},
    { "model": "base.commune",     "pk": 1270  ,"fields": { "postcode": 38015,  "wilaya":   38, "name": "Sidi Boutouchent" }},
    { "model": "base.commune",     "pk": 1271  ,"fields": { "postcode": 38016,  "wilaya":   38, "name": "Larbaa" }},
    { "model": "base.commune",     "pk": 1272  ,"fields": { "postcode": 38017,  "wilaya":   38, "name": "Maasem" }},
    { "model": "base.commune",     "pk": 1273  ,"fields": { "postcode": 38018,  "wilaya":   38, "name": "Sidi Abed" }},
    { "model": "base.commune",     "pk": 1274  ,"fields": { "postcode": 38019,  "wilaya":   38, "name": "Tamalaht" }},
    { "model": "base.commune",     "pk": 1275  ,"fields": { "postcode": 38020,  "wilaya":   38, "name": "Sidi Slimane" }},
    { "model": "base.commune",     "pk": 1276  ,"fields": { "postcode": 38021,  "wilaya":   38, "name": "Boucaid" }},
    { "model": "base.commune",     "pk": 1277  ,"fields": { "postcode": 38022,  "wilaya":   38, "name": "Beni Lahcene" }},
    { "model": "base.commune",     "pk": 1278  ,"fields": { "postcode": 39001,  "wilaya":   39, "name": "El Oued" }},
    { "model": "base.commune",     "pk": 1279  ,"fields": { "postcode": 39002,  "wilaya":   39, "name": "Robbah" }},
    { "model": "base.commune",     "pk": 1280  ,"fields": { "postcode": 39003,  "wilaya":   39, "name": "Oued El Alenda" }},
    { "model": "base.commune",     "pk": 1281  ,"fields": { "postcode": 39004,  "wilaya":   39, "name": "Bayadha" }},
    { "model": "base.commune",     "pk": 1282  ,"fields": { "postcode": 39005,  "wilaya":   39, "name": "Nakhla" }},
    { "model": "base.commune",     "pk": 1283  ,"fields": { "postcode": 39006,  "wilaya":   39, "name": "Guemar" }},
    { "model": "base.commune",     "pk": 1284  ,"fields": { "postcode": 39007,  "wilaya":   39, "name": "Kouinine" }},
    { "model": "base.commune",     "pk": 1285  ,"fields": { "postcode": 39008,  "wilaya":   39, "name": "Reguiba" }},
    { "model": "base.commune",     "pk": 1286  ,"fields": { "postcode": 39009,  "wilaya":   39, "name": "Hamraia" }},
    { "model": "base.commune",     "pk": 1287  ,"fields": { "postcode": 39010,  "wilaya":   39, "name": "Taghzout" }},
    { "model": "base.commune",     "pk": 1288  ,"fields": { "postcode": 39011,  "wilaya":   39, "name": "Debila" }},
    { "model": "base.commune",     "pk": 1289  ,"fields": { "postcode": 39012,  "wilaya":   39, "name": "Hassani Abdelkrim" }},
    { "model": "base.commune",     "pk": 1290  ,"fields": { "postcode": 39013,  "wilaya":   39, "name": "Hassi Khelifa" }},
    { "model": "base.commune",     "pk": 1291  ,"fields": { "postcode": 39014,  "wilaya":   39, "name": "Taleb Larbi" }},
    { "model": "base.commune",     "pk": 1292  ,"fields": { "postcode": 39015,  "wilaya":   39, "name": "Douar El Ma" }},
    { "model": "base.commune",     "pk": 1293  ,"fields": { "postcode": 39016,  "wilaya":   39, "name": "Sidi Aoun" }},
    { "model": "base.commune",     "pk": 1294  ,"fields": { "postcode": 39017,  "wilaya":   39, "name": "Trifaoui" }},
    { "model": "base.commune",     "pk": 1295  ,"fields": { "postcode": 39018,  "wilaya":   39, "name": "Magrane" }},
    { "model": "base.commune",     "pk": 1296  ,"fields": { "postcode": 39019,  "wilaya":   39, "name": "Beni Guecha" }},
    { "model": "base.commune",     "pk": 1297  ,"fields": { "postcode": 39020,  "wilaya":   39, "name": "Ourmas" }},
    { "model": "base.commune",     "pk": 1298  ,"fields": { "postcode": 39021,  "wilaya":   39, "name": "Still" }},
    { "model": "base.commune",     "pk": 1299  ,"fields": { "postcode": 39022,  "wilaya":   39, "name": "Mrara" }},
    { "model": "base.commune",     "pk": 1300  ,"fields": { "postcode": 39023,  "wilaya":   39, "name": "Sidi Khellil" }},
    { "model": "base.commune",     "pk": 1301  ,"fields": { "postcode": 39024,  "wilaya":   39, "name": "Tendla" }},
    { "model": "base.commune",     "pk": 1302  ,"fields": { "postcode": 39025,  "wilaya":   39, "name": "El Ogla" }},
    { "model": "base.commune",     "pk": 1303  ,"fields": { "postcode": 39026,  "wilaya":   39, "name": "Mih Ouansa" }},
    { "model": "base.commune",     "pk": 1304  ,"fields": { "postcode": 39027,  "wilaya":   39, "name": "El Mghair" }},
    { "model": "base.commune",     "pk": 1305  ,"fields": { "postcode": 39028,  "wilaya":   39, "name": "Djamaa" }},
    { "model": "base.commune",     "pk": 1306  ,"fields": { "postcode": 39029,  "wilaya":   39, "name": "Oum Touyour" }},
    { "model": "base.commune",     "pk": 1307  ,"fields": { "postcode": 39030,  "wilaya":   39, "name": "Sidi Amrane" }},
    { "model": "base.commune",     "pk": 1308  ,"fields": { "postcode": 40001,  "wilaya":   40, "name": "Khenchela" }},
    { "model": "base.commune",     "pk": 1309  ,"fields": { "postcode": 40002,  "wilaya":   40, "name": "Mtoussa" }},
    { "model": "base.commune",     "pk": 1310  ,"fields": { "postcode": 40003,  "wilaya":   40, "name": "Kais" }},
    { "model": "base.commune",     "pk": 1311  ,"fields": { "postcode": 40004,  "wilaya":   40, "name": "Baghai" }},
    { "model": "base.commune",     "pk": 1312  ,"fields": { "postcode": 40005,  "wilaya":   40, "name": "El Hamma" }},
    { "model": "base.commune",     "pk": 1313  ,"fields": { "postcode": 40006,  "wilaya":   40, "name": "Ain Touila" }},
    { "model": "base.commune",     "pk": 1314  ,"fields": { "postcode": 40007,  "wilaya":   40, "name": "Taouzianat" }},
    { "model": "base.commune",     "pk": 1315  ,"fields": { "postcode": 40008,  "wilaya":   40, "name": "Bouhmama" }},
    { "model": "base.commune",     "pk": 1316  ,"fields": { "postcode": 40009,  "wilaya":   40, "name": "El Oueldja" }},
    { "model": "base.commune",     "pk": 1317  ,"fields": { "postcode": 40010,  "wilaya":   40, "name": "Remila" }},
    { "model": "base.commune",     "pk": 1318  ,"fields": { "postcode": 40011,  "wilaya":   40, "name": "Cherchar" }},
    { "model": "base.commune",     "pk": 1319  ,"fields": { "postcode": 40012,  "wilaya":   40, "name": "Djellal" }},
    { "model": "base.commune",     "pk": 1320  ,"fields": { "postcode": 40013,  "wilaya":   40, "name": "Babar" }},
    { "model": "base.commune",     "pk": 1321  ,"fields": { "postcode": 40014,  "wilaya":   40, "name": "Tamza" }},
    { "model": "base.commune",     "pk": 1322  ,"fields": { "postcode": 40015,  "wilaya":   40, "name": "Ensigha" }},
    { "model": "base.commune",     "pk": 1323  ,"fields": { "postcode": 40016,  "wilaya":   40, "name": "Ouled Rechache" }},
    { "model": "base.commune",     "pk": 1324  ,"fields": { "postcode": 40017,  "wilaya":   40, "name": "El Mahmal" }},
    { "model": "base.commune",     "pk": 1325  ,"fields": { "postcode": 40018,  "wilaya":   40, "name": "Msara" }},
    { "model": "base.commune",     "pk": 1326  ,"fields": { "postcode": 40019,  "wilaya":   40, "name": "Yabous" }},
    { "model": "base.commune",     "pk": 1327  ,"fields": { "postcode": 40020,  "wilaya":   40, "name": "Khirane" }},
    { "model": "base.commune",     "pk": 1328  ,"fields": { "postcode": 40021,  "wilaya":   40, "name": "Chelia" }},
    { "model": "base.commune",     "pk": 1329  ,"fields": { "postcode": 41001,  "wilaya":   41, "name": "Souk Ahras" }},
    { "model": "base.commune",     "pk": 1330  ,"fields": { "postcode": 41002,  "wilaya":   41, "name": "Sedrata" }},
    { "model": "base.commune",     "pk": 1331  ,"fields": { "postcode": 41003,  "wilaya":   41, "name": "Hanancha" }},
    { "model": "base.commune",     "pk": 1332  ,"fields": { "postcode": 41004,  "wilaya":   41, "name": "Mechroha" }},
    { "model": "base.commune",     "pk": 1333  ,"fields": { "postcode": 41005,  "wilaya":   41, "name": "Ouled Driss" }},
    { "model": "base.commune",     "pk": 1334  ,"fields": { "postcode": 41006,  "wilaya":   41, "name": "Tiffech" }},
    { "model": "base.commune",     "pk": 1335  ,"fields": { "postcode": 41007,  "wilaya":   41, "name": "Zaarouria" }},
    { "model": "base.commune",     "pk": 1336  ,"fields": { "postcode": 41008,  "wilaya":   41, "name": "Taoura" }},
    { "model": "base.commune",     "pk": 1337  ,"fields": { "postcode": 41009,  "wilaya":   41, "name": "Drea" }},
    { "model": "base.commune",     "pk": 1338  ,"fields": { "postcode": 41010,  "wilaya":   41, "name": "Haddada" }},
    { "model": "base.commune",     "pk": 1339  ,"fields": { "postcode": 41011,  "wilaya":   41, "name": "Khedara" }},
    { "model": "base.commune",     "pk": 1340  ,"fields": { "postcode": 41012,  "wilaya":   41, "name": "Merahna" }},
    { "model": "base.commune",     "pk": 1341  ,"fields": { "postcode": 41013,  "wilaya":   41, "name": "Ouled Moumen" }},
    { "model": "base.commune",     "pk": 1342  ,"fields": { "postcode": 41014,  "wilaya":   41, "name": "Bir Bouhouche" }},
    { "model": "base.commune",     "pk": 1343  ,"fields": { "postcode": 41015,  "wilaya":   41, "name": "Mdaourouche" }},
    { "model": "base.commune",     "pk": 1344  ,"fields": { "postcode": 41016,  "wilaya":   41, "name": "Oum El Adhaim" }},
    { "model": "base.commune",     "pk": 1345  ,"fields": { "postcode": 41017,  "wilaya":   41, "name": "Ain Zana" }},
    { "model": "base.commune",     "pk": 1346  ,"fields": { "postcode": 41018,  "wilaya":   41, "name": "Ain Soltane" }},
    { "model": "base.commune",     "pk": 1347  ,"fields": { "postcode": 41019,  "wilaya":   41, "name": "Quillen" }},
    { "model": "base.commune",     "pk": 1348  ,"fields": { "postcode": 41020,  "wilaya":   41, "name": "Sidi Fredj" }},
    { "model": "base.commune",     "pk": 1349  ,"fields": { "postcode": 41021,  "wilaya":   41, "name": "Safel El Ouiden" }},
    { "model": "base.commune",     "pk": 1350  ,"fields": { "postcode": 41022,  "wilaya":   41, "name": "Ragouba" }},
    { "model": "base.commune",     "pk": 1351  ,"fields": { "postcode": 41023,  "wilaya":   41, "name": "Khemissa" }},
    { "model": "base.commune",     "pk": 1352  ,"fields": { "postcode": 41024,  "wilaya":   41, "name": "Oued Keberit" }},
    { "model": "base.commune",     "pk": 1353  ,"fields": { "postcode": 41025,  "wilaya":   41, "name": "Terraguelt" }},
    { "model": "base.commune",     "pk": 1354  ,"fields": { "postcode": 41026,  "wilaya":   41, "name": "Zouabi" }},
    { "model": "base.commune",     "pk": 1355  ,"fields": { "postcode": 42001,  "wilaya":   42, "name": "Tipaza" }},
    { "model": "base.commune",     "pk": 1356  ,"fields": { "postcode": 42002,  "wilaya":   42, "name": "Menaceur" }},
    { "model": "base.commune",     "pk": 1357  ,"fields": { "postcode": 42003,  "wilaya":   42, "name": "Larhat" }},
    { "model": "base.commune",     "pk": 1358  ,"fields": { "postcode": 42004,  "wilaya":   42, "name": "Douaouda" }},
    { "model": "base.commune",     "pk": 1359  ,"fields": { "postcode": 42005,  "wilaya":   42, "name": "Bourkika" }},
    { "model": "base.commune",     "pk": 1360  ,"fields": { "postcode": 42006,  "wilaya":   42, "name": "Khemisti" }},
    { "model": "base.commune",     "pk": 1361  ,"fields": { "postcode": 42010,  "wilaya":   42, "name": "Aghabal" }},
    { "model": "base.commune",     "pk": 1362  ,"fields": { "postcode": 42012,  "wilaya":   42, "name": "Hadjout" }},
    { "model": "base.commune",     "pk": 1363  ,"fields": { "postcode": 42013,  "wilaya":   42, "name": "Sidi Amar" }},
    { "model": "base.commune",     "pk": 1364  ,"fields": { "postcode": 42014,  "wilaya":   42, "name": "Gouraya" }},
    { "model": "base.commune",     "pk": 1365  ,"fields": { "postcode": 42015,  "wilaya":   42, "name": "Nodor" }},
    { "model": "base.commune",     "pk": 1366  ,"fields": { "postcode": 42016,  "wilaya":   42, "name": "Chaiba" }},
    { "model": "base.commune",     "pk": 1367  ,"fields": { "postcode": 42017,  "wilaya":   42, "name": "Ain Tagourait" }},
    { "model": "base.commune",     "pk": 1368  ,"fields": { "postcode": 42022,  "wilaya":   42, "name": "Cherchel" }},
    { "model": "base.commune",     "pk": 1369  ,"fields": { "postcode": 42023,  "wilaya":   42, "name": "Damous" }},
    { "model": "base.commune",     "pk": 1370  ,"fields": { "postcode": 42024,  "wilaya":   42, "name": "Meurad" }},
    { "model": "base.commune",     "pk": 1371  ,"fields": { "postcode": 42025,  "wilaya":   42, "name": "Fouka" }},
    { "model": "base.commune",     "pk": 1372  ,"fields": { "postcode": 42026,  "wilaya":   42, "name": "Bou Ismail" }},
    { "model": "base.commune",     "pk": 1373  ,"fields": { "postcode": 42027,  "wilaya":   42, "name": "Ahmer El Ain" }},
    { "model": "base.commune",     "pk": 1374  ,"fields": { "postcode": 42030,  "wilaya":   42, "name": "Bou Haroun" }},
    { "model": "base.commune",     "pk": 1375  ,"fields": { "postcode": 42032,  "wilaya":   42, "name": "Sidi Ghiles" }},
    { "model": "base.commune",     "pk": 1376  ,"fields": { "postcode": 42033,  "wilaya":   42, "name": "Messelmoun" }},
    { "model": "base.commune",     "pk": 1377  ,"fields": { "postcode": 42034,  "wilaya":   42, "name": "Sidi Rached" }},
    { "model": "base.commune",     "pk": 1378  ,"fields": { "postcode": 42035,  "wilaya":   42, "name": "Kolea" }},
    { "model": "base.commune",     "pk": 1379  ,"fields": { "postcode": 42036,  "wilaya":   42, "name": "Attatba" }},
    { "model": "base.commune",     "pk": 1380  ,"fields": { "postcode": 42040,  "wilaya":   42, "name": "Sidi Semiane" }},
    { "model": "base.commune",     "pk": 1381  ,"fields": { "postcode": 42041,  "wilaya":   42, "name": "Beni Milleuk" }},
    { "model": "base.commune",     "pk": 1382  ,"fields": { "postcode": 42042,  "wilaya":   42, "name": "Hadjerat Ennous" }},
    { "model": "base.commune",     "pk": 1383  ,"fields": { "postcode": 43001,  "wilaya":   43, "name": "Mila" }},
    { "model": "base.commune",     "pk": 1384  ,"fields": { "postcode": 43002,  "wilaya":   43, "name": "Ferdjioua" }},
    { "model": "base.commune",     "pk": 1385  ,"fields": { "postcode": 43003,  "wilaya":   43, "name": "Chelghoum Laid" }},
    { "model": "base.commune",     "pk": 1386  ,"fields": { "postcode": 43004,  "wilaya":   43, "name": "Oued Athmenia" }},
    { "model": "base.commune",     "pk": 1387  ,"fields": { "postcode": 43005,  "wilaya":   43, "name": "Ain Mellouk" }},
    { "model": "base.commune",     "pk": 1388  ,"fields": { "postcode": 43006,  "wilaya":   43, "name": "Telerghma" }},
    { "model": "base.commune",     "pk": 1389  ,"fields": { "postcode": 43007,  "wilaya":   43, "name": "Oued Seguen" }},
    { "model": "base.commune",     "pk": 1390  ,"fields": { "postcode": 43008,  "wilaya":   43, "name": "Tadjenanet" }},
    { "model": "base.commune",     "pk": 1391  ,"fields": { "postcode": 43009,  "wilaya":   43, "name": "Benyahia Abderrahmane" }},
    { "model": "base.commune",     "pk": 1392  ,"fields": { "postcode": 43010,  "wilaya":   43, "name": "Oued Endja" }},
    { "model": "base.commune",     "pk": 1393  ,"fields": { "postcode": 43011,  "wilaya":   43, "name": "Ahmed Rachedi" }},
    { "model": "base.commune",     "pk": 1394  ,"fields": { "postcode": 43012,  "wilaya":   43, "name": "Ouled Khalouf" }},
    { "model": "base.commune",     "pk": 1395  ,"fields": { "postcode": 43013,  "wilaya":   43, "name": "Tiberguent" }},
    { "model": "base.commune",     "pk": 1396  ,"fields": { "postcode": 43014,  "wilaya":   43, "name": "Bouhatem" }},
    { "model": "base.commune",     "pk": 1397  ,"fields": { "postcode": 43015,  "wilaya":   43, "name": "Rouached" }},
    { "model": "base.commune",     "pk": 1398  ,"fields": { "postcode": 43016,  "wilaya":   43, "name": "Tessala Lamatai" }},
    { "model": "base.commune",     "pk": 1399  ,"fields": { "postcode": 43017,  "wilaya":   43, "name": "Grarem Gouga" }},
    { "model": "base.commune",     "pk": 1400  ,"fields": { "postcode": 43018,  "wilaya":   43, "name": "Sidi Merouane" }},
    { "model": "base.commune",     "pk": 1401  ,"fields": { "postcode": 43019,  "wilaya":   43, "name": "Tassadane Haddada" }},
    { "model": "base.commune",     "pk": 1402  ,"fields": { "postcode": 43020,  "wilaya":   43, "name": "Derradji Bousselah" }},
    { "model": "base.commune",     "pk": 1403  ,"fields": { "postcode": 43021,  "wilaya":   43, "name": "Minar Zarza" }},
    { "model": "base.commune",     "pk": 1404  ,"fields": { "postcode": 43022,  "wilaya":   43, "name": "Amira Arras" }},
    { "model": "base.commune",     "pk": 1405  ,"fields": { "postcode": 43023,  "wilaya":   43, "name": "Terrai Bainen" }},
    { "model": "base.commune",     "pk": 1406  ,"fields": { "postcode": 43024,  "wilaya":   43, "name": "Hamala" }},
    { "model": "base.commune",     "pk": 1407  ,"fields": { "postcode": 43025,  "wilaya":   43, "name": "Ain Tine" }},
    { "model": "base.commune",     "pk": 1408  ,"fields": { "postcode": 43026,  "wilaya":   43, "name": "El Mechira" }},
    { "model": "base.commune",     "pk": 1409  ,"fields": { "postcode": 43027,  "wilaya":   43, "name": "Sidi Khelifa" }},
    { "model": "base.commune",     "pk": 1410  ,"fields": { "postcode": 43028,  "wilaya":   43, "name": "Zeghaia" }},
    { "model": "base.commune",     "pk": 1411  ,"fields": { "postcode": 43029,  "wilaya":   43, "name": "Elayadi Barbes" }},
    { "model": "base.commune",     "pk": 1412  ,"fields": { "postcode": 43030,  "wilaya":   43, "name": "Ain Beida Harriche" }},
    { "model": "base.commune",     "pk": 1413  ,"fields": { "postcode": 43031,  "wilaya":   43, "name": "Yahia Beniguecha" }},
    { "model": "base.commune",     "pk": 1414  ,"fields": { "postcode": 43032,  "wilaya":   43, "name": "Chigara" }},
    { "model": "base.commune",     "pk": 1415  ,"fields": { "postcode": 44001,  "wilaya":   44, "name": "Ain Defla" }},
    { "model": "base.commune",     "pk": 1416  ,"fields": { "postcode": 44002,  "wilaya":   44, "name": "Miliana" }},
    { "model": "base.commune",     "pk": 1417  ,"fields": { "postcode": 44003,  "wilaya":   44, "name": "Boumedfaa" }},
    { "model": "base.commune",     "pk": 1418  ,"fields": { "postcode": 44004,  "wilaya":   44, "name": "Khemis Miliana" }},
    { "model": "base.commune",     "pk": 1419  ,"fields": { "postcode": 44005,  "wilaya":   44, "name": "Hammam Righa" }},
    { "model": "base.commune",     "pk": 1420  ,"fields": { "postcode": 44006,  "wilaya":   44, "name": "Arib" }},
    { "model": "base.commune",     "pk": 1421  ,"fields": { "postcode": 44007,  "wilaya":   44, "name": "Djelida" }},
    { "model": "base.commune",     "pk": 1422  ,"fields": { "postcode": 44008,  "wilaya":   44, "name": "El Amra" }},
    { "model": "base.commune",     "pk": 1423  ,"fields": { "postcode": 44009,  "wilaya":   44, "name": "Bourached" }},
    { "model": "base.commune",     "pk": 1424  ,"fields": { "postcode": 44010,  "wilaya":   44, "name": "El Attaf" }},
    { "model": "base.commune",     "pk": 1425  ,"fields": { "postcode": 44011,  "wilaya":   44, "name": "El Abadia" }},
    { "model": "base.commune",     "pk": 1426  ,"fields": { "postcode": 44012,  "wilaya":   44, "name": "Djendel" }},
    { "model": "base.commune",     "pk": 1427  ,"fields": { "postcode": 44013,  "wilaya":   44, "name": "Oued Chorfa" }},
    { "model": "base.commune",     "pk": 1428  ,"fields": { "postcode": 44014,  "wilaya":   44, "name": "Ain Lechiakh" }},
    { "model": "base.commune",     "pk": 1429  ,"fields": { "postcode": 44015,  "wilaya":   44, "name": "Oued Djemaa" }},
    { "model": "base.commune",     "pk": 1430  ,"fields": { "postcode": 44016,  "wilaya":   44, "name": "Rouina" }},
    { "model": "base.commune",     "pk": 1431  ,"fields": { "postcode": 44017,  "wilaya":   44, "name": "Zeddine" }},
    { "model": "base.commune",     "pk": 1432  ,"fields": { "postcode": 44018,  "wilaya":   44, "name": "El Hassania" }},
    { "model": "base.commune",     "pk": 1433  ,"fields": { "postcode": 44019,  "wilaya":   44, "name": "Bir Ouled Khelifa" }},
    { "model": "base.commune",     "pk": 1434  ,"fields": { "postcode": 44020,  "wilaya":   44, "name": "Ain Soltane" }},
    { "model": "base.commune",     "pk": 1435  ,"fields": { "postcode": 44021,  "wilaya":   44, "name": "Tarik Ibn Ziad" }},
    { "model": "base.commune",     "pk": 1436  ,"fields": { "postcode": 44022,  "wilaya":   44, "name": "Bordj Emir Khaled" }},
    { "model": "base.commune",     "pk": 1437  ,"fields": { "postcode": 44023,  "wilaya":   44, "name": "Ain Torki" }},
    { "model": "base.commune",     "pk": 1438  ,"fields": { "postcode": 44024,  "wilaya":   44, "name": "Sidi Lakhdar" }},
    { "model": "base.commune",     "pk": 1439  ,"fields": { "postcode": 44025,  "wilaya":   44, "name": "Ben Allal" }},
    { "model": "base.commune",     "pk": 1440  ,"fields": { "postcode": 44026,  "wilaya":   44, "name": "Ain Benian" }},
    { "model": "base.commune",     "pk": 1441  ,"fields": { "postcode": 44027,  "wilaya":   44, "name": "Hoceinia" }},
    { "model": "base.commune",     "pk": 1442  ,"fields": { "postcode": 44028,  "wilaya":   44, "name": "Barbouche" }},
    { "model": "base.commune",     "pk": 1443  ,"fields": { "postcode": 44029,  "wilaya":   44, "name": "Djemaa Ouled Chikh" }},
    { "model": "base.commune",     "pk": 1444  ,"fields": { "postcode": 44030,  "wilaya":   44, "name": "Mekhatria" }},
    { "model": "base.commune",     "pk": 1445  ,"fields": { "postcode": 44031,  "wilaya":   44, "name": "Bathia" }},
    { "model": "base.commune",     "pk": 1446  ,"fields": { "postcode": 44032,  "wilaya":   44, "name": "Tachta Zegagha" }},
    { "model": "base.commune",     "pk": 1447  ,"fields": { "postcode": 44033,  "wilaya":   44, "name": "Ain Bouyahia" }},
    { "model": "base.commune",     "pk": 1448  ,"fields": { "postcode": 44034,  "wilaya":   44, "name": "El Maine" }},
    { "model": "base.commune",     "pk": 1449  ,"fields": { "postcode": 44035,  "wilaya":   44, "name": "Tiberkanine" }},
    { "model": "base.commune",     "pk": 1450  ,"fields": { "postcode": 44036,  "wilaya":   44, "name": "Belaas" }},
    { "model": "base.commune",     "pk": 1451  ,"fields": { "postcode": 45001,  "wilaya":   45, "name": "Naama" }},
    { "model": "base.commune",     "pk": 1452  ,"fields": { "postcode": 45002,  "wilaya":   45, "name": "Mechria" }},
    { "model": "base.commune",     "pk": 1453  ,"fields": { "postcode": 45003,  "wilaya":   45, "name": "Ain Sefra" }},
    { "model": "base.commune",     "pk": 1454  ,"fields": { "postcode": 45004,  "wilaya":   45, "name": "Tiout" }},
    { "model": "base.commune",     "pk": 1455  ,"fields": { "postcode": 45005,  "wilaya":   45, "name": "Sfissifa" }},
    { "model": "base.commune",     "pk": 1456  ,"fields": { "postcode": 45006,  "wilaya":   45, "name": "Moghrar" }},
    { "model": "base.commune",     "pk": 1457  ,"fields": { "postcode": 45007,  "wilaya":   45, "name": "Assela" }},
    { "model": "base.commune",     "pk": 1458  ,"fields": { "postcode": 45008,  "wilaya":   45, "name": "Djeniane Bourzeg" }},
    { "model": "base.commune",     "pk": 1459  ,"fields": { "postcode": 45009,  "wilaya":   45, "name": "Ain Ben Khelil" }},
    { "model": "base.commune",     "pk": 1460  ,"fields": { "postcode": 45010,  "wilaya":   45, "name": "Makman Ben Amer" }},
    { "model": "base.commune",     "pk": 1461  ,"fields": { "postcode": 45011,  "wilaya":   45, "name": "Kasdir" }},
    { "model": "base.commune",     "pk": 1462  ,"fields": { "postcode": 45012,  "wilaya":   45, "name": "El Biod" }},
    { "model": "base.commune",     "pk": 1463  ,"fields": { "postcode": 46001,  "wilaya":   46, "name": "Ain Temouchent" }},
    { "model": "base.commune",     "pk": 1464  ,"fields": { "postcode": 46002,  "wilaya":   46, "name": "Chaabet El Ham" }},
    { "model": "base.commune",     "pk": 1465  ,"fields": { "postcode": 46003,  "wilaya":   46, "name": "Ain Kihal" }},
    { "model": "base.commune",     "pk": 1466  ,"fields": { "postcode": 46004,  "wilaya":   46, "name": "Hammam Bouhadjar" }},
    { "model": "base.commune",     "pk": 1467  ,"fields": { "postcode": 46005,  "wilaya":   46, "name": "Bou Zedjar" }},
    { "model": "base.commune",     "pk": 1468  ,"fields": { "postcode": 46006,  "wilaya":   46, "name": "Oued Berkeche" }},
    { "model": "base.commune",     "pk": 1469  ,"fields": { "postcode": 46007,  "wilaya":   46, "name": "Aghlal" }},
    { "model": "base.commune",     "pk": 1470  ,"fields": { "postcode": 46008,  "wilaya":   46, "name": "Terga" }},
    { "model": "base.commune",     "pk": 1471  ,"fields": { "postcode": 46009,  "wilaya":   46, "name": "Ain El Arbaa" }},
    { "model": "base.commune",     "pk": 1472  ,"fields": { "postcode": 46010,  "wilaya":   46, "name": "Tamzoura" }},
    { "model": "base.commune",     "pk": 1473  ,"fields": { "postcode": 46011,  "wilaya":   46, "name": "Chentouf" }},
    { "model": "base.commune",     "pk": 1474  ,"fields": { "postcode": 46012,  "wilaya":   46, "name": "Sidi Ben Adda" }},
    { "model": "base.commune",     "pk": 1475  ,"fields": { "postcode": 46013,  "wilaya":   46, "name": "Aoubellil" }},
    { "model": "base.commune",     "pk": 1476  ,"fields": { "postcode": 46014,  "wilaya":   46, "name": "El Malah" }},
    { "model": "base.commune",     "pk": 1477  ,"fields": { "postcode": 46015,  "wilaya":   46, "name": "Sidi Boumediene" }},
    { "model": "base.commune",     "pk": 1478  ,"fields": { "postcode": 46016,  "wilaya":   46, "name": "Oued Sabah" }},
    { "model": "base.commune",     "pk": 1479  ,"fields": { "postcode": 46017,  "wilaya":   46, "name": "Ouled Boudjemaa" }},
    { "model": "base.commune",     "pk": 1480  ,"fields": { "postcode": 46018,  "wilaya":   46, "name": "Ain Tolba" }},
    { "model": "base.commune",     "pk": 1481  ,"fields": { "postcode": 46019,  "wilaya":   46, "name": "El Amria" }},
    { "model": "base.commune",     "pk": 1482  ,"fields": { "postcode": 46020,  "wilaya":   46, "name": "Hassi El Ghella" }},
    { "model": "base.commune",     "pk": 1483  ,"fields": { "postcode": 46021,  "wilaya":   46, "name": "Hassasna" }},
    { "model": "base.commune",     "pk": 1484  ,"fields": { "postcode": 46022,  "wilaya":   46, "name": "Ouled Kihal" }},
    { "model": "base.commune",     "pk": 1485  ,"fields": { "postcode": 46023,  "wilaya":   46, "name": "Beni Saf" }},
    { "model": "base.commune",     "pk": 1486  ,"fields": { "postcode": 46024,  "wilaya":   46, "name": "Sidi Safi" }},
    { "model": "base.commune",     "pk": 1487  ,"fields": { "postcode": 46025,  "wilaya":   46, "name": "Oulhaca El Gheraba" }},
    { "model": "base.commune",     "pk": 1488  ,"fields": { "postcode": 46026,  "wilaya":   46, "name": "Tadmaya" }},
    { "model": "base.commune",     "pk": 1489  ,"fields": { "postcode": 46027,  "wilaya":   46, "name": "El Emir Abdelkader" }},
    { "model": "base.commune",     "pk": 1490  ,"fields": { "postcode": 46028,  "wilaya":   46, "name": "El Messaid" }},
    { "model": "base.commune",     "pk": 1491  ,"fields": { "postcode": 47001,  "wilaya":   47, "name": "Ghardaia" }},
    { "model": "base.commune",     "pk": 1492  ,"fields": { "postcode": 47002,  "wilaya":   47, "name": "El Meniaa" }},
    { "model": "base.commune",     "pk": 1493  ,"fields": { "postcode": 47003,  "wilaya":   47, "name": "Dhayet Bendhahoua" }},
    { "model": "base.commune",     "pk": 1494  ,"fields": { "postcode": 47004,  "wilaya":   47, "name": "Berriane" }},
    { "model": "base.commune",     "pk": 1495  ,"fields": { "postcode": 47005,  "wilaya":   47, "name": "Metlili" }},
    { "model": "base.commune",     "pk": 1496  ,"fields": { "postcode": 47006,  "wilaya":   47, "name": "El Guerrara" }},
    { "model": "base.commune",     "pk": 1497  ,"fields": { "postcode": 47007,  "wilaya":   47, "name": "El Atteuf" }},
    { "model": "base.commune",     "pk": 1498  ,"fields": { "postcode": 47008,  "wilaya":   47, "name": "Zelfana" }},
    { "model": "base.commune",     "pk": 1499  ,"fields": { "postcode": 47009,  "wilaya":   47, "name": "Sebseb" }},
    { "model": "base.commune",     "pk": 1500  ,"fields": { "postcode": 47010,  "wilaya":   47, "name": "Bounoura" }},
    { "model": "base.commune",     "pk": 1501  ,"fields": { "postcode": 47011,  "wilaya":   47, "name": "Hassi Fehal" }},
    { "model": "base.commune",     "pk": 1502  ,"fields": { "postcode": 47012,  "wilaya":   47, "name": "Hassi Gara" }},
    { "model": "base.commune",     "pk": 1503  ,"fields": { "postcode": 47013,  "wilaya":   47, "name": "Mansoura" }},
    { "model": "base.commune",     "pk": 1504  ,"fields": { "postcode": 48001,  "wilaya":   48, "name": "Relizane" }},
    { "model": "base.commune",     "pk": 1505  ,"fields": { "postcode": 48002,  "wilaya":   48, "name": "Oued Rhiou" }},
    { "model": "base.commune",     "pk": 1506  ,"fields": { "postcode": 48003,  "wilaya":   48, "name": "Belaassel Bouzegza" }},
    { "model": "base.commune",     "pk": 1507  ,"fields": { "postcode": 48004,  "wilaya":   48, "name": "Sidi Saada" }},
    { "model": "base.commune",     "pk": 1508  ,"fields": { "postcode": 48005,  "wilaya":   48, "name": "Ouled Aiche" }},
    { "model": "base.commune",     "pk": 1509  ,"fields": { "postcode": 48006,  "wilaya":   48, "name": "Sidi Lazreg" }},
    { "model": "base.commune",     "pk": 1510  ,"fields": { "postcode": 48007,  "wilaya":   48, "name": "El Hamadna" }},
    { "model": "base.commune",     "pk": 1511  ,"fields": { "postcode": 48008,  "wilaya":   48, "name": "Sidi Mhamed Ben Ali" }},
    { "model": "base.commune",     "pk": 1512  ,"fields": { "postcode": 48009,  "wilaya":   48, "name": "Mediouna" }},
    { "model": "base.commune",     "pk": 1513  ,"fields": { "postcode": 48010,  "wilaya":   48, "name": "Sidi Khettab" }},
    { "model": "base.commune",     "pk": 1514  ,"fields": { "postcode": 48011,  "wilaya":   48, "name": "Ammi Moussa" }},
    { "model": "base.commune",     "pk": 1515  ,"fields": { "postcode": 48012,  "wilaya":   48, "name": "Zemmoura" }},
    { "model": "base.commune",     "pk": 1516  ,"fields": { "postcode": 48013,  "wilaya":   48, "name": "Beni Dergoun" }},
    { "model": "base.commune",     "pk": 1517  ,"fields": { "postcode": 48014,  "wilaya":   48, "name": "Djidiouia" }},
    { "model": "base.commune",     "pk": 1518  ,"fields": { "postcode": 48015,  "wilaya":   48, "name": "El Guettar" }},
    { "model": "base.commune",     "pk": 1519  ,"fields": { "postcode": 48016,  "wilaya":   48, "name": "Hamri" }},
    { "model": "base.commune",     "pk": 1520  ,"fields": { "postcode": 48017,  "wilaya":   48, "name": "El Matmar" }},
    { "model": "base.commune",     "pk": 1521  ,"fields": { "postcode": 48018,  "wilaya":   48, "name": "Sidi Mhamed Ben Aouda" }},
    { "model": "base.commune",     "pk": 1522  ,"fields": { "postcode": 48019,  "wilaya":   48, "name": "Ain Tarek" }},
    { "model": "base.commune",     "pk": 1523  ,"fields": { "postcode": 48020,  "wilaya":   48, "name": "Oued Essalem" }},
    { "model": "base.commune",     "pk": 1524  ,"fields": { "postcode": 48021,  "wilaya":   48, "name": "Ouarizane" }},
    { "model": "base.commune",     "pk": 1525  ,"fields": { "postcode": 48022,  "wilaya":   48, "name": "Mazouna" }},
    { "model": "base.commune",     "pk": 1526  ,"fields": { "postcode": 48023,  "wilaya":   48, "name": "Kalaa" }},
    { "model": "base.commune",     "pk": 1527  ,"fields": { "postcode": 48024,  "wilaya":   48, "name": "Ain Rahma" }},
    { "model": "base.commune",     "pk": 1528  ,"fields": { "postcode": 48025,  "wilaya":   48, "name": "Yellel" }},
    { "model": "base.commune",     "pk": 1529  ,"fields": { "postcode": 48026,  "wilaya":   48, "name": "Oued El Djemaa" }},
    { "model": "base.commune",     "pk": 1530  ,"fields": { "postcode": 48027,  "wilaya":   48, "name": "Ramka" }},
    { "model": "base.commune",     "pk": 1531  ,"fields": { "postcode": 48028,  "wilaya":   48, "name": "Mendes" }},
    { "model": "base.commune",     "pk": 1532  ,"fields": { "postcode": 48029,  "wilaya":   48, "name": "Lahlef" }},
    { "model": "base.commune",     "pk": 1533  ,"fields": { "postcode": 48030,  "wilaya":   48, "name": "Beni Zentis" }},
    { "model": "base.commune",     "pk": 1534  ,"fields": { "postcode": 48031,  "wilaya":   48, "name": "Souk El Haad" }},
    { "model": "base.commune",     "pk": 1535  ,"fields": { "postcode": 48032,  "wilaya":   48, "name": "Dar Ben Abdellah" }},
    { "model": "base.commune",     "pk": 1536  ,"fields": { "postcode": 48033,  "wilaya":   48, "name": "El Hassi" }},
    { "model": "base.commune",     "pk": 1537  ,"fields": { "postcode": 48034,  "wilaya":   48, "name": "Had Echkalla" }},
    { "model": "base.commune",     "pk": 1538  ,"fields": { "postcode": 48035,  "wilaya":   48, "name": "Bendaoud" }},
    { "model": "base.commune",     "pk": 1539  ,"fields": { "postcode": 48036,  "wilaya":   48, "name": "El Ouldja" }},
    { "model": "base.commune",     "pk": 1540  ,"fields": { "postcode": 48037,  "wilaya":   48, "name": "Merdja Sidi Abed" }},
    { "model": "base.commune",     "pk": 1541  ,"fields": { "postcode": 48038,  "wilaya":   48, "name": "Ouled Sidi Mihoub" }}
    ]